owner,color,name,zip,address,tel,URL,description,lng,lat,type,size_m2,url_image,開園年月日,その他,公園の概要,園名の由来,利用時間,休園日,駐車場,アクセス,休業日,地域の方々との関わり,柏の宮公園ができるまで,柏の宮公園憲章,茶室（林丘亭）,災害に備えた公園,この公園ができるまで,主要防災施設,ファクス番号,みどりの相談所概要,ホームページ,市民緑地制度,施設等紹,施設等紹介,交通アクセス,開園時間,ご寄附のお願い,利用上の注意
杉並区,green,阿佐谷北児童遊園,166-0001,"〒166-0001
杉並区阿佐谷北1丁目11番3号",,https://www.city.suginami.tokyo.jp/shisetsu/kouen/01/asagayakita/1007052.html,,139.640906699997,35.7059916697922,公園 ,380.68,https://www.city.suginami.tokyo.jp/_res/projects/default_project/_page_/001/007/052/329_asagayakitajidouyuuen.jpg,昭和41年2月17日,トイレ有り,,,,,,,,,,,,,,,,,,,,,,,,
杉並区,green,阿佐谷中央公園,166-0001,"〒166-0001
杉並区阿佐谷北1丁目39番24号",,https://www.city.suginami.tokyo.jp/shisetsu/kouen/01/asagayakita/1007053.html,,139.638067600028,35.7093848199585,公園 ,2257.03,https://www.city.suginami.tokyo.jp/_res/projects/default_project/_page_/001/007/053/027_asagayatyuuoukouen.jpg,昭和45年7月20日,トイレ有り、すくすくひろば有り,"入り組んだ形の敷地に、さまざまな遊具を備えた公園で、やや勾配のある住宅地の道をくだると入口に達し、公園はそこから前方に長くのびています。
入口から入ったところが一番広い広場で、周りにはケヤキ・モチノキなどの高木が立ち並びます。
広場の中央には見上げるばかり大ケヤキがそびえ、その周りに遊具が配置されています。
目玉は砂場を備えた幅の広いコンクリート製の大型すべり台で、付属のジャングルジムと一緒になって子供達の人気の的です。
その向こう側には4連ブランコ・チェーンネットクライム・小児用のすべり台があります。
広場の先は「へ」の字形の細長い敷地になっていて、手前は石張りのテラスと砂場、そして小動物コーナーが連続してならぶ子供達の遊び場です。
テラスと砂場には長いパーゴラがあり、子供達を直射日光から守ります。
左におれたその先は、豆砂利の園路に4本のケヤキが並び、両側にサンゴジュ・アベリアなどの植込みのある通路状の公園で出入り口のひとつに通じています。",,,,,,,,,,,,,,,,,,,,,,,
杉並区,green,阿佐谷西公園,166-0001,"〒166-0001
杉並区阿佐谷北2丁目32番21号",,https://www.city.suginami.tokyo.jp/shisetsu/kouen/01/asagayakita/1007054.html,,139.633283500167,35.7071286398131,公園 ,1108.77,https://www.city.suginami.tokyo.jp/_res/projects/default_project/_page_/001/007/054/076_asagayanisikouen.jpg,昭和52年1月20日,トイレ有り、球戯場有り,"住宅地の路地の奥、「こんな所に」と思う場所にあります。
四方を細い区道と民家に囲まれた静かな公園で、民有地を買収してつくられたものです。
南側の民家に接するところは、サクラ、ケヤキなど高木がこんもり繁る木立です。
中央の広場は、子供達の格好の遊び場になっています。
その左手は、細く住宅地に入り込んでいて、住宅の庭とが一体になったような感じがあります。
そこには枝型ブランコ、すべり台、砂場があります。
東側の一角には球戯コーナーがあります。",,,,,,,,,,,,,,,,,,,,,,,
杉並区,green,松山児童遊園,166-0001,"〒166-0001
杉並区阿佐谷北3丁目35番2号",,https://www.city.suginami.tokyo.jp/shisetsu/kouen/01/asagayakita/1007055.html,,139.632476300178,35.7113672100105,公園 ,568.47,https://www.city.suginami.tokyo.jp/_res/projects/default_project/_page_/001/007/055/303_matuyamajidouyuuen.jpg,昭和26年1月30日,トイレ有り,"アケボノスギ、ケヤキそしてイチョウなど背の高い木が植えられていますが、園内は明るい雰囲気です。
国有地を借りてつくられた児童遊園で、ここの遊具の中心は、木製遊具。
ロープのネット渡りとすべり台が一緒になったもので、広場の真ん中にあります。
ほかに4連ブランコ、鉄棒そして日除けつきの砂場があります。
近所に保育園があり、保母さんに連れられた園児達がよく遊びにきます。
この公園は、昭和62年度に大規模な改修をしています。
この公園は国有地の無償貸付を受けています。",,,,,,,,,,,,,,,,,,,,,,,
杉並区,green,阿佐谷こぶし緑地,166-0001,"〒166-0001
杉並区阿佐谷北3丁目36番2号",,https://www.city.suginami.tokyo.jp/shisetsu/kouen/01/asagayakita/1007056.html,,139.633525500175,35.7113481800129,公園 ,168.75,https://www.city.suginami.tokyo.jp/_res/projects/default_project/_page_/001/007/056/223_asagayakobusiryokuti.jpg,平成10年8月1日,トイレなし,,,,,,,,,,,,,,,,,,,,,,,,
杉並区,green,阿佐谷かりん公園,166-0001,"〒166-0001
杉並区阿佐谷北4丁目20番13号",,https://www.city.suginami.tokyo.jp/shisetsu/kouen/01/asagayakita/1007057.html,,139.635382300043,35.7126984399902,公園 ,368.93,https://www.city.suginami.tokyo.jp/_res/projects/default_project/_page_/001/007/057/148_asagayakarinkouen.jpg,昭和61年12月26日,トイレ有り,,,,,,,,,,,,,,,,,,,,,,,,
杉並区,green,お伊勢の森児童遊園,166-0001,"〒166-0001
杉並区阿佐谷北5丁目35番5号",,https://www.city.suginami.tokyo.jp/shisetsu/kouen/01/asagayakita/1007058.html,,139.639809400005,35.7108864899848,公園 ,348.11,https://www.city.suginami.tokyo.jp/_res/projects/default_project/_page_/001/007/058/351_oisenomorijidouyuuen.jpg,昭和47年9月20日,トイレなし,,,,,,,,,,,,,,,,,,,,,,,,
杉並区,green,Aさんの庭,166-0001,"〒166-0001
杉並区阿佐谷北5丁目45番13号",,https://www.city.suginami.tokyo.jp/shisetsu/kouen/01/asagayakita/1007059.html,,139.640588199994,35.7112779099894,公園 ,829.83,https://www.city.suginami.tokyo.jp/_res/projects/default_project/_page_/001/007/059/k00105_asannoniwa.jpg,平成22年7月25日,バリアフリートイレ有り,"「Aさんの庭」には、かつて、昭和初期の杉並の文化・生活を今に伝える歴史的な住宅とみどり豊かな庭がありました。
バラの垣根越しに見える庭一面に美しいバラが植えられていたことから、地域の方からは、「ばらの家」と呼ばれていました。
「トトロが喜んで住みそうな家」として、宮崎駿監督著「トトロの住む家」で紹介されるなど、地域のみなさんにも親しまれ、住宅が取壊されそうになった時には、6,300余の住宅保存の署名が集まりました。
区はこの地を取得し、公園として整備するために、地域のみなさんとともに公園計画の検討を進めました。
しかし、平成21年2月、火災により住宅は焼失してしまいました。
ところが、この地をよく知る宮崎監督から区へ公園デザインの提案の申出がありました。
この提案をもとに、再び、地域のみなさんと公園計画の検討を進め、整備を経て、平成22年7月に開園へと至りました。
「Aさんの庭」は、「かつてこの地にあった住宅の佇まいを風景として継承する」ことをコンセプトとしています。
トイレと防災倉庫を兼ねる建物の外観は、赤い素焼きの屋根瓦と茶色の外壁、そして白い窓枠により住宅の様子を再現しています。
火災後も残された住宅の土台には、土を入れ芝生を張り、来歴や間取を解説するためのサイン板を設置しました。
この他、住宅とともに歴史を刻んできた井戸、クヌギやキンモクセイの大木、四季折々に庭を彩る草花の数々をご覧いただけます。
また、新しいシンボルとなるコブシは、可能な限り自然の形のまま育て、その周囲の石積にみなさんが腰を下ろして集えるようになっています。",「Aさんの庭」の「Aさん」は、「公園に来る皆さん」のことです。,,,,,,,,,,,,,,,,,,,,,,
杉並区,green,阿佐谷北第二児童遊園,166-0001,"〒166-0001
杉並区阿佐谷北6丁目7番8号",,https://www.city.suginami.tokyo.jp/shisetsu/kouen/01/asagayakita/1007060.html,,139.639617199982,35.7138875798443,公園 ,673.65,https://www.city.suginami.tokyo.jp/_res/projects/default_project/_page_/001/007/060/346_asagayakitadainijidouyuuen.jpg,昭和46年4月20日,トイレ有り,,,,,,,,,,,,,,,,,,,,,,,,
杉並区,green,小七山公園,166-0001,"〒166-0001
杉並区阿佐谷北6丁目30番14号",,https://www.city.suginami.tokyo.jp/shisetsu/kouen/01/asagayakita/1007061.html,,139.636386599983,35.7163022797972,公園 ,474.40,https://www.city.suginami.tokyo.jp/_res/projects/default_project/_page_/001/007/061/198_kositiyamakouen.jpg,平成5年3月31日,トイレ有り,,,,,,,,,,,,,,,,,,,,,,,,
杉並区,green,南阿佐谷すずらん緑地,166-0004,"〒166-0004
杉並区阿佐谷南1丁目11番5号",,https://www.city.suginami.tokyo.jp/shisetsu/kouen/01/asagayaminami/1007062.html,,139.637911900016,35.6989979996485,公園 ,135.00,https://www.city.suginami.tokyo.jp/_res/projects/default_project/_page_/001/007/062/prk_minamiasagayasuzuran_ryokuti.jpg,平成15年3月3日,トイレなし,,,,,,,,,,,,,,,,,,,,,,,,
杉並区,green,馬橋児童遊園,166-0004,"〒166-0004
杉並区阿佐谷南1丁目13番33号",,https://www.city.suginami.tokyo.jp/shisetsu/kouen/01/asagayaminami/1007063.html,,139.638733800017,35.6994758397532,公園 ,1711.08,https://www.city.suginami.tokyo.jp/_res/projects/default_project/_page_/001/007/063/326_mabasijidouyuuen.jpg,昭和39年3月30日,トイレなし,,,,,,,,,,,,,,,,,,,,,,,,
杉並区,green,阿佐谷児童遊園,166-0004,"〒166-0004
杉並区阿佐谷南1丁目18番9号",,https://www.city.suginami.tokyo.jp/shisetsu/kouen/01/asagayaminami/1007064.html,,139.637618900023,35.7003373396381,公園 ,464.08,https://www.city.suginami.tokyo.jp/_res/projects/default_project/_page_/001/007/064/302_asagayajidouyuuen.jpg,昭和25年3月31日,トイレ有り,,,,,,,,,,,,,,,,,,,,,,,,
杉並区,green,阿佐谷にしはら公園,166-0004,"〒166-0004
杉並区阿佐谷南1丁目21番28号",,https://www.city.suginami.tokyo.jp/shisetsu/kouen/01/asagayaminami/1007065.html,,139.641717500011,35.6998506197771,公園 ,1657.20,https://www.city.suginami.tokyo.jp/_res/projects/default_project/_page_/001/007/065/089_asagayanisiharakouen.jpg,昭和53年4月1日,トイレ有り、球戯場有り,"青梅街道から住宅地に入り、坂を下っていくと公園に行き着きます。
公園敷地と住宅地が、入り組んで敷地は複雑な形をしています。
入口付近に枝をいっぱいに張ったケヤキが立ち、園内にも高木がこんもりと繁り、緑が豊かです。
中に入ってすぐの所が、遊具コーナー。
パーゴラのある砂場とブランコがあります。公園の一番奥まったところには、ネットフェンスに囲まれた球戯場があります。",,,,,,,,,,,,,,,,,,,,,,,
杉並区,green,阿佐谷東公園,167-0004,"〒166-0004
杉並区阿佐谷南1丁目42番6号",,https://www.city.suginami.tokyo.jp/shisetsu/kouen/01/asagayaminami/1007066.html,,139.640096200013,35.7018248996466,公園 ,1845.39,https://www.city.suginami.tokyo.jp/_res/projects/default_project/_page_/001/007/066/20191.jpg,昭和49年3月31日,トイレ有り 球戯場有り,"球戯場は、土の地面でケヤキで囲まれ、中央付近に大きなキリが1本、公園の主人公のような風情で立っています。
球戯場の東側にアケボノスギがあります。
その向こう側は遊具のコーナー。
土の敷地にサワラとケヤキが立ち、かたわらに砂場付きのすべり台とブランコがあります。
周囲はサワラとヒイラギナンテンの植込みです。",,,,,,,,,,,,,,,,,,,,,,,
杉並区,green,阿佐谷ことり公園,167-0004,"〒166-0004
杉並区阿佐谷南3丁目4番16号",,https://www.city.suginami.tokyo.jp/shisetsu/kouen/01/asagayaminami/1007067.html,,139.633948300044,35.7013888096122,公園 ,450.08,https://www.city.suginami.tokyo.jp/_res/projects/default_project/_page_/001/007/067/asgayakotori.jpg,昭和61年8月12日,トイレ有り、すくすくひろば有り,,,,,,,,,,,,,,,,,,,,,,,,
杉並区,green,阿佐谷南公園,166-0004,"〒166-0004
杉並区阿佐谷南3丁目16番18号",,https://www.city.suginami.tokyo.jp/shisetsu/kouen/01/asagayaminami/1007068.html,,139.629714500009,35.7034362597821,公園 ,1177.74,https://www.city.suginami.tokyo.jp/_res/projects/default_project/_page_/001/007/068/028_asagayaminamikouen.jpg,昭和46年2月1日,トイレ有り,"公園敷地の中央に一部住宅地が入り込み、凹型をしています。
左右のでっぱりは、それぞれ特徴のある設計がほどこされ、公園の景色や雰囲気に変化がつけられています。
道路に面した部分はケヤキを中心にした植込みで、その先は4連ブランコとコンビネーションジムがあります。
左手には2つの円形植込みがあり、その1つに植えられたシュロがアクセントになっています。
その奥がひとつめの出っ張りでダルマ型の植込みを囲んで石張りのテラスがあり、周囲は濃い植込みで、かたすみのタケの緑がさわやかです。
反対側の出っ張りは、4つのパーゴラをそなえた砂場で、隣接するようによしず張りのパーゴラをそなえたテラスがあります。",,,,,,,,,,,,,,,,,,,,,,,
杉並区,green,天沼地蔵前公園,167-0032,"〒167-0032
杉並区天沼1丁目1番4号",,https://www.city.suginami.tokyo.jp/shisetsu/kouen/01/amanuma/1007069.html,,139.627258899996,35.7048843798342,公園 ,1054.84,https://www.city.suginami.tokyo.jp/_res/projects/default_project/_page_/001/007/069/200_amanumajizoumaekouen.jpg,平成5年12月1日,トイレ有り,,,,,,,,,,,,,,,,,,,,,,,,
杉並区,green,天沼一丁目児童遊園,167-0032,"〒167-0032
杉並区天沼1丁目2番11号",,https://www.city.suginami.tokyo.jp/shisetsu/kouen/01/amanuma/1007070.html,,139.629199100024,35.7055143798193,公園 ,148.26,https://www.city.suginami.tokyo.jp/_res/projects/default_project/_page_/001/007/070/amanuma.jpg,昭和58年12月15日,トイレ有り,,,,,,,,,,,,,,,,,,,,,,,,
杉並区,green,天沼東公園,167-0032,"〒167-0032
杉並区天沼1丁目32番11号",,https://www.city.suginami.tokyo.jp/shisetsu/kouen/01/amanuma/1007071.html,,139.627623300043,35.7079963599619,公園 ,587.29,https://www.city.suginami.tokyo.jp/_res/projects/default_project/_page_/001/007/071/amanumahigasi.jpg,昭和47年10月20日,トイレ有り,,,,,,,,,,,,,,,,,,,,,,,,
杉並区,green,天沼西公園,167-0032,"〒167-0032
杉並区天沼3丁目17番27号",,https://www.city.suginami.tokyo.jp/shisetsu/kouen/01/amanuma/1007072.html,,139.619677300042,35.7090371999863,公園 ,1061.29,https://www.city.suginami.tokyo.jp/_res/projects/default_project/_page_/001/007/072/064_amanumanisikouen.jpg,昭和50年2月25日,トイレ有り、球戯場有り,,,,,,,,,,,,,,,,,,,,,,,,
杉並区,green,天沼弁天池公園,167-0032,"〒167-0032
杉並区天沼3丁目23番1号",,https://www.city.suginami.tokyo.jp/shisetsu/kouen/01/amanuma/1007073.html,車いすトイレ　オストメイトトイレ　ベビーベッド・ベビーチェアトイレ　,139.621503000035,35.7086997799893,公園 ,5295.66,https://www.city.suginami.tokyo.jp/_res/projects/default_project/_page_/001/007/073/amanuma_bentenike_park01.jpg,平成19年4月7日,"トイレ有り、バリアフリートイレ有り、すくすくひろば有り
バリアフリートイレは、郷土博物館分館開館時のみ利用可","園名の由来
かつて、この公園の南側広場あたりにはこんこんと水の湧き出る“天沼弁天池”と呼ばれる池がありました。池は、広さ約300坪（直径35メートル程度）の円形で、約5坪（直径4～5メートル）の中ノ島には弁天様が祀られていて、大正の半ば頃までは、日照りが続くと大勢の農民が集まって弁天様へ雨乞いの行事も行なわれていました。
この池は、桃園川の水源のひとつでもあり、天沼の地名の起こりになったともいわれています。
こうした由緒ある土地の由来を将来に伝承するために“天沼弁天池公園”と名づけました。
郷土博物館分館
この館では身近で親しまれる博物館をめざし、新しい博物館活動を展開します。
防災機能
この公園は、災害時の一時的な避難場所となるように夜間も開放します。
地域の防災機能を担う場として、園内に災害備蓄倉庫・軽可搬（消火用）ポンプ格納庫・地下貯水槽（10トン×2基）・井戸を設けてあります。",,,,,,,,,,,,,,,,,,,,,,,
杉並区,green,天沼もえぎ公園,167-0032,"〒167-0032
杉並区天沼3丁目31番5号",,https://www.city.suginami.tokyo.jp/shisetsu/kouen/01/amanuma/1007074.html,,139.622137700002,35.707318499991,公園 ,860.99,https://www.city.suginami.tokyo.jp/_res/projects/default_project/_page_/001/007/074/226_amanumamoegikouen.jpg,平成11年3月31日,トイレなし,,,,,,,,,,,,,,,,,,,,,,,,
杉並区,green,天沼三丁目公園,167-0032,"〒167-0032
杉並区天沼3丁目36番3号",,https://www.city.suginami.tokyo.jp/shisetsu/kouen/01/amanuma/1007075.html,,139.622198600167,35.7098873999847,公園 ,354.14,https://www.city.suginami.tokyo.jp/_res/projects/default_project/_page_/001/007/075/135_amanumasantyoumekouen.jpg,昭和59年12月20日,トイレなし,,,,,,,,,,,,,,,,,,,,,,,,
杉並区,green,井草東公園,167-0021,"〒167-0021
杉並区井草1丁目10番18号",,https://www.city.suginami.tokyo.jp/shisetsu/kouen/01/igusa/1007076.html,,139.62689039985,35.7243781897579,公園 ,346.20,https://www.city.suginami.tokyo.jp/_res/projects/default_project/_page_/001/007/076/222_igusahigasikouen.jpg,平成10年8月1日,トイレ有り,,,,,,,,,,,,,,,,,,,,,,,,
杉並区,green,井草さくら公園,167-0021,"〒167-0021
杉並区井草1丁目17番16号",,https://www.city.suginami.tokyo.jp/shisetsu/kouen/01/igusa/1007077.html,,139.622790999844,35.7257324997668,公園 ,1157.02,https://www.city.suginami.tokyo.jp/_res/projects/default_project/_page_/001/007/077/130_igusasakurakouen.jpg,昭和58年10月5日,トイレ有り、球戯場有り,"日当たりのよい明るい敷地に、遊びの広場、憩いのテラスそして球戯場がつくられています。
道路に面した北側が、憩いのテラス。
サザンカ、サルスベリなどの中木とツゲなどの灌木が囲む敷地は、タイルで舗装されています。
周りが緑に囲まれているため、のんびりとくつろぐことができます。テラスの隣は砂場。
上をおおうパーゴラのフジの緑が鮮やかです。
数本のサクラが枝を広げる遊びの広場の主役は、複合遊具。丸太、樹脂、ステンレスなどでつくられた遊具で、やぐら、丸太の吊り橋、ロープネットが一体になったものと、すべり台とに分かれています。",,,,,,,,,,,,,,,,,,,,,,,
杉並区,green,正保公園,167-0021,"〒167-0021
杉並区井草1丁目32番2号",,https://www.city.suginami.tokyo.jp/shisetsu/kouen/01/igusa/1007078.html,,139.622997099831,35.7270444197668,公園 ,684.21,https://www.city.suginami.tokyo.jp/_res/projects/default_project/_page_/001/007/078/118_syouhokouen.jpg,昭和56年9月1日,トイレ有り,"都営住宅の建設に伴いつくられた公園です。
小規模ながらさわやかな木立があり、落ちついた雰囲気の公園です。",,,,,,,,,,,,,,,,,,,,,,,
杉並区,green,井草公園,167-0021,"〒167-0021
杉並区井草2丁目21番1号",,https://www.city.suginami.tokyo.jp/shisetsu/kouen/01/igusa/1007079.html,,139.618885399823,35.7272152897907,公園 ,2843.84,https://www.city.suginami.tokyo.jp/_res/projects/default_project/_page_/001/007/079/prk_igusa.jpg,昭和49年3月1日,トイレ有り、球戯場有り,"園内は、主に多目的広場、遊びの広場、そして球戯場の3つに分けられます。
新青梅街道側の入口を入ったところが多目的広場。
ケヤキ、イチョウ、シイノキなどの高木が梢をつらね、その下にはフイリヤブランやシャガなどが植えられています。
広場は多目的に利用できるオープンスペースとなっています。
多目的広場の南側が遊びの広場。
ここは日当たりの良い明るい広場となっており、健康遊具のある高齢者用広場とすべり台、ブランコ、砂場、スプリング遊具のある幼児用広場に分かれています。
遊びの広場の東側にあるイチョウに囲まれたネットフェンスの中は球戯場です。
植込みと球戯場の間の園路を抜けるともう一つの遊びの広場に出ます。
この広場には少年用のコンビネーション遊具があります。",,,,,,,,,,,,,,,,,,,,,,,
杉並区,green,八成公園,167-0021,"〒167-0021
杉並区井草2丁目27番8号",,https://www.city.suginami.tokyo.jp/shisetsu/kouen/01/igusa/1007080.html,,139.620326399825,35.7283936797727,公園 ,595.04,https://www.city.suginami.tokyo.jp/_res/projects/default_project/_page_/001/007/080/025_hatinarikouen.jpg,昭和45年6月1日,トイレ有り,"八成小学校の裏側に隣接する民間の畑を買収してつくられた公園で、南と西側が道路に面しているので日当たりの良い公園です。
正方形の敷地は道路より少し高くなっていて、周りはアケボノスギやツツジなどの植込みになっています。
明るい広場にさわやかな木陰をつくっているのは、数本のケヤキで景観のアクセントになっています。
遊具はブランコやすべり台、砂場があり、夏でも木陰で涼しく遊べます。",,,,,,,,,,,,,,,,,,,,,,,
杉並区,green,井草三丁目緑地,167-0021,"〒167-0021
杉並区井草3丁目4番13号",,https://www.city.suginami.tokyo.jp/shisetsu/kouen/01/igusa/1007081.html,,139.613934699824,35.7262848898194,公園 ,442.61,https://www.city.suginami.tokyo.jp/_res/projects/default_project/_page_/001/007/081/217_igusasantyoumeryokuti.jpg,平成9年7月1日,トイレなし,,,,,,,,,,,,,,,,,,,,,,,,
杉並区,green,住吉公園,167-0021,"〒167-0021
杉並区井草3丁目15番5号",,https://www.city.suginami.tokyo.jp/shisetsu/kouen/01/igusa/1007082.html,,139.614786599814,35.7269698098224,公園 ,754.19,https://www.city.suginami.tokyo.jp/_res/projects/default_project/_page_/001/007/082/067_sumiyosikouen.jpg,昭和50年4月1日,トイレ有り,"環状8号線に面した都営団地のそばにあり、都営住宅の建設に伴いつくられた公園です。
表通りに面した入口付近には、濃緑のトウネズミモチが枝を広げています。
左側は裏門まで、スギ、トウカエデ、ケヤキなどの高木が立つ植込みがつづきます。",,,,,,,,,,,,,,,,,,,,,,,
杉並区,green,井草北公園,167-0021,"〒167-0021
杉並区井草3丁目20番10号",,https://www.city.suginami.tokyo.jp/shisetsu/kouen/01/igusa/1007083.html,,139.616335899806,35.7282431498169,公園 ,994.98,https://www.city.suginami.tokyo.jp/_res/projects/default_project/_page_/001/007/083/048_igusakitakouen.jpg,昭和48年11月30日,トイレ有り、球戯場有り,"住宅地の中の公園で、南側には家屋がないので、明るく広々としています。
周りは植込みの緑が濃く、園内にはケヤキがさわやかな木陰をつくっています。
広場の中央に太いケヤキを囲んで円形のベンチがおかれています。
遊具はその周りに配置されています。
遊びの施設として、また、景観として目につくのが南側の築山です。
土をうず高く盛った小山にはクローバーなどが生え、擬木の登り木が立っています。
そこで遊ぶ子供達は、ちょっとした冒険の気分が味わえます。
築山のふもとは砂場。フジの緑が鮮やかなパーゴラが建ち、すべり台もついています。
ほかに4連ブランコとタイヤの遊具があります。
また、北側には、球戯場がもうけられています。",,,,,,,,,,,,,,,,,,,,,,,
杉並区,green,矢頭公園,167-0021,"〒167-0021
杉並区井草4丁目3番5号",,https://www.city.suginami.tokyo.jp/shisetsu/kouen/01/igusa/1007084.html,,139.610234189132,35.7254789778272,公園 ,1169.49,https://www.city.suginami.tokyo.jp/_res/projects/default_project/_page_/001/007/084/023_yagasirakouen.jpg,昭和45年4月1日,トイレ有り,"公園の道路ぎわに大きなケヤキが数本立ち、ゆったりと枝を広げています。
木の下をくぐるようにして中に入ると、そこに色々な遊具のある広場があります。
広場は土の部分とタイル張りのテラスとに分かれてていて、中心的な遊具は白いコンクリート製の富士山のような円錐形のすべり台で、石や鉄の足掛かりがあるので、よじ登って遊ぶこともできます。
広場のほぼ中央には、石で円く囲まれた植込みがあり、サルスベリの下に四季の草花が植えられています。
その右奥がテラスで、隣の砂場にまたがって大きなパーゴラが建ち、憩いのコーナーになっています。
砂場の周りには動物遊具が配置され、中にはカラーコンクリート製の子供の家がつくられています。",,,,,,,,,,,,,,,,,,,,,,,
杉並区,green,井草ひまわり公園,167-0021,"〒167-0021
杉並区井草4丁目8番21号",,https://www.city.suginami.tokyo.jp/shisetsu/kouen/01/igusa/1007085.html,,139.611780199827,35.725902529827,公園 ,342.15,https://www.city.suginami.tokyo.jp/_res/projects/default_project/_page_/001/007/085/158_igusahimawarikouen.jpg,昭和63年2月23日,トイレなし,,,,,,,,,,,,,,,,,,,,,,,,
杉並区,green,井草森公園,167-0021,"〒167-0021
杉並区井草4丁目12番1号",03-5310-4515,https://www.city.suginami.tokyo.jp/shisetsu/kouen/01/igusa/1007086.html,車いすトイレ　車いす駐車場　インターホン　点字ブロック　音声案内　AED　,139.611942999811,35.7267260398408,公園 ,39503.80,https://www.city.suginami.tokyo.jp/_res/projects/default_project/_page_/001/007/086/213_igusamorikouen.jpg,平成8年3月31日,トイレ有り、バリアフリートイレ有り（管理事務所内）、流れ有り、すくすくひろば有り,"原っぱと運動場を中心とした公園です。水遊び場や大きな遊具夏休みにデイキャンプができる広場があります。また、災害時には「防災公園」として機能するようゲートシャワーやスプリンクラーなどさまざまな施設を備えています。

原っぱゾーン
公園のほぼ中央に位置し、疎林の中の草地を走り回りのびのびと憩える空間であり、本公園のメイン広場です。一画には子供たちが遊べる遊具があり、その他ゲートボールなど軽スポーツが可能な広場を設けています。夏休みにはグループでデイキャンプもできます。（日曜・祝日を除く）
森と水のゾーン
流れ、池そして築山を配し、四季折々に花を楽しめます。本公園でもっとも自然に親しめる空間です。
流れは二本あり、一本は滝から落水し渓流の感じを出しています。その下流は浅い溜まりとなり水遊びができます。もう一本は水生植物や水辺植物を植え自然観察を楽しむことができます。池は中の島を配し、ほとりのあずまやからの眺めはすばらしく、カルガモなど水鳥が飛来してきます。
多目的運動場ゾーン
サッカー・ラグビーなどに利用ができ、全面天然芝で覆われています。災害時には避難広場としても利用します。
この公園は国有地の無償貸付を受けています。",,,,,,,,,,,,,,,,,,,,,,,
杉並区,green,玉川上水公園,168-0063,"〒168-0063
杉並区和泉2丁目7番19号",,https://www.city.suginami.tokyo.jp/shisetsu/kouen/01/izumi/1007087.html,,139.650590500039,35.6713385497579,公園 ,4252.58,https://www.city.suginami.tokyo.jp/_res/projects/default_project/_page_/001/007/087/015_tamagawajyousuikouen.jpg,昭和43年12月7日,トイレ有り,"玉川上水は、江戸時代に江戸の町に飲料水を供給するためにつくられた上水路で、現在は一部が暗渠となって杉並区内を通っています。
その暗渠の上に東京都水道局から借地してつくられた3つの公園と1つの緑地があります。
下流から玉川上水公園、玉川上水永泉寺緑地、玉川上水第三公園、玉川上水第二公園の順に並んでおり、その全長は約2,000メートルにもおよびます。
玉川上水公園は、井の頭線の明大前駅付近にあり、道路をはさんで3つの区画に分かれています。
東端にあるのがコンクリートと土の広場でそこには砂場と擬木の登はん木があります。
真ん中の広場には大きなすべり台とクジラ・カニ・カメの遊具がおいてあり、とりわけクジラのつくりは見事です。
ステンレスパイプのモニュメントと色鮮やかな花壇が目をひくのが三番目の広場です。
広場の前は明治大学和泉校舎で、もと徳川幕府から明治政府まで続いた兵器廠のあったところです。",,,,,,,,,,,,,,,,,,,,,,,
杉並区,green,和泉二丁目緑地,168-0063,"〒168-0063
杉並区和泉2丁目17番38号",,https://www.city.suginami.tokyo.jp/shisetsu/kouen/01/izumi/1007088.html,,139.650097299987,35.6746006097904,公園 ,98.31,https://www.city.suginami.tokyo.jp/_res/projects/default_project/_page_/001/007/088/502_izuminityoumeryokuti.jpg,昭和51年7月1日,トイレなし,,,,,,,,,,,,,,,,,,,,,,,,
杉並区,green,和泉二丁目公園,168-0063,"〒168-0063
杉並区和泉2丁目45番10号",,https://www.city.suginami.tokyo.jp/shisetsu/kouen/01/izumi/1007089.html,,139.649770299842,35.6772020598181,公園 ,2666.11,https://www.city.suginami.tokyo.jp/_res/projects/default_project/_page_/001/007/089/113_izuminityoumekouen.jpg,昭和56年4月1日,トイレ有り、球戯場有り、流れ有り,"都有地と水路敷を利用してつくられた公園で、神田川に面しています。
大きな広場、植込みに囲まれた遊具コーナー、そして球技場などからなる公園です。
真ん中は広々とした土の広場で、そのほぼ中央に複合遊具があります。
そのかたわらには1本のアキニレが立ち、景観にアクセントをつけています。
広場の周りは、サクラ、ケヤキなどの植え込みです。
広場の右手にこんもりとした植込みがあり、周りにはいろいろな施設があります。
まず目につくのが流れ。樹木の下につくられた砂場とテラスのかたわらに水源があり、コンクリート造りの流れがアキニレの木の下を流れます。
流れの両側は舗装されていて、子供達が水遊びをするのに都合よくできています。
流れの終点は、フジ棚が建つ休憩所です。
流れのさらに右奥は、遊具広場。
木々の間に舗装された園路を通って中に入ると、そこには木製のポニーや枝型ブランコがあります。
大きな広場の左側は、ネットフェンスの球戯場。その周りはサンゴジュに囲まれています。",,,,,,,,,,,,,,,,,,,,,,,
杉並区,green,和泉西公園,168-0063,"〒168-0063
杉並区和泉3丁目47番17号",,https://www.city.suginami.tokyo.jp/shisetsu/kouen/01/izumi/1007090.html,,139.647534399797,35.6798829798375,公園 ,498.54,https://www.city.suginami.tokyo.jp/_res/projects/default_project/_page_/001/007/090/210_izuminisikouen.jpg,平成7年3月31日,トイレ有り,,,,,,,,,,,,,,,,,,,,,,,,
杉並区,green,和泉児童遊園,168-0063,"〒168-0063
杉並区和泉4丁目16番23号",,https://www.city.suginami.tokyo.jp/shisetsu/kouen/01/izumi/1007091.html,,139.650204199824,35.6792417598265,公園 ,524.97,https://www.city.suginami.tokyo.jp/_res/projects/default_project/_page_/001/007/091/prk_izumi_jidoyuen.jpg,昭和43年12月7日,トイレ有り,,,,,,,,,,,,,,,,,,,,,,,,
杉並区,green,和泉緑地,168-0063,"〒168-0063
杉並区和泉4丁目17番1号",,https://www.city.suginami.tokyo.jp/shisetsu/kouen/01/izumi/1007092.html,,139.65088619983,35.6800252898283,公園 ,598.92,https://www.city.suginami.tokyo.jp/_res/projects/default_project/_page_/001/007/092/prk_izumi_ryokuti.jpg,平成19年2月8日,トイレなし,,,,,,,,,,,,,,,,,,,,,,,,
杉並区,green,和泉四丁目緑地,168-0063,"〒168-0063
杉並区和泉4丁目17番26号",,https://www.city.suginami.tokyo.jp/shisetsu/kouen/01/izumi/1007093.html,,139.651110099831,35.680820489832,公園 ,144.09,https://www.city.suginami.tokyo.jp/_res/projects/default_project/_page_/001/007/093/501_izumiyontyoumeryokuti.jpg,昭和51年7月1日,トイレなし,,,,,,,,,,,,,,,,,,,,,,,,
杉並区,green,べんてんばし公園,168-0063,"〒168-0063
杉並区和泉4丁目17番29号",,https://www.city.suginami.tokyo.jp/shisetsu/kouen/01/izumi/1007094.html,,139.652668899845,35.6808480798283,公園 ,1418.79,https://www.city.suginami.tokyo.jp/_res/projects/default_project/_page_/001/007/094/036_bentenbasikouen.jpg,昭和47年4月1日,トイレ有り、球戯場有り,"神田川の河川改修により生じた旧河川敷と民有地の買収によりつくられた公園です。
神田川に面したほぼ三角形の敷地に、遊具と球戯場があります。
道に沿って十数本のイチョウが1列に立っていて、それは川沿いの並木道といった風情です。
公園の左半分が球戯場で、右半分が砂を敷いた遊びの広場で、広場の周りをケヤキ・サワラ・サンゴジュなどに囲まれています。
そこに備えられている遊具は日除けのある砂場・ブランコ・すべり台の3種類です。",,,,,,,,,,,,,,,,,,,,,,,
杉並区,green,和泉がけ公園,168-0063,"〒168-0063
杉並区和泉4丁目18番5号",,https://www.city.suginami.tokyo.jp/shisetsu/kouen/01/izumi/1007095.html,,139.652597899847,35.6799270998228,公園 ,882.64,https://www.city.suginami.tokyo.jp/_res/projects/default_project/_page_/001/007/095/095_izumigakekouen.jpg,昭和54年2月1日,トイレ有り,"区画整理事業により生み出され区に提供された公園です。
園名のとおり崖下につくられています。
公園のあるところは神田川の南、和泉四丁目の台地の際です。
路地に面して植込みがめぐらされ、敷地内にも木立がみえます。
広場の奥は左右に広がる崖で、上は住宅地です。
崖下に灌木の植込みがあり、そこにコンビネーション遊具がそなえられています。
赤い屋根のやぐらを中心に、左にはプラスチックのトンネルとすべり台、右には鉄の輪のトンネルがあります。
いずれも崖の傾斜を利用して勾配がつけられています。
坂道の路地に面したところは、サクラ、カツラ、ケヤキなどがこんもりと繁る木立があります。
その下は赤レンガのテラスで、そばに日除けのついた砂場がもうけられています。",,,,,,,,,,,,,,,,,,,,,,,
杉並区,green,一本橋公園,168-0063,"〒168-0063
杉並区和泉4丁目18番28号",,https://www.city.suginami.tokyo.jp/shisetsu/kouen/01/izumi/1007096.html,,139.650981699832,35.6795404298255,公園 ,715.80,https://www.city.suginami.tokyo.jp/_res/projects/default_project/_page_/001/007/096/096_ipponbasikouen.jpg,昭和54年2月1日,トイレなし,"和泉がけ公園と同じ土地区画整理事業によりつくられた公園です。
住宅地の路地と路地の間にあり、神田川に面し、公園は道路より少し高くなっています。
園内も2段になっていて、南北の入口部分より中央の広場が高くなっています。
北の入口を入ると円い大きな花壇をはさんで2つの低い階段があり、広場へといざないます。
花壇は、中心部にボックスウッドが植えられ、その周りに色鮮やかな四季の草花が植えられています。
左の階段を登ったところはテラスと砂場で、フジづるのからまるパーゴラが建っていて、砂場のわきには、丸太づくりのポニーのスプリング遊具があります。
広場は、開けていて、ケヤキが1本だけ立っています。
周りは緑濃い植込み。広場の先は、南の出入口で、反対側の路地に通じています。",,,,,,,,,,,,,,,,,,,,,,,
杉並区,green,泉南緑地,168-0063,"〒168-0063
杉並区和泉4丁目41番1号",,https://www.city.suginami.tokyo.jp/shisetsu/kouen/01/izumi/1007097.html,,139.655920999978,35.6802706598157,公園 ,738.95,https://www.city.suginami.tokyo.jp/_res/projects/default_project/_page_/001/007/097/229_sennnannryokuti.jpg,平成12年6月1日,トイレなし,,,,,,,,,,,,,,,,,,,,,,,,
杉並区,green,弁天橋東緑地,168-0063,"〒168-0063
杉並区和泉4丁目44番1号",,https://www.city.suginami.tokyo.jp/shisetsu/kouen/01/izumi/1007098.html,,139.654453099961,35.6807412198231,公園 ,964.25,https://www.city.suginami.tokyo.jp/_res/projects/default_project/_page_/001/007/098/205_bentenbasihigasiryokuti.jpg,平成6年3月31日,トイレなし,,,,,,,,,,,,,,,,,,,,,,,,
杉並区,green,今川一丁目公園,167-0035,"〒167-0035
杉並区今川1丁目19番8号",,https://www.city.suginami.tokyo.jp/shisetsu/kouen/01/imagawa/1007099.html,,139.613583800047,35.7186225897513,公園 ,1745.63,https://www.city.suginami.tokyo.jp/_res/projects/default_project/_page_/001/007/099/129_imagawaittyoumekouen.jpg,昭和58年3月29日,トイレ有り、球戯場有り,,,,,,,,,,,,,,,,,,,,,,,,
杉並区,green,今川二丁目公園,167-0035,"〒167-0035
杉並区今川2丁目12番7号",,https://www.city.suginami.tokyo.jp/shisetsu/kouen/01/imagawa/1007100.html,,139.610346300167,35.7162593397903,公園 ,656.88,https://www.city.suginami.tokyo.jp/_res/projects/default_project/_page_/001/007/100/176_imagawanityoumekouen.jpg,平成2年3月31日,トイレ有り,,,,,,,,,,,,,,,,,,,,,,,,
杉並区,green,観泉寺児童遊園,167-0035,"〒167-0035
杉並区今川2丁目6番12号",,https://www.city.suginami.tokyo.jp/shisetsu/kouen/01/imagawa/1007101.html,,139.607386300171,35.7162651997897,公園 ,502.47,https://www.city.suginami.tokyo.jp/_res/projects/default_project/_page_/001/007/101/307_kansenjijidouyuuen.jpg,昭和28年3月31日,トイレ有り,,,,,,,,,,,,,,,,,,,,,,,,
杉並区,green,今川三丁目公園,167-0035,"〒167-0035
杉並区今川3丁目3番7号",,https://www.city.suginami.tokyo.jp/shisetsu/kouen/01/imagawa/1007102.html,,139.606183200174,35.7150961698037,公園 ,389.39,https://www.city.suginami.tokyo.jp/_res/projects/default_project/_page_/001/007/102/110_imagawasantyoumekouen.jpg,昭和55年11月1日,トイレ有り,,,,,,,,,,,,,,,,,,,,,,,,
杉並区,green,三谷南公園,167-0035,"〒167-0035
杉並区今川3丁目6番14号",,https://www.city.suginami.tokyo.jp/shisetsu/kouen/01/imagawa/1007103.html,,139.603662400175,35.7153797297948,公園 ,470.37,https://www.city.suginami.tokyo.jp/_res/projects/default_project/_page_/001/007/103/192_sanyaminamikouen.jpg,平成4年3月31日,トイレ有り,,,,,,,,,,,,,,,,,,,,,,,,
杉並区,green,今川児童遊園,167-0035,"〒167-0035
杉並区今川4丁目6番1号",,https://www.city.suginami.tokyo.jp/shisetsu/kouen/01/imagawa/1007104.html,,139.599504800174,35.714635039773,公園 ,306.48,https://www.city.suginami.tokyo.jp/_res/projects/default_project/_page_/001/007/104/prk_imagawa_jidoyuen.jpg,昭和45年4月1日,トイレ有り,,,,,,,,,,,,,,,,,,,,,,,,
杉並区,green,新町鳥居先公園,167-0035,"〒167-0035
杉並区今川4丁目11番7号",,https://www.city.suginami.tokyo.jp/shisetsu/kouen/01/imagawa/1007105.html,,139.599335700178,35.7157867597919,公園 ,1316.89,https://www.city.suginami.tokyo.jp/_res/projects/default_project/_page_/001/007/105/247shinnmatitoriisaki.jpg,平成20年3月28日,バリアフリートイレ有り,,,,,,,,,,,,,,,,,,,,,,,,
杉並区,green,三谷西緑地,167-0035,"〒167-0035
杉並区今川4丁目18番10号",,https://www.city.suginami.tokyo.jp/shisetsu/kouen/01/imagawa/1007106.html,,139.59945000018,35.7164945098039,公園 ,186.95,https://www.city.suginami.tokyo.jp/_res/projects/default_project/_page_/001/007/106/prk_sanyanishi_ryokuti.jpg,平成15年10月1日,トイレなし,,,,,,,,,,,,,,,,,,,,,,,,
杉並区,green,道灌公園,167-0035,"〒167-0035
杉並区今川4丁目27番7号",,https://www.city.suginami.tokyo.jp/shisetsu/kouen/01/imagawa/1007107.html,,139.601380400181,35.7176868998101,公園 ,661.15,https://www.city.suginami.tokyo.jp/_res/projects/default_project/_page_/001/007/107/040_doukankouen.jpg,昭和47年10月25日,トイレ有り,,,,,,,,,,,,,,,,,,,,,,,,
杉並区,green,梅里公園,166-0011,"〒166-0011
杉並区梅里1丁目1番55号",,https://www.city.suginami.tokyo.jp/shisetsu/kouen/01/umezato/1007108.html,車いすトイレ　点字案内　,139.653807899975,35.6952788697782,公園 ,5621.32,https://www.city.suginami.tokyo.jp/_res/projects/default_project/_page_/001/007/108/011_umesatokouen.jpg,昭和42年3月24日,トイレ有り、バリアフリートイレ有り、球戯場有り,,,,,,,,,,,,,,,,,,,,,,,,
杉並区,green,梅里児童遊園,166-0011,"〒166-0011
杉並区梅里1丁目14番2号",,https://www.city.suginami.tokyo.jp/shisetsu/kouen/01/umezato/1007109.html,,139.651358100007,35.6961608098168,公園 ,698.44,https://www.city.suginami.tokyo.jp/_res/projects/default_project/_page_/001/007/109/328_umesatojidouyuuen.jpg,昭和40年9月2日,トイレ有り,,,,,,,,,,,,,,,,,,,,,,,,
杉並区,green,かっぱ公園,166-0011,"〒166-0011
杉並区梅里2丁目12番2号",,https://www.city.suginami.tokyo.jp/shisetsu/kouen/01/umezato/1007110.html,,139.645123700159,35.6961994199559,公園 ,507.27,https://www.city.suginami.tokyo.jp/_res/projects/default_project/_page_/001/007/110/147_kappakouen.jpg,昭和61年11月22日,トイレなし,"石を豊富に使って特徴のある景観をつくりだした公園で、民有地を買収してつくられたものです。
入口には玉石でふちどりしたツツジの植え込みがあり、そこに「かっぱ」の園名を記した大ぶりの石がおいてあります。園名の由来は特にありません。
両側は黒い小石で舗装してあります。広場は土と砂の舗装。
そこにすべり台をそなえた丸太小屋の形をした木製遊具があります。
入口から左手奥に向かって石張りの園路がのび、石で囲った砂場と石張りのテラスに通じています。
そこにはフジづるがはう小端積み柱のパーゴラが建っています。
園内にはシラカシ、カツラ、サクラなどの高木が立ち、ヒュウガミズキ、ツツジ、マンサクなど美しい花の咲く木が植られています。",,,,,,,,,,,,,,,,,,,,,,,
杉並区,green,梅里中央公園,166-0011,"〒166-0011
杉並区梅里2丁目34番20号",,https://www.city.suginami.tokyo.jp/shisetsu/kouen/01/umezato/1007111.html,,139.641204900028,35.6960833598078,公園 ,6286.32,https://www.city.suginami.tokyo.jp/_res/projects/default_project/_page_/001/007/111/127_umesatotyuuoukouen.jpg,昭和58年3月28日,トイレ有り、球戯場有り、流れ有り,"視力障害者センター跡地
この公園は国立視力障害者センターが移転した跡地につくられました。
公園の一角には、梅里区民集会所が併設されています。
日本庭園風の池、明るい土の広場、草地の広場そして木製遊具の広場と、中規模ながら見所の多い公園です。
公園の外周は、クチナシ、アベリア、カンツバキなどの背の低い木々が生け垣をなし、その上にサクラ、エンジュ、ケヤキなどの高木が濃い緑陰をつくっています。
池と流れ
区制50周年を記念した石づくりのモニュメントの建つ西北の入口を入ると、右側に池が広がり、前方の木の間からは広場が見えます。
池は大小さまざまの自然石で形づくられています。
周りはエンジュ、コナラ、ササなどの濃い植込みになっていて、池に注ぐ流れはメタセコイアの木立の奥に消えていきます。
屈曲する流れをたどっていくと、植込みの中でさわやかな水音をたてている岩場の水源にゆきつきます。
2つの広場
公園の中央に2つ並ぶ広場は、ひとつがゲートボールなどができる土の広場と、クローバーでおおわれた広場があります。
白く光る土の地面と緑の草地が印象的で、いずれも明るく広々としています。
土の広場のかたわらの、樹木に囲まれたしっとりした土の敷地には、丸太を組んでつくった大ぶりの木製遊具があり、子供達に親しまれています。
集会所と遊び場
赤レンガづくりのフジ棚をくぐって一番奥までいくと、そこは梅里区民集会所と一緒になった幼児向けの遊び場。
砂場、すべり台を組み込んだ木製遊具などがあります。
その隣はグリーンのネットフェンスで囲まれた球戯場です。
この公園は国有地の無償貸付を受けています。",,,,,,,,,,,,,,,,,,,,,,,
杉並区,green,玉川上水永泉寺緑地,168-0064,"〒168-0064
杉並区永福1丁目4番1号",,https://www.city.suginami.tokyo.jp/shisetsu/kouen/01/eifuku/1007112.html,,139.642217100163,35.6679432396376,公園 ,4813.26,https://www.city.suginami.tokyo.jp/_res/projects/default_project/_page_/001/007/112/101_tamagawajyousuieisenjiryokuti.jpg,昭和54年9月15日,トイレ有り,"玉川上水は、江戸時代に江戸の町に飲料水を供給するためにつくられた上水路で、現在は一部が暗渠となって杉並区内を通っています。
その暗渠の上に東京都水道局から借地してつくられた3つの公園と1つの緑地があります。
下流から玉川上水公園、玉川上水永泉寺緑地、玉川上水第三公園、玉川上水第二公園の順に並んでおり、その全長は約2,000メートルにもおよびます。
玉川上水公園から少し西に下ったところにあるのが玉川上水永泉寺緑地です。
樹木の濃い敷地は起伏に富んでいます。これに続いて玉川上水第三公園になります。",,,,,,,,,,,,,,,,,,,,,,,
杉並区,green,どんぐり緑地,168-0064,"〒168-0064
杉並区永福1丁目7番28号",,https://www.city.suginami.tokyo.jp/shisetsu/kouen/01/eifuku/1007113.html,,139.645322000151,35.6708875296341,公園 ,685.68,https://www.city.suginami.tokyo.jp/_res/projects/default_project/_page_/001/007/113/099_donguriryokuti.jpg,昭和54年4月1日,トイレなし,この公園は国有地の無償貸付を受けています。,,,,,,,,,,,,,,,,,,,,,,,
杉並区,green,ひまわり公園,168-0064,"〒168-0064
杉並区永福1丁目7番6号",,https://www.city.suginami.tokyo.jp/shisetsu/kouen/01/eifuku/1007114.html,,139.642218700177,35.6693797996163,公園 ,1625.86,https://www.city.suginami.tokyo.jp/_res/projects/default_project/_page_/001/007/114/098_himawarikouen_.jpg,昭和61年3月22日,トイレ有り,"旧永福南小学校の建設に際し移設されたもので、学校に隣接して一体的につくられました。
園内に植えられたスズカケの景観が印象的な公園。
入ってすぐ左側は、植込みの前につくられた砂場とパーゴラ。
砂場は擬木でふちどられ、公園の景色に調和しています。
右奥がこの公園の主要部です。
そこには植込みを背にした築山があり、左側には石垣ももうけられ、城壁の一部のような雰囲気が漂います。",,,,,,,,,,,,,,,,,,,,,,,
杉並区,green,永福中央公園,168-0064,"〒168-0064
杉並区永福2丁目1番12号",,https://www.city.suginami.tokyo.jp/shisetsu/kouen/01/eifuku/1007115.html,,139.641393100169,35.6708654996099,公園 ,4166.22,https://www.city.suginami.tokyo.jp/_res/projects/default_project/_page_/001/007/115/185_eifukutyuuoukouen.jpg,平成4年1月16日,トイレ有り、球戯場有り、流れ有り,,,,,,,,,,,,,,,,,,,,,,,,
杉並区,green,永福南公園,168-0064,"〒168-0064
杉並区永福2丁目6番23号",,https://www.city.suginami.tokyo.jp/shisetsu/kouen/01/eifuku/1007116.html,,139.638879682478,35.6710401661956,公園 ,1646.77,https://www.city.suginami.tokyo.jp/_res/projects/default_project/_page_/001/007/116/034_eifukuminamikouen.jpg,昭和47年4月1日,トイレ有り、球戯場有り,"神田川の河川改修事業により生じた、旧河川敷などを利用してつくられた公園で、神田川に面した緑が濃く静かな公園です。
この公園は、遊びの広場・木立の空間、そして球戯場からなっています。
西端の出入り口のそばが遊びの広場で、真ん中に木製遊具があります。
この遊具は一部が赤く塗られており、木立の緑に映えて印象的です。
奥には砂場があります。
遊びの広場奥の左手が球戯場で右側が木立で、ケヤキが並木のように立ってさらに奥へと誘います。東端の出入り口付近は植え込みの広場で、濃い緑陰をなしています。
公園の近くには保育園があり、天気の良い日には保育士さんに連れられた園児達の元気に遊ぶ姿が見られます。",,,,,,,,,,,,,,,,,,,,,,,
杉並区,green,西永福公園,168-0064,"〒168-0064
杉並区永福3丁目40番6号",,https://www.city.suginami.tokyo.jp/shisetsu/kouen/01/eifuku/1007117.html,,139.636774900017,35.6776703396064,公園 ,2517.62,https://www.city.suginami.tokyo.jp/_res/projects/default_project/_page_/001/007/117/003_nisieifukukouen.jpg,昭和25年10月1日,トイレ有り,"この公園は、昭和12年に土地区画整理事業によりつくられた公園で、昭和25年に東京都より移管され区立公園になりました。
道路に面してシイノキが、園内の広場にはケヤキが、そして植え込みにはヒマラヤスギの大木が梢をつらねています。
しかし広場は広いので明るい雰囲気につつまれています。
道路側は、コンクリート舗装のテラスで、低い石塀がめぐらされ、土の広場と境界をなしています。
広場の東寄りには数本のイチョウが立ち並び、そのそばに大型の木製遊具があります。
広場の東端は、舗装された拾いテラスで、そこには屋根にフジづるがからまる大きなパーゴラが左右に弧をえがいて建っています。
左手が砂場で、それにつづいて子供の家・ベンチ・テーブルなどがあり、家族連れでくつろぐことができるようになっています。",,,,,,,,,,,,,,,,,,,,,,,
杉並区,green,永福北公園,168-0064,"〒168-0064
杉並区永福4丁目26番4号",,https://www.city.suginami.tokyo.jp/shisetsu/kouen/01/eifuku/1007118.html,,139.641955899955,35.6805470797823,公園 ,602.11,https://www.city.suginami.tokyo.jp/_res/projects/default_project/_page_/001/007/118/038_eifukukitakouen.jpg,昭和47年4月13日,トイレ有り,"静かな住宅地の公園で、小砂利のしかれた広場に木立と遊具があります。
路地に面して数本の大きなケヤキが立っていて、野鳥が通ってくるらしく鳴き声が聞こえます。
そのケヤキの下に、すべり台とブランコがあり、やや離れたところがもう一つの遊びのコーナーで、日除けの下に砂場、そして鉄棒があります。
周りの植込みには、夏に薄い紫色の花をつけるムクゲや、春から秋まで花の絶えないアベリア、そして5月を彩るツツジなどが植えられています。",,,,,,,,,,,,,,,,,,,,,,,
杉並区,green,大宮児童公園,168-0061,"〒168-0061
杉並区大宮2丁目4番10号",,https://www.city.suginami.tokyo.jp/shisetsu/kouen/01/oomiya/1007119.html,,139.639664199993,35.6817486897593,公園 ,1586.69,https://www.city.suginami.tokyo.jp/_res/projects/default_project/_page_/001/007/119/009_oomiyajidoukouen.jpg,昭和40年8月24日,トイレ有り,"大宮八幡宮の西側にあり、巨大なケヤキに囲まれ、地面も心なしかしっとりとしています。
入口から少し先に舗装されたテラスがあり、パーゴラの下に砂場があります。
その先は土の広場で、5本の大ケヤキの周りにブランコ・動物遊具が配置されています。
動物遊具のすぐ前にそそり立つのが「スライダー」という白いコンクリート製の超大型すべり台で、両側に頂上があり、双方から真ん中に向かってすべり降りるという方式です。
高さは6から7メートルあり、上から眺める木立の景色もまた別格です。",,,,,,,,,,,,,,,,,,,,,,,
杉並区,green,宮元公園,168-0061,"〒168-0061
杉並区大宮2丁目13番13号",,https://www.city.suginami.tokyo.jp/shisetsu/kouen/01/oomiya/1007120.html,,139.636557700031,35.6810427096177,公園 ,371.38,https://www.city.suginami.tokyo.jp/_res/projects/default_project/_page_/001/007/120/220_miyamotokouen.jpg,平成10年8月1日,トイレ有り,,,,,,,,,,,,,,,,,,,,,,,,
杉並区,green,西田仲よし広場緑地,167-0051,"〒167-0051
杉並区荻窪1丁目17番1号",,https://www.city.suginami.tokyo.jp/shisetsu/kouen/02/ogikubo/1007121.html,,139.621413799962,35.6936196698007,公園 ,200.47,https://www.city.suginami.tokyo.jp/_res/projects/default_project/_page_/001/007/121/178_nisidanakayosihirobaryokuti.jpg,平成2年10月29日,トイレなし,,,,,,,,,,,,,,,,,,,,,,,,
杉並区,green,松渓公園,167-0051,"〒167-0051
杉並区荻窪1丁目39番1号",,https://www.city.suginami.tokyo.jp/shisetsu/kouen/02/ogikubo/1007122.html,車いすトイレ　オストメイトトイレ　ベビーベッド・ベビーチェアトイレ　点字案内　,139.621652099845,35.6950963197847,公園 ,3552.05,https://www.city.suginami.tokyo.jp/_res/projects/default_project/_page_/001/007/122/073_syoukeikouen.jpg,昭和51年4月1日,バリアフリートイレ有り,"松渓公園は、昭和51年4月、縄文遺跡を地下にそのまま保存してつくられた公園です。
道路より一段高い敷地に、みどりに囲まれ静かなたたずまいをみせています。",,,,,,,,,,,,,,,,,,,,,,,
杉並区,green,天神橋公園,167-0051,"〒167-0051
杉並区荻窪1丁目50番33号",,https://www.city.suginami.tokyo.jp/shisetsu/kouen/02/ogikubo/1007123.html,,139.625400799953,35.6946730897656,公園 ,1516.70,https://www.city.suginami.tokyo.jp/_res/projects/default_project/_page_/001/007/123/117_tenjinbasikouen.jpg,昭和56年8月10日,トイレなし,"善福寺川が大きく湾曲する地域、荻窪一丁目にあります。
開発行為による提供地と水路用地を利用してつくられた、住宅地の中を南北に走る幅8から9メートル、長さ約150メートルの細長い公園です。
2箇所で一般の道路と交差しています。
左右には、マテバシイ、トウカエデ、ケヤキなどの高木が、その下にはツツジ、アベリア、クチナシといった背の低い樹木が植えられ、緑の廊下のような感じがします。
ところどころにブランコ、すべり台、砂場なども設置され子供達の遊び場としても親しまれています。
東端には、キンモクセイやアケボノスギなどのこんもりとした木立に囲まれた、一段高い敷地があります。",,,,,,,,,,,,,,,,,,,,,,,
杉並区,green,西田第二児童遊園,167-0051,"〒167-0051
杉並区荻窪1丁目57番33号",,https://www.city.suginami.tokyo.jp/shisetsu/kouen/02/ogikubo/1007124.html,,139.62656799995,35.6951779297611,公園 ,462.37,https://www.city.suginami.tokyo.jp/_res/projects/default_project/_page_/001/007/124/330_nisidadainijidouyuuen.jpg,昭和41年3月31日,トイレ有り,,,,,,,,,,,,,,,,,,,,,,,,
杉並区,green,西田公園,167-0051,"〒167-0051
杉並区荻窪2丁目15番11号",,https://www.city.suginami.tokyo.jp/shisetsu/kouen/02/ogikubo/1007125.html,,139.620755499844,35.695590869796,公園 ,783.37,https://www.city.suginami.tokyo.jp/_res/projects/default_project/_page_/001/007/125/066_nisidakouen.jpg,昭和50年4月1日,トイレ有り,"善福寺川の西側、松渓中学校と西田小学校のそばにあります。
公園になる前は区の職員住宅用地でした。
敷地は区道に面した所がゆるい弧を描く扇形です。区道側に、植込みと遊び場コーナーがもうけられています。
アケボノスギやヤナギの下に、すべり台、トンネル、子供の家そして砂場が並んでいます。
公園の中央は土の広場で、左手には枝型ブランコがあります。
住宅と公園の境界には、スギをはじめ種々の樹木が植えられています。
公園は南東側に開けていて日当たりがよく、学校から帰る途中の子供達などに親しまれています。",,,,,,,,,,,,,,,,,,,,,,,
杉並区,green,荻窪公園,167-0051,"〒167-0051
杉並区荻窪2丁目27番8号",,http://www.city.suginami.tokyo.jp/shisetsu/kouen/02/ogikubo/1007126.html,,139.6197628029,35.6976191274515,公園 ,1382.45,https://www2.wagmap.jp/suginami-api/?api=img&mid=1&dtp=1&mpx=139.61976279&mpy=35.69761912&mps=5000&gprj=2&msw=450&msh=300,昭和12年8月24日,トイレ有り、流れ有り,"区立公園では最も古い公園で、昭和12年8月24日開園です。
住宅地の路地と路地の間にある長方形の公園で、区画整理事業により生まれたものです。
東側の入口付近はシイノキ、スズカケなどの高木がこんもりと繁っています。
木々のトンネルをくぐりぬけると目の前に明るい広場がひらけます。
左右はサクラ、ヤマモミジ、ヒマラヤスギなどの木立が並ぶ整然とした植え込みです。
広場には鉄棒、複合遊具、砂場とブランコがあります。
一番西側にあるのが、鉄平石のテラスにつくられた流れです。
ところどころに自然石を配し、直角に数回折れ曲がった流れは、子供達の格好の遊び場です。",,,,,,,,,,,,,,,,,,,,,,,
杉並区,green,荻窪第二児童遊園,167-0051,"〒167-0051
杉並区荻窪2丁目38番9号",,https://www.city.suginami.tokyo.jp/shisetsu/kouen/02/ogikubo/1007127.html,,139.620815999822,35.6987347798383,公園 ,287.71,https://www.city.suginami.tokyo.jp/_res/projects/default_project/_page_/001/007/127/prk_ogikubo_2jidoyuen.jpg,昭和44年11月21日,トイレなし,,,,,,,,,,,,,,,,,,,,,,,,
杉並区,green,松渓橋公園,167-0051,"〒167-0051
杉並区荻窪2丁目40番1号",,https://www.city.suginami.tokyo.jp/shisetsu/kouen/02/ogikubo/1007128.html,車いすトイレ　オストメイトトイレ　ベビーベッド・ベビーチェアトイレ　,139.623120299838,35.697129049804,公園 ,1159.28,https://www.city.suginami.tokyo.jp/_res/projects/default_project/_page_/001/007/128/252syokeibashikouen.jpg,平成21年12月1日,バリアフリートイレ有り,,,,,,,,,,,,,,,,,,,,,,,,
杉並区,green,大谷戸さくら緑地,167-0051,"〒167-0051
杉並区荻窪3丁目7番26号",,https://www.city.suginami.tokyo.jp/shisetsu/kouen/02/ogikubo/1007129.html,,139.624610499844,35.6978968498009,公園 ,2320.00,https://www.city.suginami.tokyo.jp/_res/projects/default_project/_page_/001/007/129/ooyatosakuraryokuti.jpg,平成25年4月26日,トイレなし,,,,,,,,,,,,,,,,,,,,,,,,
杉並区,green,大谷戸かえで緑地,167-0051,"〒167-0051
杉並区荻窪3丁目7番39号",,https://www.city.suginami.tokyo.jp/shisetsu/kouen/02/ogikubo/1007130.html,,139.626167399953,35.697872909787,公園 ,271.48,https://www.city.suginami.tokyo.jp/_res/projects/default_project/_page_/001/007/130/ooyatokaederyokuti.jpg,平成25年4月26日,トイレなし,,,,,,,,,,,,,,,,,,,,,,,,
杉並区,green,大谷戸けやき緑地,167-0051,"〒167-0051
杉並区荻窪3丁目7番51号",,https://www.city.suginami.tokyo.jp/shisetsu/kouen/02/ogikubo/1007131.html,車いすトイレ　オストメイトトイレ　ベビーベッド・ベビーチェアトイレ　点字ブロック　,139.626942999954,35.6967715197716,公園 ,1000.01,https://www.city.suginami.tokyo.jp/_res/projects/default_project/_page_/001/007/131/ooyatokeyakiryokuti.jpg,平成25年4月26日,バリアフリートイレ有り,,,,,,,,,,,,,,,,,,,,,,,,
杉並区,green,角川庭園,167-0051,"〒167-0051
杉並区荻窪3丁目14番22号",03-6795-6855,https://www.city.suginami.tokyo.jp/shisetsu/kouen/02/ogikubo/1007132.html,車いすトイレ　オストメイトトイレ　ベビーベッド・ベビーチェアトイレ　車いす駐車場　車いす用出入口　インターホン　AED　,139.62445152914,35.6986776729111,公園 ,1370.67,https://www.city.suginami.tokyo.jp/_res/projects/default_project/_page_/001/007/132/kadokawateien250514.jpg,平成21年5月10日,,"角川庭園は、俳人で角川書店の創設者である故角川源義（げんよし）氏の旧邸宅を、平成17年にご遺族からの寄贈を受け、整備した庭園です。
四季折々の木々や草花を楽しめる庭園と、展示室や貸室がある「幻戯山房」があります。（幻戯山房の詳細は下記をご覧ください。）",,午前9時から午後5時,水曜日、年末年始（12月29日から1月1日）,身体障害者専用駐車場のみあります。,"JR中央線「荻窪駅」（南口）徒歩15分
関東バス （荻51）「シャレール荻窪」行きで「特養ホームおぎくぼ紫苑」下車徒歩3分",,,,,,,,,,,,,,,,,,
杉並区,green,大田黒公園,167-0051,"〒167-0051
杉並区荻窪3丁目33番12号",03-3398-5814,https://www.city.suginami.tokyo.jp/shisetsu/kouen/02/ogikubo/1007133.html,ベビーベッド・ベビーチェアトイレ　インターホン　AED　,139.624438616437,35.7007407219344,公園 ,8972.31,https://www.city.suginami.tokyo.jp/_res/projects/default_project/_page_/001/007/133/119_ootagurokouen_2.jpg,昭和56年10月1日,トイレ有り、バリアフリートイレ有り,"回遊式日本庭園
音楽評論家の大田黒元雄氏の屋敷跡地につくられた公園です。
荻窪のゆるく起伏する台地に自然の地形をいかした、杉並の区立公園としては、初めての回遊式日本庭園です。
檜の門と石畳
この公園が日本庭園であることは、正門のつくりにも表わされています。
総檜、切妻づくりで、屋根は棧瓦ぶき。左右に築地塀のあるどっしりした構えになっています。
門を入ると白い御影石を敷いた園路がまっすぐにのびています。
その長さは70メートルあり、左右は樹齢100年を経た大イチョウの並木です。
木漏れ日が園路に明暗の模様を描きます。
園路を進むと、植込みの中の低い階段にゆきつき、そこを登ったところが檜づくりの管理棟です。
休憩室と茶室
管理棟は茶室、休憩所と事務室とを渡り廊下で結んだ一棟になっています。
休憩室の内部には大きな松の梁があり、昔の民家の土間をしのばせます。隣りが京間8畳の茶室で、内部は秋田杉でつくられています。
大木と芝生の庭園
茶室の縁側から庭園が一望でき、目の前は広々とした緑の芝生で、前方の池までなだらかに傾斜しています。
芝生には数本のアカマツが高々とそびえ、根元はササでおおわれ、芝生の左手は、ナラやケヤキなどの木立です。
大きな樹木は以前からあったものを保存したものです。
流れと池
茶室・休憩所の裏の中庭に井筒があり、そこから細い流れがあります。
流れは茶室の周りを一周して、次第に幅を広げながら、木立の中を流れてこの庭園の中心的な施設である池にそそぎます。
流れはうっそうと繁る樹木と一緒になってあたりに深山の雰囲気を漂わせています。
池は筑波石と植込みで飾られ、ほとりにはあずまやが建っています。
そこからは、芝生とマツと茶室が織りなす絵のような景色が眺められます。
記念館
芝生の広場の西寄りに、大田黒氏の仕事場であったレンガ色の記念館が保存されています。
記念館は昭和8年に建てられたもので、当時としては珍しい西洋風の建築物です。
中には愛用のピアノや蓄音機などが展示されています。
催物広場
敷地の南西に庭園とは区別されて築地塀と生垣に囲まれた広場があります。
ここは、野草展やさつき展など催物に利用します。
茶室
茶室は、茶会などに利用できます。詳細は「茶室や詩歌室がある公園」をご覧ください。
ロケーション・写真撮影
ライトアップ期間及びその前後の期間はロケーション及び写真撮影はできません。",,午前9時から午後5時（入園は午後4時30分まで）,,,,年末年始（12月29日から1月1日）,,,,,,,,,,,,,,,,,
杉並区,green,読書の森公園,167-0051,"〒167-0051
杉並区荻窪3丁目39番16号",,https://www.city.suginami.tokyo.jp/shisetsu/kouen/02/ogikubo/1007134.html,,139.62645809996,35.7023453998223,公園 ,1841.06,https://www.city.suginami.tokyo.jp/_res/projects/default_project/_page_/001/007/134/prk_dokushonomori.jpg,平成18年3月25日,トイレなし,"【公開時間】午前6時から午後8時
中央図書館に隣接するこの公園は、図書館と一体となった公園という新しい考えで造られました。ここでは、図書館で借りた本を、東屋や小川のほとりで、またシンボルであるケヤキの木陰で読書を楽しむことができます。また、杉並ゆかりの作家や詩人のモニュメントや、アンネのバラも公園を飾ります。",,,,,,,,,,,,,,,,,,,,,,,
杉並区,green,おしかわ公園,167-0051,"〒167-0051
杉並区荻窪5丁目2番13号",,https://www.city.suginami.tokyo.jp/shisetsu/kouen/02/ogikubo/1007135.html,,139.617750399812,35.7007775099565,公園 ,344.74,https://www.city.suginami.tokyo.jp/_res/projects/default_project/_page_/001/007/135/083_osikawakouen.jpg,昭和52年4月1日,トイレ有り,,,,,,,,,,,,,,,,,,,,,,,,
杉並区,green,柿木公園,167-0023,"〒167-0023
杉並区上井草1丁目26番18号",,https://www.city.suginami.tokyo.jp/shisetsu/kouen/02/kamiigusa/1007136.html,,139.612318099969,35.7237741697868,公園 ,300.09,https://www.city.suginami.tokyo.jp/_res/projects/default_project/_page_/001/007/136/126_kakinokikouen.jpg,昭和57年12月20日,トイレ有り,,,,,,,,,,,,,,,,,,,,,,,,
杉並区,green,柿木北公園,167-0023,"〒167-0023
杉並区上井草1丁目33番3号",,https://www.city.suginami.tokyo.jp/shisetsu/kouen/02/kamiigusa/1007137.html,,139.611876899951,35.7246750298041,公園 ,498.14,https://www.city.suginami.tokyo.jp/_res/projects/default_project/_page_/001/007/137/202_kakinokikitakouen.jpg,平成6年3月31日,トイレ有り,,,,,,,,,,,,,,,,,,,,,,,,
杉並区,green,四宮南公園,167-0023,"〒167-0023
杉並区上井草2丁目3番11号",,https://www.city.suginami.tokyo.jp/shisetsu/kouen/02/kamiigusa/1007138.html,,139.609675700154,35.7194404296153,公園 ,235.70,https://www.city.suginami.tokyo.jp/_res/projects/default_project/_page_/001/007/138/109_sinomiyaminamikouen.jpg,昭和55年5月15日,トイレなし,,,,,,,,,,,,,,,,,,,,,,,,
杉並区,green,瀬戸原緑地,167-0023,"〒167-0023
杉並区上井草2丁目17番14号",,https://www.city.suginami.tokyo.jp/shisetsu/kouen/02/kamiigusa/1007139.html,,139.605627300038,35.7214640197855,公園 ,183.00,https://www.city.suginami.tokyo.jp/_res/projects/default_project/_page_/001/007/139/115_setohararyokuti.jpg,昭和56年4月1日,トイレなし,,,,,,,,,,,,,,,,,,,,,,,,
杉並区,green,四宮公園,167-0023,"〒167-0023
杉並区上井草2丁目27番12号",,https://www.city.suginami.tokyo.jp/shisetsu/kouen/02/kamiigusa/1007140.html,,139.606974800003,35.7228392997933,公園 ,392.50,https://www.city.suginami.tokyo.jp/_res/projects/default_project/_page_/001/007/140/061_sinomiyakouen.jpg,昭和49年4月1日,トイレ有り,,,,,,,,,,,,,,,,,,,,,,,,
杉並区,green,上井草向山公園,167-0023,"〒167-0023
杉並区上井草2丁目39番19号",,https://www.city.suginami.tokyo.jp/shisetsu/kouen/02/kamiigusa/1007141.html,,139.606126899985,35.7240271998202,公園 ,591.40,https://www.city.suginami.tokyo.jp/_res/projects/default_project/_page_/001/007/141/072_kamiigusamukouyamakouen.jpg,昭和51年4月1日,トイレ有り,,,,,,,,,,,,,,,,,,,,,,,,
杉並区,green,四宮森公園,167-0023,"〒167-0023
杉並区上井草2丁目41番25号",,https://www.city.suginami.tokyo.jp/shisetsu/kouen/02/kamiigusa/1007142.html,,139.608521499963,35.7242566398089,公園 ,1853.32,https://www.city.suginami.tokyo.jp/_res/projects/default_project/_page_/001/007/142/108_sinomiyamorikouen.jpg,昭和55年4月1日,トイレ有り、球戯場有り、流れ有り,この公園は国有地の無償貸付を受けています。,,,,,,,,,,,,,,,,,,,,,,,
杉並区,green,どんぐり山児童遊園,167-0023,"〒167-0023
杉並区上井草3丁目4番17号",,https://www.city.suginami.tokyo.jp/shisetsu/kouen/02/kamiigusa/1007143.html,,139.603645400176,35.7197013497934,公園 ,2225.49,https://www.city.suginami.tokyo.jp/_res/projects/default_project/_page_/001/007/143/354_donguriyamajidouyuuen.jpg,昭和52年6月1日,トイレ有り、流れ有り,,,,,,,,,,,,,,,,,,,,,,,,
杉並区,green,三谷公園,167-0023,"〒167-0023
杉並区上井草3丁目12番10号",,https://www.city.suginami.tokyo.jp/shisetsu/kouen/02/kamiigusa/1007144.html,,139.599781600191,35.7193889898476,公園 ,2811.16,https://www.city.suginami.tokyo.jp/_res/projects/default_project/_page_/001/007/144/012_sanyakouen_2.jpg,昭和43年3月31日,トイレ有り、流れ有り,,,,,,,,,,,,,,,,,,,,,,,,
杉並区,green,道灌橋公園,167-0023,"〒167-0023
杉並区上井草3丁目14番23号",,https://www.city.suginami.tokyo.jp/shisetsu/kouen/02/kamiigusa/1007145.html,,139.601780400176,35.7205197698278,公園 ,820.65,https://www.city.suginami.tokyo.jp/_res/projects/default_project/_page_/001/007/145/181_doukanbasikouen.jpg,平成3年3月26日,トイレ有り,,,,,,,,,,,,,,,,,,,,,,,,
杉並区,green,上瀬戸公園,167-0023,"〒167-0023
杉並区上井草3丁目16番23号",,https://www.city.suginami.tokyo.jp/shisetsu/kouen/02/kamiigusa/1007146.html,,139.604419700156,35.7208517197932,公園 ,867.21,https://www.city.suginami.tokyo.jp/_res/projects/default_project/_page_/001/007/146/136_kamisetokouen.jpg,昭和60年3月30日,トイレ有り,,,,,,,,,,,,,,,,,,,,,,,,
杉並区,green,切通し公園,167-0023,"〒167-0023
杉並区上井草4丁目3番10号",,https://www.city.suginami.tokyo.jp/shisetsu/kouen/02/kamiigusa/1007147.html,,139.59708480019,35.7175859398379,公園 ,2201.01,https://www.city.suginami.tokyo.jp/_res/projects/default_project/_page_/001/007/147/133_kiridoosikouen.jpg,昭和59年10月31日,トイレ有り、流れ有り,,,,,,,,,,,,,,,,,,,,,,,,
杉並区,green,上井草西公園,167-0023,"〒167-0023
杉並区上井草4丁目8番9号",,https://www.city.suginami.tokyo.jp/shisetsu/kouen/02/kamiigusa/1007148.html,,139.595108600179,35.7198696399895,公園 ,913.28,https://www.city.suginami.tokyo.jp/_res/projects/default_project/_page_/001/007/148/060_kamiigusanisikouen.jpg,昭和49年4月1日,トイレなし、球戯場有り,,,,,,,,,,,,,,,,,,,,,,,,
杉並区,green,上荻窪児童遊園,167-0043,"〒167-0043
杉並区上荻2丁目21番6号",,https://www.city.suginami.tokyo.jp/shisetsu/kouen/02/kamiogi/1007149.html,,139.61332499997,35.7062757799661,公園 ,533.00,https://www.city.suginami.tokyo.jp/_res/projects/default_project/_page_/001/007/149/310_kamiogikubojidouyuuen.jpg,昭和29年3月31日,トイレ有り,,,,,,,,,,,,,,,,,,,,,,,,
杉並区,green,上荻窪第三児童遊園,167-0043,"〒167-0043
杉並区上荻2丁目36番6号",,https://www.city.suginami.tokyo.jp/shisetsu/kouen/02/kamiogi/1007150.html,,139.611196800033,35.7089291499763,公園 ,186.58,https://www.city.suginami.tokyo.jp/_res/projects/default_project/_page_/001/007/150/325_kamiogikubodaisanjidouyuuen.jpg,昭和39年3月16日,トイレ有り,,,,,,,,,,,,,,,,,,,,,,,,
杉並区,green,上荻窪第二児童遊園,167-0043,"〒167-0043
杉並区上荻3丁目16番6号",,https://www.city.suginami.tokyo.jp/shisetsu/kouen/02/kamiogi/1007151.html,,139.607980300025,35.7085937599531,公園 ,76.07,https://www.city.suginami.tokyo.jp/_res/projects/default_project/_page_/001/007/151/323_kamiogikubodainijidouyuuen.jpg,昭和38年11月30日,トイレなし,,,,,,,,,,,,,,,,,,,,,,,,
杉並区,green,関根文化公園,167-0043,"〒167-0043
杉並区上荻4丁目2番10号",,https://www.city.suginami.tokyo.jp/shisetsu/kouen/02/kamiogi/1007152.html,,139.605192200034,35.7088396798155,公園 ,2480.04,https://www.city.suginami.tokyo.jp/_res/projects/default_project/_page_/001/007/152/002_sekinebunnkakouen.jpg,昭和25年4月1日,トイレ有り,"すべり台や丸太渡りなどが一体になった複合遊具が人気です。
公園の隣にはプールが併設されていましたが、平成24年度に廃止されました。",,,,,,,,,,,,,,,,,,,,,,,
杉並区,green,上荻ひかり緑地,167-0043,"〒167-0043
杉並区上荻4丁目14番54号",,https://www.city.suginami.tokyo.jp/shisetsu/kouen/02/kamiogi/1007153.html,,139.604830100158,35.7102664598143,公園 ,125.30,https://www.city.suginami.tokyo.jp/_res/projects/default_project/_page_/001/007/153/kamiogi_hikariryokuti.jpg,平成25年10月30日,トイレなし,,,,,,,,,,,,,,,,,,,,,,,,
杉並区,green,上高井戸南公園,168-0074,"〒168-0074
杉並区上高井戸1丁目15番3号",,https://www.city.suginami.tokyo.jp/shisetsu/kouen/02/kamitakaido/1007154.html,,139.612698915263,35.6707595520911,公園 ,1057.66,https://www.city.suginami.tokyo.jp/_res/projects/default_project/_page_/001/007/154/086_kamitakaidominamikouen.jpg,昭和52年5月30日,トイレ有り,"周縁のカイヅカイブキ、そして園内のマテバシイの木立が目につきます。
日当たりのよい敷地には、細かい砂利が敷いてあります。
広場の手前はひらけていて、その奥に遊具や植込みがあります。
遊具の中心は、ケヤキやアキニレの下につくられたコンクリート製の小山と砂場。
小高く盛りあがる円形の山には、2つのすべり台がついていて、砂場に降りています。
その周辺には、枝型ブランコや丸太のステップもそなえられています。
公園の一番奥は、盛土をした濃い植込み。そこには優雅な花を咲かせるコブシや匂いのよい花をつけるキンモクセイも植えられています。
この公園は国有地の無償貸付を受けています。",,,,,,,,,,,,,,,,,,,,,,,
杉並区,green,上高井戸宿公園,168-0074,"〒168-0074
杉並区上高井戸1丁目24番5号",,https://www.city.suginami.tokyo.jp/shisetsu/kouen/02/kamitakaido/1007155.html,,139.612383400045,35.6723954697798,公園 ,437.98,https://www.city.suginami.tokyo.jp/_res/projects/default_project/_page_/001/007/155/138_kamitakaidosyukukouen.jpg,昭和60年7月1日,トイレ有り,,,,,,,,,,,,,,,,,,,,,,,,
杉並区,green,はるかぜ緑地,168-0074,"〒168-0074
杉並区上高井戸1丁目30番38号",,https://www.city.suginami.tokyo.jp/shisetsu/kouen/02/kamitakaido/1007156.html,,139.609945100042,35.6735512796437,公園 ,191.28,https://www.city.suginami.tokyo.jp/_res/projects/default_project/_page_/001/007/156/225_harukazeryokuti.jpg,平成11年3月3日,トイレなし,,,,,,,,,,,,,,,,,,,,,,,,
杉並区,green,つばき緑地,168-0074,"〒168-0074
杉並区上高井戸1丁目32番29号",,https://www.city.suginami.tokyo.jp/shisetsu/kouen/02/kamitakaido/1007157.html,,139.607679399994,35.676435049629,公園 ,455.34,https://www.city.suginami.tokyo.jp/_res/projects/default_project/_page_/001/007/157/206_tubakiryokuti.jpg,平成6年6月27日,トイレなし,,,,,,,,,,,,,,,,,,,,,,,,
杉並区,green,浅間橋公園,168-0074,"〒168-0074
杉並区上高井戸2丁目16番10号",,https://www.city.suginami.tokyo.jp/shisetsu/kouen/02/kamitakaido/1007158.html,,139.606702752572,35.6789737897246,公園 ,1339.90,https://www.city.suginami.tokyo.jp/_res/projects/default_project/_page_/001/007/158/042_sengenbasikouen.jpg,昭和47年12月25日,トイレ有り、球戯場有り,"緑の豊かな公園でケヤキ・ヒマラヤスギ・アケボノスギ・サワラ・ヤナギなどのさまざまな種類の高木で囲まれています。
遊具も充実していて、広場の中央部にはケヤキとシイノキの木立があり、その根元には擬木のステップが設けられています。
その周辺に、らせん階段付きの大型すべり台・4連ブランコ・幼児用すべり台を備えた砂場・それに球戯場があります。
大型のすべり台の上から公園を見回してみると、また違った景観と雰囲気が楽しめます。",,,,,,,,,,,,,,,,,,,,,,,
杉並区,green,上高井戸西原緑地,168-0074,"〒168-0074
杉並区上高井戸2丁目17番32号",,https://www.city.suginami.tokyo.jp/shisetsu/kouen/02/kamitakaido/1007159.html,,139.606363799974,35.6784658896181,公園 ,245.14,https://www.city.suginami.tokyo.jp/_res/projects/default_project/_page_/001/007/159/170_kamitakaidonisihararyokuti.jpg,平成元年5月16日,トイレなし,,,,,,,,,,,,,,,,,,,,,,,,
杉並区,green,はなみずき緑地,168-0074,"〒168-0074
杉並区上高井戸3丁目3番20号",,https://www.city.suginami.tokyo.jp/shisetsu/kouen/02/kamitakaido/1007160.html,,139.618370400006,35.6742324398473,公園 ,103.39,https://www.city.suginami.tokyo.jp/_res/projects/default_project/_page_/001/007/160/232_hanamizukiryokuti.jpg,平成13年4月1日,トイレなし,,,,,,,,,,,,,,,,,,,,,,,,
杉並区,green,上高井戸東公園,168-0074,"〒168-0074
杉並区上高井戸3丁目4番20号",,https://www.city.suginami.tokyo.jp/shisetsu/kouen/02/kamitakaido/1007161.html,,139.617984900009,35.6749055198382,公園 ,279.93,https://www.city.suginami.tokyo.jp/_res/projects/default_project/_page_/001/007/161/152_kamitakaidohigasikouen.jpg,昭和62年5月2日,トイレなし,,,,,,,,,,,,,,,,,,,,,,,,
杉並区,green,そよかぜ緑地,168-0074,"〒168-0074
杉並区上高井戸3丁目8番38号",,https://www.city.suginami.tokyo.jp/shisetsu/kouen/02/kamitakaido/1007162.html,,139.61643130001,35.675075549818,公園 ,109.60,https://www2.wagmap.jp/suginami-api/?api=img&mid=1&dtp=1&mpx=139.6164313&mpy=35.67507554&mps=5000&gprj=2&msw=450&msh=300,平成14年10月1日,トイレなし,,,,,,,,,,,,,,,,,,,,,,,,
杉並区,green,上高井戸第二児童遊園,168-0074,"〒168-0074
杉並区上高井戸3丁目11番17号",,https://www.city.suginami.tokyo.jp/shisetsu/kouen/02/kamitakaido/1007163.html,,139.614799800001,35.6766246997902,公園 ,456.66,https://www.city.suginami.tokyo.jp/_res/projects/default_project/_page_/001/007/163/338_kamitakaidodainijidouyuuen.jpg,昭和42年12月9日,トイレ有り,,,,,,,,,,,,,,,,,,,,,,,,
杉並区,green,富士見丘児童遊園,198-0082,"〒198-0082
杉並区久我山2丁目22番63号",,https://www.city.suginami.tokyo.jp/shisetsu/kouen/02/kugayama/1007164.html,,139.606662099975,35.6835499597789,公園 ,1141.51,https://www.city.suginami.tokyo.jp/_res/projects/default_project/_page_/001/007/164/331_fujimigaokajidouyuuen.jpg,昭和41年3月31日,トイレ有り,,,,,,,,,,,,,,,,,,,,,,,,
杉並区,green,兵庫橋公園,168-0082,"〒168-0082
杉並区久我山3丁目5番37号",,https://www.city.suginami.tokyo.jp/shisetsu/kouen/02/kugayama/1007165.html,車いすトイレ　オストメイトトイレ　ベビーベッド・ベビーチェアトイレ　点字案内　点字ブロック　,139.593801182189,35.6854872275166,公園 ,1133.40,https://www.city.suginami.tokyo.jp/_res/projects/default_project/_page_/001/007/165/164_hyougobasikouen3.jpg,昭和63年11月19日,バリアフリートイレ有り、すくすくひろば有り,園内にはとんがり帽子の時計塔があります。フジづるがからまるパーゴラを中心に、砂場・幼児向け遊具などがあります。,,,,,,,,,,,,,,,,,,,,,,,
杉並区,green,久我山中央緑地,168-0082,"〒168-0082
杉並区久我山3丁目25番21号",,https://www.city.suginami.tokyo.jp/shisetsu/kouen/02/kugayama/1007166.html,,139.59856203215,35.687785141232,公園 ,2544.11,https://www.city.suginami.tokyo.jp/_res/projects/default_project/_page_/001/007/166/174_kugayamatyuuouryokuti.jpg,平成2年3月8日,トイレ有り、流れ有り,,,,,,,,,,,,,,,,,,,,,,,,
杉並区,green,宮下橋公園,168-0082,"〒168-0082
杉並区久我山3丁目27番15号",,https://www.city.suginami.tokyo.jp/shisetsu/kouen/02/kugayama/1007167.html,,139.595941753662,35.6873901524056,公園 ,2776.16,https://www.city.suginami.tokyo.jp/_res/projects/default_project/_page_/001/007/167/169_miyasitabasikouen.jpg,平成元年3月31日,トイレ有り,"神田川の東、川沿いに長く展開する公園です。
河川の改修により生じた旧河川敷と、民有地の買収によりつくられたものです。
広々として明るい雰囲気をもち、しかも変化に富んだ公園です。
敷地は区道をはさんで川沿いに東西に分かれていますが、主要部は東側です。
そこは築山によって2つの広場に分かれていて、東側の広場が一番広く、植込みと土の広場で構成されています。
広場には、すべり台ややぐらをそなえた大型の木製遊具があり、その上からの眺めは格別です。
小高い築山には2本のサクラが植えられ、木製のテーブルとベンチがあります。
築山を降りるともうひとつの広場。
植込みに囲まれ、扇形のパーゴラをそなえる砂場と一体になって憩いの場や幼児の遊び場として利用されています。
2つの広場の川寄りの部分は、河川沿いの遊歩道と一体的につくられています。
道はカラー舗装で、広場や築山植込みに接する部分は、自然石でふちどられています。
クスの古木は、区役所敷地にあったものを庁舎の増改築の際に移したものです。
広場の西端は飛石舗装の通路になっており、その先の区道を渡ると、この公園の“飛地”があります。
そこは舗装された小広場で、サクラやツツジが植えられ、檜造りのあずまやが建っています。",,,,,,,,,,,,,,,,,,,,,,,
杉並区,green,緑橋緑地,168-0082,"〒168-0082
杉並区久我山3丁目30番2号",,https://www.city.suginami.tokyo.jp/shisetsu/kouen/02/kugayama/1007168.html,,139.594288241633,35.6886106672441,公園 ,671.26,https://www.city.suginami.tokyo.jp/_res/projects/default_project/_page_/001/007/168/168_midoribasiryokuti.jpg,平成元年3月31日,トイレなし,,,,,,,,,,,,,,,,,,,,,,,,
杉並区,green,久我山公園,168-0082,"〒168-0082
杉並区久我山3丁目37番3号",,https://www.city.suginami.tokyo.jp/shisetsu/kouen/02/kugayama/1007169.html,,139.597545371346,35.6888602989496,公園 ,1815.61,https://www.city.suginami.tokyo.jp/_res/projects/default_project/_page_/001/007/169/037_kugayamakouen.jpg,昭和47年4月1日,トイレ有り、球戯場有り,"台地の突端に位置しており、敷地に高低差がある公園です。
上の入口を入ったところが、公園の主要部分で、周りはケヤキなどの樹木で囲まれています。
目の前に円形の花壇が3つあり、特色ある公園づくりの一環として、トウオガタマが植えられています。
左手は鉄平石張りのテラスで、大きなパーゴラと砂場が付属しています。
中央部は土の広場でジャングルジムやブランコがあります。
ここで目をひくのは、5つのとんがり屋根のお城で、バルコニーは崖に突き出ていて、お伽の国を思わせます。
そのかたわらに幅の広いコンクリート製のすべり台があり、下の敷地まで降りられます。
下におりると小広場があり、さらに階段を降りるとは台地の下の道路に通じています。
一角には球戯場もあります。
この公園は国有地の無償貸付を受けています。",,,,,,,,,,,,,,,,,,,,,,,
杉並区,green,久我山つくし公園,168-0082,"〒168-0082
杉並区久我山4丁目13番24号",,https://www.city.suginami.tokyo.jp/shisetsu/kouen/02/kugayama/1007170.html,,139.596380005931,35.6903997999874,公園 ,396.75,https://www.city.suginami.tokyo.jp/_res/projects/default_project/_page_/001/007/170/080_kugayamatukusikouen.jpg,昭和52年4月1日,トイレなし,,,,,,,,,,,,,,,,,,,,,,,,
杉並区,green,さざんか公園,168-0082,"〒168-0082
杉並区久我山4丁目30番19号",,https://www.city.suginami.tokyo.jp/shisetsu/kouen/02/kugayama/1007171.html,,139.591017600011,35.6941577499579,公園 ,596.32,https://www.city.suginami.tokyo.jp/_res/projects/default_project/_page_/001/007/171/175_sazankakouen.jpg,平成2年3月31日,トイレ有り,,,,,,,,,,,,,,,,,,,,,,,,
杉並区,green,久我山児童遊園,168-0082,"〒168-0082
杉並区久我山4丁目36番1号",,https://www.city.suginami.tokyo.jp/shisetsu/kouen/02/kugayama/1007172.html,,139.592855800008,35.6923965198314,公園 ,848.7,https://www.city.suginami.tokyo.jp/_res/projects/default_project/_page_/001/007/172/305_kugayamajidouyuuen.jpg,昭和27年3月31日,トイレ有り,,,,,,,,,,,,,,,,,,,,,,,,
杉並区,green,久我山東原公園,168-0082,"〒168-0082
杉並区久我山5丁目12番27号",,https://www.city.suginami.tokyo.jp/shisetsu/kouen/02/kugayama/1007173.html,,139.604972140592,35.6875531508008,公園 ,1331.07,https://www.city.suginami.tokyo.jp/_res/projects/default_project/_page_/001/007/173/201_kugayamahigasiharakouen_2.jpg,平成6年2月1日,トイレ有り、流れ有り,,,,,,,,,,,,,,,,,,,,,,,,
杉並区,green,久我山遊友緑地,168-0082,"〒168-0082
杉並区久我山5丁目18番29号",,https://www.city.suginami.tokyo.jp/shisetsu/kouen/02/kugayama/1007174.html,,139.605756621287,35.6864302536007,公園 ,132.51,https://www.city.suginami.tokyo.jp/_res/projects/default_project/_page_/001/007/174/kugayamayuyuryokuti.jpg,平成24年10月2日,トイレなし,,,,,,,,,,,,,,,,,,,,,,,,
杉並区,green,富士見丘西公園,168-0082,"〒168-0082
杉並区久我山5丁目19番1号",,https://www.city.suginami.tokyo.jp/shisetsu/kouen/02/kugayama/1007175.html,,139.606949099974,35.68585649981,公園 ,345.56,https://www.city.suginami.tokyo.jp/_res/projects/default_project/_page_/001/007/175/214_fujimigaokanisikouen.jpg,平成8年10月1日,トイレ有り,,,,,,,,,,,,,,,,,,,,,,,,
杉並区,green,富士見丘北公園,168-0082,"〒168-0082
杉並区久我山5丁目24番23号",,https://www.city.suginami.tokyo.jp/shisetsu/kouen/02/kugayama/1007176.html,,139.608019794363,35.6877756518369,公園 ,765.18,https://www.city.suginami.tokyo.jp/_res/projects/default_project/_page_/001/007/176/043_fujimigaokakitakouen.jpg,昭和47年12月25日,トイレ有り,人見街道に面した住宅地にある遊具中心の公園で明るく広い敷地に、ケヤキが木陰おり、ブランコ・砂場・すべり台があります。,,,,,,,,,,,,,,,,,,,,,,,
杉並区,green,久我山東児童遊園,168-0082,"〒168-0082
杉並区久我山5丁目30番25号",,https://www.city.suginami.tokyo.jp/shisetsu/kouen/02/kugayama/1007177.html,,139.604761099991,35.6887722898107,公園 ,661.15,https://www.city.suginami.tokyo.jp/_res/projects/default_project/_page_/001/007/177/345_kugayamahigasijidouyuuen.jpg,昭和46年2月1日,トイレ有り,,,,,,,,,,,,,,,,,,,,,,,,
杉並区,green,たかはら公園,166-0002,"〒166-0002
杉並区高円寺北1丁目10番1号",,https://www.city.suginami.tokyo.jp/shisetsu/kouen/02/kouenjikita/1007178.html,,139.658011099994,35.706062889822,公園 ,2307.83,https://www.city.suginami.tokyo.jp/_res/projects/default_project/_page_/001/007/178/069_takaharakouen.jpg,昭和50年4月1日,トイレ有り、球戯場有り,,,,,,,,,,,,,,,,,,,,,,,,
杉並区,green,高円寺北一児童遊園,166-0002,"〒166-0002
杉並区高円寺北1丁目15番22号",,https://www.city.suginami.tokyo.jp/shisetsu/kouen/02/kouenjikita/1007179.html,,139.656017399998,35.7082496697867,公園 ,383.01,https://www.city.suginami.tokyo.jp/_res/projects/default_project/_page_/001/007/179/347_kouenjikitaitijidouyuuen.jpg,昭和46年12月10日,トイレ有り,,,,,,,,,,,,,,,,,,,,,,,,
杉並区,green,高円寺北一みどり公園,166-0002,"〒166-0002
杉並区高円寺北1丁目28番2号",,https://www.city.suginami.tokyo.jp/shisetsu/kouen/02/kouenjikita/1007180.html,車いすトイレ　オストメイトトイレ　ベビーベッド・ベビーチェアトイレ　点字ブロック　,139.657714600012,35.7083141197772,公園 ,3609.03,https://www.city.suginami.tokyo.jp/_res/projects/default_project/_page_/001/007/180/k01225_kouenjikitaiti_kouen.jpg,平成23年10月15日,バリアフリートイレ有り,"既存の樹木を活かしながら、明るく開放的な草地広場として整備しました。
3つの健康遊具と複合遊具、東屋やベンチがあり、幅広い年齢層にご利用いただけます。
この公園は国有地の無償貸付を受けています。",,,,,,,,,,,,,,,,,,,,,,,
杉並区,green,高円寺北二公園,166-0002,"〒166-0002
杉並区高円寺北2丁目16番15号",,https://www.city.suginami.tokyo.jp/shisetsu/kouen/02/kouenjikita/1007181.html,,139.652737799967,35.7069475998099,公園 ,1114.12,https://www.city.suginami.tokyo.jp/_res/projects/default_project/_page_/001/007/181/094_kouenjikitanikouen.jpg,昭和54年2月1日,トイレ有り、球戯場有り,,,,,,,,,,,,,,,,,,,,,,,,
杉並区,green,馬橋北公園,166-0002,"〒166-0002
杉並区高円寺北3丁目11番12号",,https://www.city.suginami.tokyo.jp/shisetsu/kouen/02/kouenjikita/1007182.html,,139.646436099831,35.7071832598189,公園 ,314.26,https://www.city.suginami.tokyo.jp/_res/projects/default_project/_page_/001/007/182/100_mabasikitakouen.jpg,昭和54年9月1日,トイレなし,,,,,,,,,,,,,,,,,,,,,,,,
杉並区,green,高円寺北公園,166-0002,"〒166-0002
杉並区高円寺北3丁目20番15号",,https://www.city.suginami.tokyo.jp/shisetsu/kouen/02/kouenjikita/1007183.html,車いすトイレ　,139.648936499842,35.7072055398157,公園 ,1808.91,https://www.city.suginami.tokyo.jp/_res/projects/default_project/_page_/001/007/183/008_kouenjikitakouen.jpg,昭和39年3月31日,トイレ有り、バリアフリートイレ有り、流れ有り,,,,,,,,,,,,,,,,,,,,,,,,
杉並区,green,馬橋北第二公園,166-0002,"〒166-0002
杉並区高円寺北3丁目26番9号",,https://www.city.suginami.tokyo.jp/shisetsu/kouen/02/kouenjikita/1007184.html,,139.647070799828,35.7080124098276,公園 ,434.48,https://www.city.suginami.tokyo.jp/_res/projects/default_project/_page_/001/007/184/111_mabasikitadainikouen.jpg,昭和55年11月1日,トイレなし,,,,,,,,,,,,,,,,,,,,,,,,
杉並区,green,高円寺北三丁目公園,166-0002,"〒166-0002
杉並区高円寺北3丁目35番7号",,https://www.city.suginami.tokyo.jp/shisetsu/kouen/02/kouenjikita/1007185.html,,139.648191999836,35.7088263798288,公園 ,241.41,https://www.city.suginami.tokyo.jp/_res/projects/default_project/_page_/001/007/185/131_kouenjikitasantyoumekouen.jpg,昭和58年12月15日,トイレなし,この公園は国有地の無償貸付を受けています。,,,,,,,,,,,,,,,,,,,,,,,
杉並区,green,馬橋公園,166-0002,"〒166-0002
杉並区高円寺北4丁目35番5号",03-3336-1105,https://www.city.suginami.tokyo.jp/shisetsu/kouen/02/kouenjikita/1007186.html,車いすトイレ　点字案内　点字ブロック　AED　,139.643768999959,35.7095690199518,公園 ,19261.23,https://www.city.suginami.tokyo.jp/_res/projects/default_project/_page_/001/007/186/137_mabasikouen.jpg,昭和60年3月30日,トイレ有り、バリアフリートイレ有り、流れ有り,"気象研究所の跡地
国立の気象研究所が筑波に移転した跡地につくった公園です。
国は払い下げの条件として、次の2つを提示しました。
（1）防災空地を兼ねた公園として整備する
（2）防災機能を高めるため周辺の不燃化まちづくりを推進する
そこで杉並区としては、不燃化の促進、道路の整備、居住環境の整備を3本の柱とした「不燃化まちづくり計画」をまとめ、この計画に基づいて公園をつくりました。
公園施設については、個性的な6つの広場で構成し、全体にわたって防災対策をたてているのが特徴です。
多目的広場
敷地の中央に広い空間を占めているのが、扇形をした「多目的広場」。
周りには低いネットフェンスがめぐらされており、子供達が野球場として利用しています。
そのほか地域の催しにも利用できます。
四季の広場
公園の南端にあるのが「四季の広場」周りに、四季おりおりに装いを変える樹木が植えられているので、この名があります。
スズカケが立つ広場は、平らに整地されゲートボールなどに利用さています。
この広場と多目的広場の管理はスポーツ振興課が行っています。
ちびっこ広場
幼児向けの遊具と流れが主体の遊び場です。
舗装されたテラスに赤レンガの柱のパーゴラが建ち、付近には砂場やすべり台があります。
広場に彩りを添えるのは、四季の花が咲く花壇とユリノキ、サクラなどの木立。
その中をぬって岸辺に自然石がならぶ流れがあります。
夏は子供達の水遊びの場として親しまれています。
水辺の広場
ちびっこ広場の流れの下流にあり、流れと池からなる水と緑の空間です。
池の岸は、大きな石でつくられ、ほとりに立つヤマモミジなどの樹木が影を落としています。
かたわらにはあずまやが建ち、落ち着いて景色を眺めることができます。
疎林広場
池の東側は武蔵野の面影を再現した雑木林に囲まれた築山で「疎林広場」と呼ばれています。
その頂上は少し開けていて、大型の複合遊具があります。
管理棟前広場
事務室、機械室、トイレからなる管理棟の前にある広場です。きれいに舗装された明るい空間で、催しものにも使われています。
防災対策
周辺市街地の不燃化にあわせて、公園も防災対策をほどこしており、災害時には一時避難地となります。
シイノキ、シラカシ、タブノキなどの防火樹林をもうけたのをはじめ、ゲートシャワー・スプリンクラーなどの散水装置や備蓄倉庫をそなえています。
雨水流出抑制対策
多目的広場は、周辺より一段低くもうけられ、雨水が地下に浸透・貯溜するしくみになっています。
また、浸透桝・浸透地下埋管を設置した浸透方式により、雨水が公園の外に流出しないように配慮しています。
この公園は国有地の無償貸付を受けています。",,,,,,,,,,,,,,,,,,,,,,,
杉並区,green,こりす公園,166-0003,"〒166-0003
杉並区高円寺南1丁目4番16号",,https://www.city.suginami.tokyo.jp/shisetsu/kouen/02/kouenjiminami/1007187.html,,139.660348299831,35.6992599197861,公園 ,238.21,https://www.city.suginami.tokyo.jp/_res/projects/default_project/_page_/001/007/187/189_korisukouen.jpg,平成4年3月31日,トイレ有り,,,,,,,,,,,,,,,,,,,,,,,,
杉並区,green,やなぎ公園,166-0003,"〒166-0003
杉並区高円寺南1丁目12番14号",,https://www.city.suginami.tokyo.jp/shisetsu/kouen/02/kouenjiminami/1007188.html,,139.655724499951,35.6988022197933,公園 ,439.86,https://www.city.suginami.tokyo.jp/_res/projects/default_project/_page_/001/007/188/085_yanagikouen.jpg,昭和52年4月1日,トイレなし,"青梅街道から少し入った住宅地にあります。民有地を買収してつくられた公園です。
一帯の土地はゆるい勾配があるので、公園も道路より少し高くなっています。
「やなぎ」の園名があるよう、広場の中央に大きなヤナギが1本立っています。
根元は擬木で囲まれ、ツツジが植えられています。ヤナギは北側の入口にもあります。
広場の南側、民家に接するところは擬木で土留めされた一段高い植込み。
そこに赤い手すりのコンクリート製すべり台がそなえられています。
その周りは、サクラ、シイノキ、トベラなどの木立で、中にはカキもあります。
遊具はほかにブランコと砂場。
砂場の上は、フジづるがからまる日除けでおおわれています。",,,,,,,,,,,,,,,,,,,,,,,
杉並区,green,かえる公園,166-0003,"〒166-0003
杉並区高円寺南1丁目16番12号",,https://www.city.suginami.tokyo.jp/shisetsu/kouen/02/kouenjiminami/1007189.html,,139.657171399849,35.7004076998142,公園 ,288.06,https://www.city.suginami.tokyo.jp/_res/projects/default_project/_page_/001/007/189/063_kaerukouen.jpg,昭和50年1月25日,トイレなし,"杉並第三小学校のわきの、ゆるい坂道をくだったところにある遊具主体の公園。
日本放送協会共済会の所有地を買収してつくられたものです。
広場の中央には、2つの峰を持った赤いコンクリート製の築山があります。
これが遊具の中心です。
峰の間にはカラフルなコンクリートリングのトンネルがもうけられ、一方の出口は築山のふもとにつくられた砂場に通じています。
砂場にはフジ棚が建ち、その下のテラスには緑色のかえるの遊具があります。
水飲場もかえるをかたどっています。
遊具はほかに鉄棒と地面にうめたタイヤがあります。
広場の周りの植込みには、シイノキやハクチョウゲなどのほか、めずらしいフェイジョアが植えられています。
これは、熱帯アメリカ産の「ふともも科」の中木です。",,,,,,,,,,,,,,,,,,,,,,,
杉並区,green,桃園川緑道,166-0003,"〒166-0003
杉並区高円寺南1丁目34番10号",,https://www.city.suginami.tokyo.jp/shisetsu/kouen/02/kouenjiminami/1007190.html,車いすトイレ　,139.656637199955,35.7014138398301,公園 ,8948.97,https://www.city.suginami.tokyo.jp/_res/projects/default_project/_page_/001/007/190/017_momozonogawaryokudou.jpg,昭和44年4月1日,トイレ有り、バリアフリートイレ有り,"JR中央線の高円寺駅南側の商店街と住宅地を、東西約1,600メートルにわたって連なる長い公園です。
緑道の下は桃園川が流れていました。
川の名称は近くにある高円寺の境内に昔桃の木があったことに由来します。
この川は天沼三丁目にある弁天池を一つの源とする小川でしたが、底が浅いので大雨の度に洪水になっていました。
そこで昭和40年に下水にして上に公園をつくったものです。",,,,,,,,,,,,,,,,,,,,,,,
杉並区,green,高円寺南二丁目公園,166-0003,"〒166-0003
杉並区高円寺南2丁目2番12号",,https://www.city.suginami.tokyo.jp/shisetsu/kouen/02/kouenjiminami/1007191.html,,139.65335479997,35.6988351298054,公園 ,327.52,https://www.city.suginami.tokyo.jp/_res/projects/default_project/_page_/001/007/191/143_kouenjiminaminityoumekouen.jpg,昭和61年3月22日,トイレなし,,,,,,,,,,,,,,,,,,,,,,,,
杉並区,green,高南小公園,166-0003,"〒166-0003
杉並区高円寺南2丁目47番7号",,https://www.city.suginami.tokyo.jp/shisetsu/kouen/02/kouenjiminami/1007192.html,,139.64839939996,35.7019643297986,公園 ,253.69,https://www.city.suginami.tokyo.jp/_res/projects/default_project/_page_/001/007/192/prk_takaminamisho.jpg,昭和50年12月20日,トイレ有り,,,,,,,,,,,,,,,,,,,,,,,,
杉並区,green,新高円寺公園,166-0003,"〒166-0003
杉並区高円寺南3丁目16番5号",,https://www.city.suginami.tokyo.jp/shisetsu/kouen/02/kouenjiminami/1007193.html,,139.645588100015,35.6991275398214,公園 ,554.94,https://www.city.suginami.tokyo.jp/_res/projects/default_project/_page_/001/007/193/167_sinkouenjikouen.jpg,平成元年3月31日,トイレ有り,"かぎ形の敷地は奥が広くなっています。
広場の右側には、丸太づくりの木製遊具があり、やぐら、ロープネットそして金属製のすべり台がついています。
日除けをはさんで反対側に砂場があり、そこにも日除けがそなえられています。
広場の周りは、切り石でふちどられ3段重ねにつくられた植込みです。
そこに高木のタイサンボクやコブシ、中木のハナミズキ、キンモクセイ、サルスベリなど、そしてコデマリ、アベリアなどの灌木が植えられています。
いずれもまだ若い木なので、日差しをさえぎることもなく園内は明るい雰囲気です。
また、段状の植込みには草花やクローバーも植えられています。",,,,,,,,,,,,,,,,,,,,,,,
杉並区,green,高円寺南公園,166-0003,"〒166-0003
杉並区高円寺南3丁目30番26号",,https://www.city.suginami.tokyo.jp/shisetsu/kouen/02/kouenjiminami/1007194.html,,139.645071999972,35.7020486897777,公園 ,768.23,https://www.city.suginami.tokyo.jp/_res/projects/default_project/_page_/001/007/194/020_kouenjiminamikouen.jpg,昭和44年4月1日,トイレ有り,"背の高いイチョウが囲む土の広場にコンクリート製の築山・ブランコ・砂場があり、遊び場としての機能が中心の公園です。
広場のほぼ真ん中に位置するのが白いコンクリート製の築山で、斜面にはたくさんの石と鉄の足場が取り付けられ、小さな子供も登れるようになっています。
また、山には鉄パイプのジャングルジムも取り付けられています。
山の左手には4連ブランコがあり、右手には鉄平石張りのテラスと砂場があり、パーゴラが建ちベンチが置かれています。",,,,,,,,,,,,,,,,,,,,,,,
杉並区,green,みどりケ丘児童遊園,166-0003,"〒166-0003
杉並区高円寺南3丁目60番13号",,https://www.city.suginami.tokyo.jp/shisetsu/kouen/02/kouenjiminami/1007195.html,,139.647351999835,35.7049578697971,公園 ,216.81,https://www.city.suginami.tokyo.jp/_res/projects/default_project/_page_/001/007/195/353_midorigaokajidouyuuen.jpg,昭和52年4月1日,トイレなし,,,,,,,,,,,,,,,,,,,,,,,,
杉並区,green,高南みどり公園,166-0003,"〒166-0003
杉並区高円寺南4丁目1番8号",,https://www.city.suginami.tokyo.jp/shisetsu/kouen/02/kouenjiminami/1007196.html,,139.654487199959,35.7019171698279,公園 ,211.42,https://www.city.suginami.tokyo.jp/_res/projects/default_project/_page_/001/007/196/kounanmidorikouen.jpg,昭和63年2月23日,トイレ有り,,,,,,,,,,,,,,,,,,,,,,,,
杉並区,green,高円寺中央公園,166-0003,"〒166-0003
杉並区高円寺南4丁目31番7号",,https://www.city.suginami.tokyo.jp/shisetsu/kouen/02/kouenjiminami/1007197.html,車いすトイレ　,139.65165329995,35.7037961498193,公園 ,1501.27,https://www.city.suginami.tokyo.jp/_res/projects/default_project/_page_/001/007/197/kouenjityuou.jpg,昭和41年3月4日,トイレ有り、バリアフリートイレ有り,"駅前南口の商店街から坂を降りたところにあり、一帯は商店街と住宅が混在しているので人通りが多く、公園は街角のオアシスという感じでいつもにぎわっています。
公園の周囲は、ケヤキ・スズカケなどの高木や、ツツジ・アベリアなどの潅木で囲まれています。
入口を入ると、鮮やかなオレンジの鉄枠の日除けをそなえた砂場が目につきます。
左手は内柵で囲った植込みがあり、右手は4連ブランコが、さらに奥の植込みと「動物ウオール」で囲まれたケヤキの木立の間を抜けると南側の出入り口になります。
その左右はヤマブキ・コデマリ・ツツジなど花咲く潅木やカヤなどの植込みになっています。
この公園は昭和26年に都有地を借用し、区立の高円寺児童遊園として開設されました。その後、昭和41年に、区画整理事業により高円寺児童遊園の一部を取り込み高円寺中央公園として開園され、現在に至ります。",,,,,,,,,,,,,,,,,,,,,,,
杉並区,green,高南幼児公園,166-0003,"〒166-0003
杉並区高円寺南4丁目37番15号",,https://www.city.suginami.tokyo.jp/shisetsu/kouen/02/kouenjiminami/1007198.html,,139.653599399963,35.7049283798252,公園 ,230.11,https://www.city.suginami.tokyo.jp/_res/projects/default_project/_page_/001/007/198/kounanyouzi.jpg,昭和57年8月10日,トイレ有り、すくすくひろば有り,,,,,,,,,,,,,,,,,,,,,,,,
杉並区,green,高円寺東公園,166-0003,"〒166-0003
杉並区高円寺南5丁目11番7号",,https://www.city.suginami.tokyo.jp/shisetsu/kouen/02/kouenjiminami/1007199.html,,139.658382499957,35.7019708698474,公園 ,2718.66,https://www.city.suginami.tokyo.jp/_res/projects/default_project/_page_/001/007/199/013_kouenjihigasikouen2.jpg,昭和43年3月31日,トイレ有り,"杉並区の東端で中野区に隣接する高円寺南5丁目の静かな住宅地にあります。
広々とした印象の広場の中央にケヤキとイチョウが立ち、公園の西側には藤棚があります。",,,,,,,,,,,,,,,,,,,,,,,
杉並区,green,高円寺いこい公園,166-0003,"〒166-0003
杉並区高円寺南5丁目13番23号",,https://www.city.suginami.tokyo.jp/shisetsu/kouen/02/kouenjiminami/1007200.html,,139.660117699964,35.7025205699555,公園 ,326.10,https://www.city.suginami.tokyo.jp/_res/projects/default_project/_page_/001/007/200/182_kouenjiikoikouen.jpg,平成3年3月28日,トイレ有り,,,,,,,,,,,,,,,,,,,,,,,,
杉並区,green,高円寺谷中緑地,166-0003,"〒166-0003
杉並区高円寺南5丁目19番3号",,https://www.city.suginami.tokyo.jp/shisetsu/kouen/02/kouenjiminami/1007201.html,,139.65591429996,35.7025893398437,公園 ,197.59,https://www.city.suginami.tokyo.jp/_res/projects/default_project/_page_/001/007/201/prk_koenjiyanaka_ryokuti.jpg,平成16年3月26日,トイレなし,,,,,,,,,,,,,,,,,,,,,,,,
杉並区,green,ひとみ公園,166-0003,"〒166-0003
杉並区高円寺南5丁目35番3号",,https://www.city.suginami.tokyo.jp/shisetsu/kouen/02/kouenjiminami/1007202.html,,139.657356899978,35.7047074598465,公園 ,285.05,https://www.city.suginami.tokyo.jp/_res/projects/default_project/_page_/001/007/202/hitomikouen2_2.jpg,平成6年3月31日,トイレ有り,,,,,,,,,,,,,,,,,,,,,,,,
杉並区,green,清水一丁目公園,167-0033,"〒167-0033
杉並区清水1丁目28番11号",,https://www.city.suginami.tokyo.jp/shisetsu/kouen/02/shimizu/1007203.html,,139.616551800202,35.7115367899873,公園 ,501.88,https://www.city.suginami.tokyo.jp/_res/projects/default_project/_page_/001/007/203/134_simizuittyoumekouen.jpg,昭和59年12月20日,トイレ有り,"公園の2面が住宅地の路地に面しています。
そのうち一方は、舗装された入口とそれにつづくテラスになっており、もう一方は植込みです。テラスにはパーゴラが建ち、憩いの場として親しまれています。
植込みには、ガクアジサイ、クチナシ、ジンチョウゲなど花の咲く木が多く植えられています。
園内の高木は、シラカシやケヤキ。このうちシラカシには、秋になるとどんぐりがなります。
遊具で特徴のあるのは「もぐら砂場」。地面を掘りさげ、周りをグリーンのコンクリートで固め、中に砂が敷かれています。
また、コンクリートの太い管がそなえつけられ、中にもぐれるようにしてあります。
もぐら砂場の名前は、この管にちなんでいます。また、砂場にはすべり台もついています。",,,,,,,,,,,,,,,,,,,,,,,
杉並区,green,清水森公園,167-0033,"〒167-0033
杉並区清水2丁目9番17号",,https://www.city.suginami.tokyo.jp/shisetsu/kouen/02/shimizu/1007204.html,,139.618108400182,35.7135012399573,公園 ,2491.84,https://www.city.suginami.tokyo.jp/_res/projects/default_project/_page_/001/007/204/142_simizumorikouen.jpg,昭和61年2月26日,トイレ有り、球戯場有り、流れ有り,"この公園は、用地のほぼ半分ずつを昭和57年と61年の2回にわたり、民間から買収してつくられ公園となる前は借地の時代も含めて、昭和55年より遊び場として開放されていました。

起伏のある敷地にコナラ、エノキ、シラカシなどの落葉樹のほかシイノキ、サワラなどの常緑樹が、こんもりと繁っています。
高木の大部分は在来のものです。緑の濃さは「清水森」の園名にそむきません。
木立の下に広がる広場には、いろいろな施設があります。

この公園で目につくのは、2種類の園路があることです。
渡り廊下のように板を張った木道、擬木の丸太でふちどりした土の道です。
木道の西端には、砂場と木造のテラスがあり、木レンガ造りの広いテラスヘと続きます。この一角は遊びのコーナーになっています。

子供達の人気の的は、流れと木製遊具。
流れの水源は、広場の中央の植込みのそばにもうけられたバードバス（鳥の水飲み場）で、水は岸辺の石を洗い、左右に蛇行して広場の西端まで流れます。
角材でつくられた「冒険デッキ」と呼ばれる木製遊具は、やぐらとすべり台を組み合わせたもので、流れの近くに2つもうけられています。",,,,,,,,,,,,,,,,,,,,,,,
杉並区,green,くつかけ公園,167-0033,"〒167-0033
杉並区清水3丁目7番18号",,https://www.city.suginami.tokyo.jp/shisetsu/kouen/02/shimizu/1007205.html,,139.616081300162,35.7158979498121,公園 ,851.30,https://www.city.suginami.tokyo.jp/_res/projects/default_project/_page_/001/007/205/209_kutukakekouen.jpg,平成7年3月31日,トイレ有り,,,,,,,,,,,,,,,,,,,,,,,,
杉並区,green,妙正寺公園,167-0033,"〒167-0033
杉並区清水3丁目21番21号",,https://www.city.suginami.tokyo.jp/shisetsu/kouen/02/shimizu/1007206.html,車いすトイレ　,139.618388800048,35.7172222597955,公園 ,12444.22,https://www.city.suginami.tokyo.jp/_res/projects/default_project/_page_/001/007/206/007_myousyoujikouen.jpg,昭和38年4月1日,トイレ有り、バリアフリートイレ有り,"妙正寺池
妙正寺川の水源になる妙正寺池を中心にした公園で、池の周辺の休息コーナー・木製遊具・砂場などの遊具コーナー、そしてゲートボールなどのできる運動コーナーの3つの広場があります。

公園の中の池は、湧水によってつくられた池でした。
しかし、近年になって湧水の量が少なくなったので、近くに井戸を掘り、地下水をくみ上げて池の水の大部分をまかなっています。

岸辺はツツジや花壇でかざられ、その周りには舗装した園路がめぐらされています。
園路の外側には、アケボノスギ・サクラ・ケヤキなどの大木が立ち並びます。
池の中には大小2種類の噴水が設けられ、いろいろな形の水しぶきをあげています。
また、池には円い中島が浮かんでおり、そこには水辺の植物とマツが植えられ、池の周辺の景観に彩りをそえています。
遊戯広場
公園の東側を通る道路に面して、明るく開放的な「遊具広場」があり、そこには子供達に人気の、色々な遊具がそなえられています。

主なものは、まず築山のかたわらにある大型の木製遊具に高い見晴らし台がついています。
そしてコンクリートでつくられた大きな船のある砂場など一帯はちょっとした遊園地の雰囲気です。
多目的広場
敷地の中央部にあるのが「多目的広場」で、ここはゲートボールのコートが2面とれる広さがあります。
そのわきに4連のブランコがもうけられています。
健康広場
公園の北西側には「健康広場」があり、平行棒・背のばしベンチ・腹筋ベンチ・高鉄棒があり、健康を維持するための運動や体力を鍛えるのに利用されています。
この公園は国有地の無償貸付を受けています。",,,,,,,,,,,,,,,,,,,,,,,
杉並区,green,一本松公園,167-0022,"〒167-0022
杉並区下井草1丁目3番12号",,https://www.city.suginami.tokyo.jp/shisetsu/kouen/02/shimoigusa/1007207.html,,139.634564700011,35.7153178398282,公園 ,485.47,https://www.city.suginami.tokyo.jp/_res/projects/default_project/_page_/001/007/207/151_ipponmatukouen.jpg,昭和62年3月31日,トイレ有り,,,,,,,,,,,,,,,,,,,,,,,,
杉並区,green,すぎのこ公園,167-0022,"〒167-0022
杉並区下井草1丁目25番39号",,https://www.city.suginami.tokyo.jp/shisetsu/kouen/02/shimoigusa/1007208.html,,139.631166000009,35.7164644198045,公園 ,336.11,https://www.city.suginami.tokyo.jp/_res/projects/default_project/_page_/001/007/208/075_suginokokouen.jpg,昭和51年8月6日,トイレ有り,,,,,,,,,,,,,,,,,,,,,,,,
杉並区,green,東原公園,167-0022,"〒167-0022
杉並区下井草1丁目29番1号",,https://www.city.suginami.tokyo.jp/shisetsu/kouen/02/shimoigusa/1007209.html,,139.630273600005,35.7170015897942,公園 ,662.14,https://www.city.suginami.tokyo.jp/_res/projects/default_project/_page_/001/007/209/024_higasiharakouen.jpg,昭和45年6月1日,トイレ有り,,,,,,,,,,,,,,,,,,,,,,,,
杉並区,green,下井草いど公園,167-0022,"〒167-0022
杉並区下井草2丁目9番1号",,https://www.city.suginami.tokyo.jp/shisetsu/kouen/02/shimoigusa/1007210.html,,139.631006299976,35.7187411197544,公園 ,435.46,https://www.city.suginami.tokyo.jp/_res/projects/default_project/_page_/001/007/210/231_simoigusaidokouen.jpg,平成12年6月1日,トイレなし,,,,,,,,,,,,,,,,,,,,,,,,
杉並区,green,銀杏稲荷公園,167-0022,"〒167-0022
杉並区下井草2丁目15番13号",,https://www.city.suginami.tokyo.jp/shisetsu/kouen/02/shimoigusa/1007211.html,,139.626604299993,35.7191981197609,公園 ,1550.47,https://www.city.suginami.tokyo.jp/_res/projects/default_project/_page_/001/007/211/352_ityouinarijidouyuuen.jpg,平成18年12月12日,トイレ有り、バリアフリートイレ有り,子供用のフィールドアスレチックがあり、簡単な丸太渡りや見晴らし台などがあります。森の中の公園という雰囲気です。,,,,,,,,,,,,,,,,,,,,,,,
杉並区,green,下井草二丁目公園,167-0022,"〒167-0022
杉並区下井草2丁目16番18号",,https://www.city.suginami.tokyo.jp/shisetsu/kouen/02/shimoigusa/1007212.html,,139.627863899984,35.7194496197513,公園 ,503.67,https://www.city.suginami.tokyo.jp/_res/projects/default_project/_page_/001/007/212/090_simoigusanityoumekouen.jpg,昭和53年4月1日,トイレなし,,,,,,,,,,,,,,,,,,,,,,,,
杉並区,green,向井東公園,167-0022,"〒167-0022
杉並区下井草2丁目17番2号",,https://www.city.suginami.tokyo.jp/shisetsu/kouen/02/shimoigusa/1007213.html,,139.628732999977,35.7195742396453,公園 ,310.03,https://www.city.suginami.tokyo.jp/_res/projects/default_project/_page_/001/007/213/221_mukaihigasikouen.jpg,平成10年8月1日,トイレ有り,,,,,,,,,,,,,,,,,,,,,,,,
杉並区,green,上ノ台公園,167-0022,"〒167-0022
杉並区下井草2丁目31番1号",,https://www.city.suginami.tokyo.jp/shisetsu/kouen/02/shimoigusa/1007214.html,,139.6263209,35.7210081699984,公園 ,645.26,https://www.city.suginami.tokyo.jp/_res/projects/default_project/_page_/001/007/214/311_uenodaijidouyuuen.jpg,昭和29年11月12日,トイレ有り,,,,,,,,,,,,,,,,,,,,,,,,
杉並区,green,向井公園,167-0022,"〒167-0022
杉並区下井草3丁目13番7号",,https://www.city.suginami.tokyo.jp/shisetsu/kouen/02/shimoigusa/1007215.html,,139.624590400005,35.7191180397697,公園 ,206.20,https://www.city.suginami.tokyo.jp/_res/projects/default_project/_page_/001/007/215/mukai_kouen.jpg,平成9年3月31日,,,,,,,,,,,,,,,,,,,,,,,,,
杉並区,green,中瀬児童遊園,167-0022,"〒167-0022
杉並区下井草4丁目7番15号",,https://www.city.suginami.tokyo.jp/shisetsu/kouen/02/shimoigusa/1007216.html,,139.618784800018,35.7201681797558,公園 ,829.76,https://www.city.suginami.tokyo.jp/_res/projects/default_project/_page_/001/007/216/304_nakasejidouyuuen.jpg,昭和33年5月5日,トイレ有り,,,,,,,,,,,,,,,,,,,,,,,,
杉並区,green,神戸町あけぼの公園,167-0022,"〒167-0022
杉並区下井草5丁目8番24号",,https://www.city.suginami.tokyo.jp/shisetsu/kouen/02/shimoigusa/1007217.html,,139.616184800019,35.7206130196476,公園 ,1299.86,https://www.city.suginami.tokyo.jp/_res/projects/default_project/_page_/001/007/217/187_goudotyouakebonokouen.jpg,平成4年2月14日,トイレ有り、流れ有り,,,,,,,,,,,,,,,,,,,,,,,,
杉並区,green,神戸町児童遊園,167-0022,"〒167-0022
杉並区下井草5丁目19番8号",,https://www.city.suginami.tokyo.jp/shisetsu/kouen/02/shimoigusa/1007218.html,,139.615374399967,35.723875439782,公園 ,486.92,https://www.city.suginami.tokyo.jp/_res/projects/default_project/_page_/001/007/218/321_goudotyoujidouyuuen.jpg,昭和37年3月23日,トイレ有り,,,,,,,,,,,,,,,,,,,,,,,,
杉並区,green,玉川上水第三公園,168-0073,"〒168-0073
杉並区下高井戸2丁目1番1号",,https://www.city.suginami.tokyo.jp/shisetsu/kouen/03/shimotakaido/1007219.html,,139.638161200184,35.6685841795997,公園 ,12250.90,https://www.city.suginami.tokyo.jp/_res/projects/default_project/_page_/001/007/219/031_tamagawajyousuidaisankouen.jpg,昭和46年7月1日,トイレ有り,"玉川上水は、江戸時代に江戸の町に飲料水を供給するためにつくられた上水路で、現在は一部が暗渠となって杉並区内を通っています。
その暗渠の上に東京都水道局から借地してつくられた3つの公園と1つの緑地があります。
下流から玉川上水公園、玉川上水永泉寺緑地、玉川上水第三公園、玉川上水第二公園の順に並んでおり、その全長は約2,000メートルにもおよびます。",,,,,,,,,,,,,,,,,,,,,,,
杉並区,green,永泉寺坂児童遊園,168-0073,"〒168-0073
杉並区下高井戸2丁目21番29号",,https://www.city.suginami.tokyo.jp/shisetsu/kouen/03/shimotakaido/1007220.html,,139.641143500178,35.6691069296137,公園 ,312.17,https://www.city.suginami.tokyo.jp/_res/projects/default_project/_page_/001/007/220/342_eisenjizakajidouyuuen.jpg,昭和44年11月14日,トイレ有り,,,,,,,,,,,,,,,,,,,,,,,,
杉並区,green,下高井戸公園,168-0073,下高井戸2丁目27番5号,,https://www.city.suginami.tokyo.jp/shisetsu/kouen/03/shimotakaido/1007221.html,,139.635791300198,35.670550259575,公園 ,,,,,,,,,,,,,,,,,,,,,,,,,,,,
杉並区,green,玉川上水第二公園,168-0073,"〒168-0073
杉並区下高井戸3丁目1番14号",,https://www.city.suginami.tokyo.jp/shisetsu/kouen/03/shimotakaido/1007222.html,,139.633594300199,35.669850859584,公園 ,13193.78,https://www.city.suginami.tokyo.jp/_res/projects/default_project/_page_/001/007/222/016_tamagawajyousuidainikouen.jpg,昭和43年10月1日,トイレなし、流れ有り,"玉川上水は、江戸時代に江戸の町に飲料水を供給するためにつくられた上水路で、現在は一部が暗渠となって杉並区内を通っています。

その暗渠の上に東京都水道局から借地してつくられた3つの公園と1つの緑地があります。
下流から玉川上水公園、玉川上水永泉寺緑地、玉川上水第三公園、玉川上水第二公園の順に並んでおり、その全長は約2,000メートルにもおよびます。

玉川上水第三公園と荒玉水道をはさんで、隣接した公園です。
園地は道路より少し高くなり、鉄平石を張った道から始まり、自然の土と小砂利を敷いた小道と園路もさまざまに変化します。

園路は左右にうねり、場所によっては二筋、三筋に分かれて緑の木々の間を進みます。
ここでの見所のひとつは人工の流れと池で、植込みの中の古銭をかたどった円形の泉に発した流れは、岸辺を岩でふちどられた流れとなり、あずまやの建つ池にそそぎます。",,,,,,,,,,,,,,,,,,,,,,,
杉並区,green,下高井戸児童遊園,168-0073,"〒168-0073
杉並区下高井戸3丁目25番5号",,https://www.city.suginami.tokyo.jp/shisetsu/kouen/03/shimotakaido/1007223.html,,139.635823400184,35.671937709579,公園 ,334.22,https://www.city.suginami.tokyo.jp/_res/projects/default_project/_page_/001/007/223/332_simotakaidojidouyuuen.jpg,昭和41年8月23日,トイレ有り,,,,,,,,,,,,,,,,,,,,,,,,
杉並区,green,下高井戸仲町緑地,168-0073,"〒168-0073
杉並区下高井戸4丁目2番29号",,https://www.city.suginami.tokyo.jp/shisetsu/kouen/03/shimotakaido/1007224.html,,139.630257500155,35.6700116396497,公園 ,306.81,https://www.city.suginami.tokyo.jp/_res/projects/default_project/_page_/001/007/224/160_simotakaidonakamatiryokuti.jpg,昭和63年3月30日,トイレなし,,,,,,,,,,,,,,,,,,,,,,,,
杉並区,green,喜花公園,168-0073,"〒168-0073
杉並区下高井戸4丁目6番15号",,https://www.city.suginami.tokyo.jp/shisetsu/kouen/03/shimotakaido/1007225.html,,139.627725500026,35.6711871097979,公園 ,278.00,https://www.city.suginami.tokyo.jp/_res/projects/default_project/_page_/001/007/225/165_kihanakouen.jpg,昭和63年11月24日,トイレなし,,,,,,,,,,,,,,,,,,,,,,,,
杉並区,green,藤和緑地,168-0073,"〒168-0073
杉並区下高井戸4丁目39番22号",,https://www.city.suginami.tokyo.jp/shisetsu/kouen/03/shimotakaido/1007226.html,,139.630275400045,35.6757939096395,公園 ,2413.72,https://www.city.suginami.tokyo.jp/_res/projects/default_project/_page_/001/007/226/188_touwaryokuti.jpg,平成4年2月27日,トイレなし、流れ有り,,,,,,,,,,,,,,,,,,,,,,,,
杉並区,green,下高井戸西公園,168-0073,"〒168-0073
杉並区下高井戸5丁目9番24号",,https://www.city.suginami.tokyo.jp/shisetsu/kouen/03/shimotakaido/1007227.html,,139.622863900001,35.6739470099747,公園 ,2501.81,https://www.city.suginami.tokyo.jp/_res/projects/default_project/_page_/001/007/227/044_simotakaidonisikouen.jpg,昭和48年1月5日,トイレ有り、球戯場有り、流れ有り,"日差しが降り注ぐ明るい広場と、ケヤキの大木がこんもりと繁る木立の広場という2つの顔をもった公園です。
南側の入口を入ったところが開けた明るい広場で、左手はサクラの木立の下にブランコとコンビネーションジムがあります。
正面にはフジ棚の緑が鮮やかなパーゴラがあり、下は鉄平石張りのテラスになっています。
パーゴラの奥が壁泉で、高さが1メートルちょっとの石積みの壁に5つの滝口が切ってあり、そこから水がほとばしり出て池に注ぎます。
池の水は、石組の流れとなって少し低くなっているケヤキの広場に流れくだります。
壁泉のうしろは遊具の広場で、明るく開けた敷地に、砂場・幼児用すべり台・動物遊具・カラーの単座ベンチなどがあります。
壁泉の左側には、ムクゲやコブシに囲まれた球戯場があります。
入口を入った右手が、ケヤキがこんもりと繁る広場になっていて、明るいほうの広場とは、アケボノスギと石段で仕切られています。
この広場には、周りにも中央にも大きなケヤキが立って木陰をつくっていますが、日差しもよく通り、ベンチやケヤキの根元の切り石に腰かけてのんびりとくつろぐのに適しています。",,,,,,,,,,,,,,,,,,,,,,,
杉並区,green,塚山公園,168-0073,"〒168-0073
杉並区下高井戸5丁目23番12号",03-3302-8989,https://www.city.suginami.tokyo.jp/shisetsu/kouen/03/shimotakaido/1007228.html,車いすトイレ　AED　,139.624830000025,35.6754280398313,公園 ,28700.67,https://www.city.suginami.tokyo.jp/_res/projects/default_project/_page_/001/007/228/162_tukayamakouen.jpg,昭和63年3月31日,トイレ有り、バリアフリートイレ有り、流れ有り,"縄文時代の遺跡
面積2.87ヘクタール。
この地では、昭和7年頃から土器や石器が出土し、その後多くの竪穴式住居跡が発見されたことから縄文時代中期の遺跡のあるところとして知られていました。

公園になる前はある新聞社が所有する農場で、それを昭和48年に国が取得し、官舎の建設計画を発表しました。
これを契機に地元で遺跡と樹林の保存運動が起こり、議会と区民が協力して国に働きかけた結果、公園をつくることで払い下げになったものです。
遺跡の保存と樹林の活用
公園は遺跡の保存とコナラやアカマツなどの樹林を有効に活用することを主眼においてつくられました。
復元住居、出土品の展示や1ヘクタールを越える「遺跡と野鳥の森」の設置などが、その具体例です。
公園は、遺跡と樹林の保全を基調にして5つの広場がもうけられ、さまざまな公園利用が楽しめるように整備されています。
ふれあい広場
公園は神田川に沿った台地にあります。台地の上の入口を入ったところが緑化モデル園。
色とりどりの花が咲く花壇や生垣の見本があり、明るくて西洋庭園のような雰囲気です。
そのすぐうしろが「ふれあい広場」。
ゲートボールもできる土の広場を芝生が円くとり囲んでいます。
周りにはサクラが植えられています。
そのかたわらには、曲線的な設計の砂場とパーゴラをもうけた小さな子どもの遊び場があります。
敷石広場
管理棟の前にある広場で、公園管理と遺跡展示のターミナルとしての役割を果たしています。
管理棟前広場の敷石は地下の古代住居跡を色分けして表示し、一角に縄文時代の復元住居をもうけています。
管理棟内には、みどりの相談所と遺跡展示室があります。
ここには非常勤の職員がいて、緑化相談や運動場の貸し出しなどの仕事にあたっています。
遺跡と野鳥の森
敷石広場の奥が、遺跡と野鳥の森。古くからあった樹林の保存と野鳥を呼ぶゾーンです。
樹林の中にめぐる園路が、深い緑の世界へといざないます。
樹林の中央部は「バードバス」、野鳥の保護区です。
ここには、コゲラ、モズなどもやってきます。
水辺の広場
樹林に囲まれて静かにたたずむ池を中心にした広場。
岸辺には、ハナショウブ、ガマ、クワイ、オモダカなどの水生植物が植えられ水辺の植物の様子が観察できます。
池の周りは石が敷かれ、あずまやが建ち、広場の中ほどには「住居跡レプリカ」があります。
こどもの広場
水辺の広場を通りすぎると、台地の斜面に渓流がもうけられています。
流れは自然石の間をくだって下段のじゃぶじゃぶ池にそそぎます。
その池の南に広がるのが「こどもの広場」。
土の広場には、丸太の吊り橋でむすんだ大きな木製遊具が2つあります。
また、ここには夏休みの間グループでデーキャンプが楽しめる野外卓や水の施設があります。
こども運動場
公園北側の神田川に面した低地にあります。広さは約4,500平方メートル。
主に少年のための運動場です。利用に際しては事前の申し込みが必要です。
この公園は国有地の無償貸付を受けています。",,,,,,,,,,,,,,,,,,,,,,,
杉並区,green,松庵公園,167-0054,"〒167-0054
杉並区松庵1丁目14番22号",,https://www.city.suginami.tokyo.jp/shisetsu/kouen/03/shouan/1007229.html,,139.592131900012,35.6967917799623,公園 ,1360.36,https://www.city.suginami.tokyo.jp/_res/projects/default_project/_page_/001/007/229/053_syouankouen.jpg,昭和49年3月20日,トイレ有り、球戯場有り,"住宅地の一角に、ひと際濃い緑がみえます。
松庵公園の道路際に植えられた、マテバシイ、キョウチクトウ、ネズミモチなどの樹木です。
入口の近くに砂場があり、そこには、屋根にフジづるがはう日除けももうけられています。
入って右手は球戯場、左手が遊びの広場です。
広場はケヤキやモチノキなどの背の高い木で囲まれ、中ほどにも1本のケヤキが立っていますが、日差しはよく通ります。
この公園の特徴は、芝生の小山があることです。
敷地の左奥に芝生でおおわれた土の山が築かれ、2本のコンクリート製すべり台や擬木の登り木があり、子供達に親しまれています。
ほかに4連ブランコや鉄棒もあります。
この公園は国有地の無償貸付を受けています。",,,,,,,,,,,,,,,,,,,,,,,
杉並区,green,まつぼっくり緑地,167-0054,"〒167-0054
杉並区松庵1丁目16番1号",,https://www.city.suginami.tokyo.jp/shisetsu/kouen/03/shouan/1007230.html,,139.5932029,35.6956930799792,公園 ,251.30,https://www.city.suginami.tokyo.jp/_res/projects/default_project/_page_/001/007/230/139_matubokkuriryokuti.jpg,昭和60年10月1日,トイレなし,,,,,,,,,,,,,,,,,,,,,,,,
杉並区,green,松庵東公園,167-0054,"〒167-0054
杉並区松庵2丁目10番9号",,https://www.city.suginami.tokyo.jp/shisetsu/kouen/03/shouan/1007231.html,,139.595835799991,35.6970707499687,公園 ,760.61,https://www.city.suginami.tokyo.jp/_res/projects/default_project/_page_/001/007/231/084_syouanhigasikouen.jpg,昭和52年4月1日,トイレ有り,"スズカケが、日当たりのよい公園にさわやかな木陰をつくっています。
道路より一段高い四角い敷地には、遊具やテーブルが備えられています。
北側の入口のすぐ左が砂場。そこにはよしず張りの日除けと円いスツールがあります。
その先にあるのは、波形ジャングル。
一番奥にあるのは枝型ブランコで、そのわきにはすべり台と鉄棒があります。
また、広場の中央には木製のテーブルがおかれています。お弁当を食べたり休憩するのに便利です。",,,,,,,,,,,,,,,,,,,,,,,
杉並区,green,青葉公園,167-0054,"〒167-0054
杉並区松庵2丁目20番3号",,https://www.city.suginami.tokyo.jp/shisetsu/kouen/03/shouan/1007232.html,,139.593374500014,35.6985643898436,公園 ,581.46,https://www.city.suginami.tokyo.jp/_res/projects/default_project/_page_/001/007/232/141_aobakouen.jpg,昭和60年12月19日,トイレ有り,"舗装された入口をはいると、そこは土の広場。
右手、ケヤキの若木のそばに木製遊具があります。
それはすべり台などが組み合わされた複合遊具。
一番奥は、周りを円くカラーアスファルトで舗装された、やはり円形の砂場です。
上には幾何学模様のパーゴラが建っていますが、その屋根は一面にクズの葉でおおわれています。
公園の周囲は、カイヅカイブキ、サルスベリ、ツツジなどの植込み。
明るい公園に木々の緑が映えます。",,,,,,,,,,,,,,,,,,,,,,,
杉並区,green,松庵三丁目公園,167-0054,"〒167-0054
杉並区松庵3丁目5番21号",,https://www.city.suginami.tokyo.jp/shisetsu/kouen/03/shouan/1007233.html,,139.597056799993,35.6990739998281,公園 ,228.88,https://www.city.suginami.tokyo.jp/_res/projects/default_project/_page_/001/007/233/123_syouansantyoumekouen.jpg,昭和57年3月20日,トイレ有り,,,,,,,,,,,,,,,,,,,,,,,,
杉並区,green,松庵わかくさ公園,167-0054,"〒167-0054
杉並区松庵3丁目24番8号",,https://www.city.suginami.tokyo.jp/shisetsu/kouen/03/shouan/1007234.html,,139.596208600021,35.7031818396478,公園 ,621.71,https://www.city.suginami.tokyo.jp/_res/projects/default_project/_page_/001/007/234/228_syouanwakakusakouen.jpg,平成12年3月27日,トイレ有り、すくすくひろば有り,この公園は国有地の無償貸付を受けています。,,,,,,,,,,,,,,,,,,,,,,,
杉並区,green,西高井戸児童遊園,167-0054,"〒167-0054
杉並区松庵3丁目28番1号",,https://www.city.suginami.tokyo.jp/shisetsu/kouen/03/shouan/1007235.html,,139.596965100004,35.7011162797849,公園 ,417.76,https://www.city.suginami.tokyo.jp/_res/projects/default_project/_page_/001/007/235/333_nisitakaidojidouyuuen.jpg,昭和41年10月22日,トイレ有り,,,,,,,,,,,,,,,,,,,,,,,,
杉並区,green,善福寺一丁目公園,167-0041,"〒167-0041
杉並区善福寺1丁目18番7号",,https://www.city.suginami.tokyo.jp/shisetsu/kouen/03/zenpukuji/1007236.html,,139.597769900163,35.7128844496225,公園 ,661.16,https://www.city.suginami.tokyo.jp/_res/projects/default_project/_page_/001/007/236/093_zenpukujiittyoumekouen.jpg,昭和53年9月1日,トイレ有り,"善福寺川の北、ゆるやかな台地に位置します。
そのため敷地も起伏があり、園内の広場は2段になっています。
入口に近い広場には、カラー舗装のテラス、砂場があります。
植込みの間にある階段を登ったところが上の広場。
そこには大きなケヤキが立っています。
そのすぐ右手には、下の砂場に降りるすべり台とコンクリートのスロープがあります。
右奥は3段の築山です。その斜面には、木製遊具がそなえられています。
広場の左奥にはブランコがあります。
周りの植込みには、オトメツバキやジンチョウゲなどが植えられています。",,,,,,,,,,,,,,,,,,,,,,,
杉並区,green,さくら児童遊園,167-0041,"〒167-0041
杉並区善福寺2丁目12番12号",,https://www.city.suginami.tokyo.jp/shisetsu/kouen/03/zenpukuji/1007237.html,,139.594353100047,35.7110035095901,公園 ,117.31,https://www.city.suginami.tokyo.jp/_res/projects/default_project/_page_/001/007/237/312_sakurajidouyuuen.jpg,昭和29年11月12日,トイレなし,,,,,,,,,,,,,,,,,,,,,,,,
杉並区,green,善福寺さくら公園,167-0041,"〒167-0041
杉並区善福寺2丁目18番12号",,https://www.city.suginami.tokyo.jp/shisetsu/kouen/03/zenpukuji/1007238.html,,139.594042400048,35.7122928096009,公園 ,348.81,https://www.city.suginami.tokyo.jp/_res/projects/default_project/_page_/001/007/238/prk_zenpukujisakura.jpg,平成15年7月1日,トイレなし,足をモチーフにした公園で、建築家の六角鬼丈氏による設計の公園。「はだしのオアシス」にもなっており、扉を開けてこじんまりした公園に入ると、大きな足形が置いてある。ふれあい小径は、はだしになってさまざまな刺激を感じて歩く「みち」となっている。,,,,,,,,,,,,,,,,,,,,,,,
杉並区,green,善福寺二丁目緑地,167-0041,"〒167-0041
杉並区善福寺2丁目24番13号",,https://www.city.suginami.tokyo.jp/shisetsu/kouen/03/zenpukuji/1007239.html,,139.587166600023,35.7122639596181,公園 ,123.00,https://www.city.suginami.tokyo.jp/_res/projects/default_project/_page_/001/007/239/503_zenpukujinityoumeryokuti.jpg,昭和51年7月1日,トイレなし,,,,,,,,,,,,,,,,,,,,,,,,
杉並区,green,善福寺中山公園,167-0041,"〒167-0041
杉並区善福寺3丁目33番12号",,https://www.city.suginami.tokyo.jp/shisetsu/kouen/03/zenpukuji/1007241.html,,139.586632799989,35.7157197997642,公園 ,389.21,https://www.city.suginami.tokyo.jp/_res/projects/default_project/_page_/001/007/241/079_zenpukujinakayamakouen.jpg,昭和52年4月1日,トイレなし,,,,,,,,,,,,,,,,,,,,,,,,
杉並区,green,善福寺美樹園公園,167-0041,"〒167-0041
杉並区善福寺4丁目3番29号",,https://www.city.suginami.tokyo.jp/shisetsu/kouen/03/zenpukuji/1007242.html,,139.592350500039,35.7180071398266,公園 ,500.02,https://www.city.suginami.tokyo.jp/_res/projects/default_project/_page_/001/007/242/155_zenpukujimikienkouen.jpg,昭和62年12月23日,トイレなし,"屋敷林の一部を買収してつくられた公園です。
それだけに設計や造園にも新しい手法が取り入れられ、見栄えのする公園になっています。
道路に面した部分は、きれいに舗装され、遊歩道になっています。
園内には、3つの主要施設があります。
1つ目は、舗装されたテラスで、曲線的に仕上げられています。テラスにつづく砂場も半月形です。
2つ目は、丸太造りの「プレイングデッキ」。それは上からみるとら旋状の五角形です。
3つ目は、扇形のパーゴラ。その下には、美しく塗装されたベンチがおかれています。",,,,,,,,,,,,,,,,,,,,,,,
杉並区,green,善福寺北緑地,167-0041,"〒167-0041
杉並区善福寺4丁目5番19号",,https://www.city.suginami.tokyo.jp/shisetsu/kouen/03/zenpukuji/1007243.html,,139.589336200001,35.7180320598098,公園 ,273.79,https://www.city.suginami.tokyo.jp/_res/projects/default_project/_page_/001/007/243/211_zenpukujikitaryokuti.jpg,平成7年7月31日,トイレなし,,,,,,,,,,,,,,,,,,,,,,,,
杉並区,green,善福寺西の山公園,167-0041,"〒167-0041
杉並区善福寺4丁目8番2号",,https://www.city.suginami.tokyo.jp/shisetsu/kouen/03/zenpukuji/1007244.html,,139.585882799976,35.7163021697693,公園 ,389.57,https://www.city.suginami.tokyo.jp/_res/projects/default_project/_page_/001/007/244/074_zenpukujinisinoyamakouen.jpg,昭和51年7月17日,トイレ有り,,,,,,,,,,,,,,,,,,,,,,,,
杉並区,green,山中公園,168-0071,"〒168-0071
杉並区高井戸西1丁目5番33号",,https://www.city.suginami.tokyo.jp/shisetsu/kouen/03/takaidonishi/1007245.html,,139.614535420686,35.6815808170165,公園 ,408.67,https://www.city.suginami.tokyo.jp/_res/projects/default_project/_page_/001/007/245/128_yamanakakouen.jpg,昭和58年3月29日,トイレ有り,,,,,,,,,,,,,,,,,,,,,,,,
杉並区,green,高井戸みどり公園,168-0071,"〒168-0071
杉並区高井戸西1丁目9番4号",,https://www.city.suginami.tokyo.jp/shisetsu/kouen/03/takaidonishi/1007246.html,,139.610401713853,35.6793435476481,公園 ,1233.87,https://www.city.suginami.tokyo.jp/_res/projects/default_project/_page_/001/007/246/140_takaidomidorikouen_2.jpg,昭和60年10月31日,トイレ有り,,,,,,,,,,,,,,,,,,,,,,,,
杉並区,green,昭栄公園,168-0072,"〒168-0072
杉並区高井戸西1丁目12番2号",,https://www.city.suginami.tokyo.jp/shisetsu/kouen/03/takaidonishi/1007247.html,,139.608349939355,35.680253749547,公園 ,4950.00,https://www.city.suginami.tokyo.jp/_res/projects/default_project/_page_/001/007/247/20191.jpg,昭和52年4月1日,トイレ有り、球戯場有り、流れ有り,"天を突くような数本の大ケヤキ。それがここのシンボルです。
この地には昔から農家の所有する林や畑が多く、大ケヤキは昔の林の名残りというわけです。
この公園は、隣接の浴風園から土地を買収してつくったものです。

この公園は中央高速道路沿いにあり、ケヤキの広場、遊具のある草地広場、そして球戯場の3つでなりたっています。
西側の区道に面した入口を入ると鉄平石張りの小道があり、テラスと土の敷地からなる広場に通じます。
そこがケヤキの広場。中央に公園で一番太いケヤキが立っています。
大人ふたりでも抱えきれないほどの幹周り、高さは20メートル以上です。
周りの木もみな背が高いので、頭上は木々の枝がつくるドーム状の空間になっていて、木漏れ日のさす広場には野鳥の声がひびきます。

草地の広場は、明るく開放的です。
芝生地を中心に園路や流れがあり、その外側は植込みです。
広場にはすべり台付きの複合遊具、ブランコ、砂場があります。
また流れの端にはあずまやが建ち、憩いのひと時をすごすこともできます。
なお現在、遊具のある草地広場の地下に災害用応急給水槽を設置をしています。",,,,,,,,,,,,,,,,,,,,,,,
杉並区,green,むつみ橋緑地,168-0071,"〒168-0071
杉並区高井戸西1丁目23番29号",,https://www.city.suginami.tokyo.jp/shisetsu/kouen/03/takaidonishi/1007248.html,,139.609927099951,35.6824735297912,公園 ,1597.51,https://www.city.suginami.tokyo.jp/_res/projects/default_project/_page_/001/007/248/1815_mutumibasiryokuti.jpg,平成27年2月13日,トイレなし,,,,,,,,,,,,,,,,,,,,,,,,
杉並区,green,やなぎ橋公園,168-0071,"〒168-0071
杉並区高井戸西1丁目31番5号",,https://www.city.suginami.tokyo.jp/shisetsu/kouen/03/takaidonishi/1007249.html,車いすトイレ　オストメイトトイレ　ベビーベッド・ベビーチェアトイレ　点字ブロック　,139.613550899979,35.6824990298194,公園 ,826.74,https://www.city.suginami.tokyo.jp/_res/projects/default_project/_page_/001/007/249/257yamagibashikouen.jpg,平成22年10月29日,バリアフリートイレ有り,,,,,,,,,,,,,,,,,,,,,,,,
杉並区,green,あかね橋公園,168-0071,"〒168-0071
杉並区高井戸西1丁目31番21号",,https://www.city.suginami.tokyo.jp/shisetsu/kouen/03/takaidonishi/1007250.html,,139.609982299952,35.6828085097968,公園 ,2198.97,https://www.city.suginami.tokyo.jp/_res/projects/default_project/_page_/001/007/250/258akanebashikouen.jpg,平成23年3月30日,トイレなし,"川に沿って桜が植えられています。
背伸ばしベンチやぶらさがり棒などの健康遊具があり、散歩の途中に軽いストレッチや体を鍛えることに利用されています。",,,,,,,,,,,,,,,,,,,,,,,
杉並区,green,高井戸わんぱく公園,168-0071,"〒168-0071
杉並区高井戸西2丁目5番10号",,https://www.city.suginami.tokyo.jp/shisetsu/kouen/03/takaidonishi/1007251.html,,139.611881297966,35.6841683064293,公園 ,700.36,https://www.city.suginami.tokyo.jp/_res/projects/default_project/_page_/001/007/251/125_takaidowanpakukouen.jpg,昭和57年10月12日,トイレ有り、流れ有り,"公園は区道に沿って長くのび、道沿いにはハナミズキ、マテバシイなどの植込みがもうけられています。
その奥は開放的な広場。ケヤキなどの高木が囲む敷地に複合遊具と砂場があります。
この公園の中心的な施設は、広場につくられた水場と流れ。
夏は、水遊びの子供達でいつもにぎわっています。",,,,,,,,,,,,,,,,,,,,,,,
杉並区,green,富士見丘東緑地,168-0071,"〒168-0071
杉並区高井戸西2丁目7番36号",,https://www.city.suginami.tokyo.jp/shisetsu/kouen/03/takaidonishi/1007252.html,,139.610340725056,35.684784527529,公園 ,223.06,https://www.city.suginami.tokyo.jp/_res/projects/default_project/_page_/001/007/252/184_fujimigaokahigasiryokuti.jpg,平成3年4月12日,トイレなし,,,,,,,,,,,,,,,,,,,,,,,,
杉並区,green,桐の木公園,168-0071,"〒168-0071
杉並区高井戸西2丁目7番36号",,https://www.city.suginami.tokyo.jp/shisetsu/kouen/03/takaidonishi/1007253.html,,139.610161097654,35.6848179954285,公園 ,424.35,https://www.city.suginami.tokyo.jp/_res/projects/default_project/_page_/001/007/253/195_kirinokikouen.jpg,平成5年3月4日,トイレ有り,,,,,,,,,,,,,,,,,,,,,,,,
杉並区,green,高井戸丸太緑地,168-0071,"〒168-0071
杉並区高井戸西2丁目17番2号",,https://www.city.suginami.tokyo.jp/shisetsu/kouen/03/takaidonishi/1007254.html,,139.614181505484,35.6856243776605,公園 ,208.59,https://www.city.suginami.tokyo.jp/_res/projects/default_project/_page_/001/007/254/255takaidomarutaryokuti.jpg,平成22年5月27日,トイレなし,,,,,,,,,,,,,,,,,,,,,,,,
杉並区,green,高井戸西公園,168-0071,"〒168-0071
杉並区高井戸西3丁目6番18号",,https://www.city.suginami.tokyo.jp/shisetsu/kouen/03/takaidonishi/1007255.html,,139.613233130372,35.6895355721534,公園 ,2999.75,https://www.city.suginami.tokyo.jp/_res/projects/default_project/_page_/001/007/255/057_takaidonisikouen.jpg,昭和49年3月31日,トイレ有り、球戯場有り,"アケボノスギとスギの木立が、公園の敷地の半分以上を占めています。
この2種の樹木は、ともに区の木に指定されています。
入口を入ると、右に遊具コーナー、左に球戯場があります。
遊具コーナーには、丸太小屋を中心に砂場、すべり台、枝型ブランコがそなえられています。
また、枯木型の登り木もあり、子供達の人気を集めるとともに景観にアクセントをつけるのに役立っています。
その奥がアケボノスギとスギの木立。
しっとりした自然の土の敷地に小道がめぐり、さわやかな風に吹かれながら散策を楽しむことができます。",,,,,,,,,,,,,,,,,,,,,,,
杉並区,green,うめの木緑地,168-0072,"〒168-0072
杉並区高井戸東1丁目1番12号",,https://www.city.suginami.tokyo.jp/shisetsu/kouen/03/takaidohigashi/1007256.html,,139.619044300019,35.6770601898369,公園 ,232.99,https://www.city.suginami.tokyo.jp/_res/projects/default_project/_page_/001/007/256/186_umenokiryokuti.jpg,平成4年1月28日,トイレなし,,,,,,,,,,,,,,,,,,,,,,,,
杉並区,green,堂の上公園,168-0072,"〒168-0072
杉並区高井戸東1丁目1番16号",,https://www.city.suginami.tokyo.jp/shisetsu/kouen/03/takaidohigashi/1007257.html,,139.619930100027,35.6774690798443,公園 ,274.92,https://www.city.suginami.tokyo.jp/_res/projects/default_project/_page_/001/007/257/104_dounouekouen.jpg,昭和55年2月1日,トイレなし,,,,,,,,,,,,,,,,,,,,,,,,
杉並区,green,乙女橋児童遊園,168-0072,"〒168-0072
杉並区高井戸東1丁目1番38号",,https://www.city.suginami.tokyo.jp/shisetsu/kouen/03/takaidohigashi/1007258.html,,139.621179600038,35.6778437799556,公園 ,631.13,https://www.city.suginami.tokyo.jp/_res/projects/default_project/_page_/001/007/258/349_otomebasijidouyuuen.jpg,昭和47年4月1日,トイレ有り,,,,,,,,,,,,,,,,,,,,,,,,
杉並区,green,三泉淵緑地,168-0072,"〒168-0072
杉並区高井戸東1丁目15番12号",,https://www.city.suginami.tokyo.jp/shisetsu/kouen/03/takaidohigashi/1007259.html,,139.620882300038,35.6796691999593,公園 ,1663.47,https://www.city.suginami.tokyo.jp/_res/projects/default_project/_page_/001/007/259/058_sansenbutiryokutir3.jpg,昭和49年4月1日,トイレなし,"神田川の南に展開する丘陵の北東斜面につくられた緑地です。
斜面にはクヌギ、エノキ、アカマツなどの木が枝をのばしています。
この緑地には野草園があり、植物の管理は現在、ボランティア活動の協力をいただきながら行っています。
季節ごとの草花を紹介します。
春：シュンラン、カタクリ、ヒトリシズカ、ムサシアブミ　など
夏：ノハナショウブ、ヤブカンゾウ、ナツズイセン、ミソハギ、キツネノカミソリ など
秋：ヒガンバナ、キキョウ、オケラ、ワレモコウ など
冬：ヒメカンアオイ など",,,,,,,,,,,,,,,,,,,,,,,
杉並区,green,三泉淵第二公園,168-0072,"〒168-0072
杉並区高井戸東1丁目15番8号",,https://www.city.suginami.tokyo.jp/shisetsu/kouen/03/takaidohigashi/1007260.html,,139.620433300034,35.6800619499572,公園 ,390.00,https://www.city.suginami.tokyo.jp/_res/projects/default_project/_page_/001/007/260/059_sansenbutidainikouen.jpg,昭和49年4月1日,トイレ有り,,,,,,,,,,,,,,,,,,,,,,,,
杉並区,green,三井の森公園,168-0072,"〒168-0072
杉並区高井戸東1丁目28番2号",,https://www.city.suginami.tokyo.jp/shisetsu/kouen/03/takaidohigashi/1007261.html,車いすトイレ　ベビーベッド・ベビーチェアトイレ　,139.622708200045,35.6800860899573,公園 ,17350.45,https://www.city.suginami.tokyo.jp/_res/projects/default_project/_page_/001/007/261/254mitsuinomorikouen.jpg,平成22年4月1日,トイレ有り、バリアフリートイレ有り,"「三井の森」として地域に親しまれながら、ほとんど人の手が入らず残っためずらしい森です。
樹木等には手を加えず、都会にいることを忘れ、自然の中を歩いているような園路が続きます。
園内では、今では都市部ではあまり見られなくなった野生のランや草木類、トンボ類、甲虫類を見ることができます。",,,,,,,,,,,,,,,,,,,,,,,
杉並区,green,乙女橋緑地,168-0072,"〒168-0072
杉並区高井戸東1丁目29番16号",,https://www.city.suginami.tokyo.jp/shisetsu/kouen/03/takaidohigashi/1007262.html,,139.621742400045,35.6796625299681,公園 ,1580.96,https://www.city.suginami.tokyo.jp/_res/projects/default_project/_page_/001/007/262/179_otomebasiryokuti.jpg,平成3年3月11日,トイレなし、流れ有り,,,,,,,,,,,,,,,,,,,,,,,,
杉並区,green,新栄緑地,168-0072,"〒168-0072
杉並区高井戸東2丁目1番14号",,https://www.city.suginami.tokyo.jp/shisetsu/kouen/03/takaidohigashi/1007263.html,,139.617400100012,35.6773526398162,公園 ,197.13,https://www.city.suginami.tokyo.jp/_res/projects/default_project/_page_/001/007/263/153_sinneiryokuti.jpg,昭和62年6月2日,トイレなし,,,,,,,,,,,,,,,,,,,,,,,,
杉並区,green,ひかり公園,168-0072,"〒168-0072
杉並区高井戸東2丁目2番8号",,https://www.city.suginami.tokyo.jp/shisetsu/kouen/03/takaidohigashi/1007264.html,,139.616547100007,35.6770489998082,公園 ,571.12,https://www.city.suginami.tokyo.jp/_res/projects/default_project/_page_/001/007/264/144_hikarikouen.jpg,昭和61年3月22日,トイレ有り,,,,,,,,,,,,,,,,,,,,,,,,
杉並区,green,つくだ公園,168-0072,"〒168-0072
杉並区高井戸東2丁目13番16号",,https://www.city.suginami.tokyo.jp/shisetsu/kouen/03/takaidohigashi/1007265.html,,139.61497569999,35.6805935698095,公園 ,1135.31,https://www.city.suginami.tokyo.jp/_res/projects/default_project/_page_/001/007/265/050_tukudakouen.jpg,昭和48年11月30日,トイレ有り,"公園の概要民有地の買収によりつくられた公園で、環状8号線に面しています。
周りにはサクラなどの樹木も植えられていますが、日はよく当たります。
遊具は、砂場、ブランコ、すべり台、鉄棒、木製の汽車型遊具があります。

この公園は国有地の無償貸付を受けています。",,,,,,,,,,,,,,,,,,,,,,,
杉並区,green,高井戸正用公園,168-0072,"〒168-0072
杉並区高井戸東3丁目14番23号",,https://www.city.suginami.tokyo.jp/shisetsu/kouen/03/takaidohigashi/1007266.html,,139.62441010005,35.6844921099545,公園 ,1029.18,https://www.city.suginami.tokyo.jp/_res/projects/default_project/_page_/001/007/266/112_takaidosyouyoukouen.jpg,昭和56年2月25日,トイレ有り、球戯場有り,"公園は、したたるような緑でいっぱいです。
周りはサクラ、ヤマモミジ、アケボノスギなどの木々で取り囲まれ、園内にもケヤキ、アケボノスギなどが植えられています。
しかし、日差しがよく通り、明るい雰囲気にみたされています。
中心的な遊具は、コンビネーション遊具とコンクリート製のスライダーと呼ぶすべり台。それらは広場の中央部にあります。
アベリアの植込みで仕切られたコーナーは、砂場と枝型ブランコのある、こじんまりとした空間で心がなごみます。
南側の入口付近には、レンガ敷きのテラスがあり、フジ棚の日除けの下で憩いのひと時をすごすことができます。",,,,,,,,,,,,,,,,,,,,,,,
杉並区,green,高井戸東三丁目児童遊園,168-0072,"〒168-0072
杉並区高井戸東3丁目7番8号",,https://www.city.suginami.tokyo.jp/shisetsu/kouen/03/takaidohigashi/1007267.html,,139.619133300021,35.6833039999681,公園 ,802.37,https://www.city.suginami.tokyo.jp/_res/projects/default_project/_page_/001/007/267/360_takaidohigasisantyoumejidouyuuen.jpg,昭和57年12月20日,トイレ有り,,,,,,,,,,,,,,,,,,,,,,,,
杉並区,green,高井戸藤が丘公園,168-0072,"〒168-0072
杉並区高井戸東3丁目9番34号",,https://www.city.suginami.tokyo.jp/shisetsu/kouen/03/takaidohigashi/1007268.html,,139.617388300006,35.685347919974,公園 ,1313.16,https://www.city.suginami.tokyo.jp/_res/projects/default_project/_page_/001/007/268/224_takaidofujigaokakouen.jpg,平成10年9月19日,トイレなし,,,,,,,,,,,,,,,,,,,,,,,,
杉並区,green,高井戸いずみ公園,168-0072,"〒168-0072
杉並区高井戸東3丁目31番7号",,https://www.city.suginami.tokyo.jp/shisetsu/kouen/03/takaidohigashi/1007269.html,,139.618349000005,35.6873490699819,公園 ,180.00,https://www.city.suginami.tokyo.jp/_res/projects/default_project/_page_/001/007/269/132_takaidoizumikouen.jpg,昭和58年12月15日,トイレなし,,,,,,,,,,,,,,,,,,,,,,,,
杉並区,green,柳窪西緑地,168-0072,"〒168-0072
杉並区高井戸東4丁目11番42号",,https://www.city.suginami.tokyo.jp/shisetsu/kouen/03/takaidohigashi/1007270.html,,139.61768329998,35.6909702798424,公園 ,103.00,https://www.city.suginami.tokyo.jp/_res/projects/default_project/_page_/001/007/270/215_yanagikubonisiryokuti.jpg,平成9年3月29日,トイレなし,,,,,,,,,,,,,,,,,,,,,,,,
杉並区,green,柳窪公園,168-0072,"〒168-0072
杉並区高井戸東4丁目12番26号",,https://www.city.suginami.tokyo.jp/shisetsu/kouen/03/takaidohigashi/1007271.html,,139.618743999978,35.6915263598352,公園 ,1317.17,https://www.city.suginami.tokyo.jp/_res/projects/default_project/_page_/001/007/271/114_yanagikubokouen.jpg,昭和56年3月15日,トイレ有り,"起伏のある敷地につくられた公園で、園内も上下2段の作りになっています。
民有地の買収によりつくられた公園です。
大きなケヤキをはじめアセビ、クチナシなど樹木が多く、緑が豊かです。
区道に面した入口には階段があり、並行してスロープももうけられています。
入ったところは、縁を石で囲まれた土の広場。かたわらに砂場があります。
この広場の周りは一段高くなっていて、植込みや土の小山があります。
正面の階段を登ると、右手に樹木に囲まれた赤土の小山があります。
そして左手は緑がさわやかな竹林。
そこには丸太の椅子がおいてあり、ゆっくりとくつろぐことができます。

この公園は国有地の無償貸付を受けています。",,,,,,,,,,,,,,,,,,,,,,,
杉並区,green,柳窪南公園,168-0072,"〒168-0072
杉並区高井戸東4丁目15番1号",,https://www.city.suginami.tokyo.jp/shisetsu/kouen/03/takaidohigashi/1007272.html,,139.619513399998,35.6890637099646,公園 ,330.90,https://www.city.suginami.tokyo.jp/_res/projects/default_project/_page_/001/007/272/191_yanagikubominamikouen.jpg,平成4年3月31日,トイレ有り,,,,,,,,,,,,,,,,,,,,,,,,
杉並区,green,高井戸東公園,168-0072,"〒168-0072
杉並区高井戸東4丁目19番10号",,https://www.city.suginami.tokyo.jp/shisetsu/kouen/03/takaidohigashi/1007273.html,,139.621400200007,35.6889775199684,公園 ,882.41,https://www.city.suginami.tokyo.jp/_res/projects/default_project/_page_/001/007/273/041_takaidohigasikouen.jpg,昭和47年12月15日,トイレ有り,"五日市街道を少し入った住宅地にあり、鍵形の敷地にシイノキ・マテバシイ・などが木陰をつくります。
入口を入ると土の広場があり、奥にブランコが、左手に鉄棒があります。
この公園は国有地の無償貸付を受けています。",,,,,,,,,,,,,,,,,,,,,,,
杉並区,green,成田かっぱ公園,166-0016,"〒166-0016
杉並区成田西1丁目2番30号",,https://www.city.suginami.tokyo.jp/shisetsu/kouen/03/naritanishi/1007274.html,,139.637454600042,35.6844488596461,公園 ,2355.76,https://www.city.suginami.tokyo.jp/_res/projects/default_project/_page_/001/007/274/150_naritakappakouen.jpg,昭和62年3月18日,トイレ有り、流れ有り,"クロマツ、アカマツの太い幹にしっかりと枝をはった姿が印象的。
この公園は民有の松林を買収してっくられたものです。
園名は、昔近くの善福寺川でかっぱを見たという話にちなんでいます。

正面入口はモニュメントの立つ石張舗装のテラスで、奥に壁から滝が落ちる壁泉と池があります。
壁泉の裏の植込みから石張りの流れがあり、夏には子供達がかっぱのように元気に水遊びをしています。
流れのそばには石積みがあります。

公園のほぼ中央に立つのが1本のクロマツの古木。
かたわらに、すべり台つきの木製遊具があり、その周りにはエンジュ、スギ、エノキなどが立ち、地面にはクローバが植られています。
一番奥は、パーゴラとベンチをそなえたテラスがあり、休憩するのに適しています。",,,,,,,,,,,,,,,,,,,,,,,
杉並区,green,はら公園,166-0016,"〒166-0016
杉並区成田西1丁目16番4号",,https://www.city.suginami.tokyo.jp/shisetsu/kouen/03/naritanishi/1007275.html,,139.632682700191,35.6857173396406,公園 ,1150.03,https://www.city.suginami.tokyo.jp/_res/projects/default_project/_page_/001/007/275/173_harakouen.jpg,平成2年2月14日,トイレ有り,,,,,,,,,,,,,,,,,,,,,,,,
杉並区,green,尾崎公園,166-0016,"〒166-0016
杉並区成田西1丁目21番21号",,https://www.city.suginami.tokyo.jp/shisetsu/kouen/03/naritanishi/1007276.html,,139.631277200153,35.6882212597627,公園 ,407.50,https://www.city.suginami.tokyo.jp/_res/projects/default_project/_page_/001/007/276/163_ozakikouen.jpg,昭和63年5月26日,トイレなし,,,,,,,,,,,,,,,,,,,,,,,,
杉並区,green,杉並児童交通公園,166-0016,"〒166-0016
杉並区成田西1丁目22番13号",03-3315-4564,https://www.city.suginami.tokyo.jp/shisetsu/kouen/03/naritanishi/1007277.html,ベビーベッド・ベビーチェアトイレ　AED　,139.631625800047,35.6886743197567,公園 ,9187.10,https://www.city.suginami.tokyo.jp/_res/projects/default_project/_page_/001/007/277/035_suginamijidoukoutuukouen.jpg,昭和47年4月1日,トイレ有り,"善福寺川に面し、高台になったところにあり、園内を縦横にめぐるアスファルトの道を、公園に備え付けの自転車と足踏式ゴーカートで、サイクリングを楽しみながら交通ルールを学ぶことができるようになっています。
正面を入って目につくのは、前方に一直線に伸びたメインストリートで左右にケヤキの並木が立ち、中央にはサツキツツジの分離帯があります。メインストリートの突き当たりは、青いとんがり帽子の屋根をもった赤レンガ造りの「ミニ東京駅」があります。
樹木と駅舎の景観はちょっと洒落ています。

アスファルト園路のところどころに白いペンキで横断歩道が描かれ、信号機も立っています。
その園路を子供達は楽しげに、そして少し緊張した面持ちで自転車や足踏式ゴーカートを走らせています。公園というよりは遊園地の雰囲気です。
自転車と足踏み式のゴーカートがあり貸出しは無料で、自転車のサイズは色々あります。
なお、自転車の利用は中学生以下の子供とその付添い人に限られます。
道路で区切られ「島」になっている幾つかの広場には、パーゴラ・砂場・ブランコなどもあり、幼児も楽しめるようになっています。
また、園内にはD-51型の蒸気機関車も設置されており、交通公園の雰囲気をもりあげています。

「ミニ東京駅」の左側には、もうひとつの出入り口があり、「善福寺川緑地子どもサイクリング道」に通じています。このサイクリング道の長さは1,300メートルですから、公園内の1,100メートルと合わせて全長2,400メートルになります。
公園内のコースで自転車の運転や交通ルールを学んだ後は、広々としたコースに出て存分にサイクリングが楽しめるというわけです。
また、管理事務所の2階には交通教室がもうけられ、小中学校及び幼稚園・保育園・社会教育団体などに貸出しています。",,午前8時30分から午後5時交通安全教室およびコースの使用時間並びに交通遊具の貸出時間は、午前9時から午後4時30分です。また、原則毎月第二・第四木曜日の午前中は交通遊具の点検のため、点検を終了したものから順次貸出します。,,,"南北バスすぎ丸けやき路線（阿佐ケ谷・浜田山間）「児童交通公園入口」下車徒歩3分
京王井の頭線「浜田山駅」徒歩12分",年末年始（12月29日から1月3日）,,,,,,,,,,,,,,,,,
杉並区,green,なりむね第二児童遊園,166-0016,"〒166-0016
杉並区成田西1丁目22番16号",,https://www.city.suginami.tokyo.jp/shisetsu/kouen/03/naritanishi/1007278.html,,139.631044400037,35.6891391597616,公園 ,330.00,https://www.city.suginami.tokyo.jp/_res/projects/default_project/_page_/001/007/278/prk_narimune_2jidoyuen.jpg,昭和42年11月21日,トイレ有り,,,,,,,,,,,,,,,,,,,,,,,,
杉並区,green,成田西公園,166-0016,"〒166-0016
杉並区成田西2丁目12番4号",,https://www.city.suginami.tokyo.jp/shisetsu/kouen/03/naritanishi/1007279.html,,139.624179500012,35.6894610998357,公園 ,2052.70,https://www.city.suginami.tokyo.jp/_res/projects/default_project/_page_/001/007/279/194_naritanisikouen.jpg,平成4年12月2日,トイレ有り、流れ有り,,,,,,,,,,,,,,,,,,,,,,,,
杉並区,green,大塚児童遊園,166-0016,"〒166-0016
杉並区成田西2丁目12番24号",,https://www.city.suginami.tokyo.jp/shisetsu/kouen/03/naritanishi/1007280.html,,139.623130099998,35.6904015998344,公園 ,188.11,https://www.city.suginami.tokyo.jp/_res/projects/default_project/_page_/001/007/280/357_ootukajidouyuuen.jpg,昭和53年6月20日,トイレなし,,,,,,,,,,,,,,,,,,,,,,,,
杉並区,green,日性寺児童遊園,166-0016,"〒166-0016
杉並区成田西2丁目16番15号",,https://www.city.suginami.tokyo.jp/shisetsu/kouen/03/naritanishi/1007281.html,,139.626026900019,35.6892832698172,公園 ,198.56,https://www.city.suginami.tokyo.jp/_res/projects/default_project/_page_/001/007/281/356_nissyoujijidouyuuen.jpg,昭和53年4月1日,トイレなし,,,,,,,,,,,,,,,,,,,,,,,,
杉並区,green,成田西いこい緑地,166-0016,"〒166-0016
杉並区成田西3丁目16番20号",,https://www.city.suginami.tokyo.jp/shisetsu/kouen/03/naritanishi/1007282.html,,139.628248600001,35.6912249097776,公園 ,1513.02,https://www.city.suginami.tokyo.jp/_res/projects/default_project/_page_/001/007/282/248naritanishiikoiryokuti.jpg,平成21年6月1日,トイレなし,"都立善福寺川緑地に隣接し、一体的な樹林を形成しています。
ヒノキ、ケヤキ、ムクノキなどみどり豊かな高木があります。",,,,,,,,,,,,,,,,,,,,,,,
杉並区,green,成田西切通し緑地,166-0016,"〒166-0016
杉並区成田西3丁目17番2号",,https://www.city.suginami.tokyo.jp/shisetsu/kouen/03/naritanishi/1007283.html,,139.627445800003,35.6908851597877,公園 ,928.10,https://www.city.suginami.tokyo.jp/_res/projects/default_project/_page_/001/007/283/249naritanishikiritoshiryokuti.jpg,平成21年6月1日,トイレなし,"都立善福寺川緑地に隣接し、一体的な樹林を形成しています。
ケヤキ、ムクノキ、アカマツを主体とした樹林地です。",,,,,,,,,,,,,,,,,,,,,,,
杉並区,green,成田西四丁目緑地,166-0016,"〒166-0016
杉並区成田西4丁目5番2号",,https://www.city.suginami.tokyo.jp/shisetsu/kouen/03/naritanishi/1007284.html,,139.627327899972,35.6932795297681,公園 ,146.67,https://www.city.suginami.tokyo.jp/_res/projects/default_project/_page_/001/007/284/504_naritanisiyontyoumeryokuti.jpg,昭和51年7月1日,トイレなし,,,,,,,,,,,,,,,,,,,,,,,,
杉並区,green,東二公園,166-0015,"〒166-0015
杉並区成田東1丁目39番1号",,https://www.city.suginami.tokyo.jp/shisetsu/kouen/03/naritahigashi/1007285.html,,139.640224900019,35.6929686498004,公園 ,1031.88,https://www.city.suginami.tokyo.jp/_res/projects/default_project/_page_/001/007/285/065_tounikouen.jpg,昭和50年4月1日,トイレ有り,"商店と住宅が混在する地域にあります。公園は柄の長い鍵形をしています。
商店街の路地に面したところは、カラータイルでこしらえたテラス、花壇。
ここには、ら旋状のすべり台、砂場、ブランコなどの遊具がおかれています。
ゆるやかにうねる園路の先は、ケヤキ、スズカケ、トウカエデなどがこんもりと繁る木立ち。
その緑のトンネルをぬけると、ぱっと開ける明るい広場。
周りのメタセコイアやケヤキが風に枝をゆらしています。
右手の鍵形になっているところは、ツツジの植込みで仕切られた小広場と園路がつくりだす明るい空間です。
そこには木製のトレーニングベンチや跳躍柱などがそなえられています。
初夏にはツツジが燃えたつように花を咲かせます。",,,,,,,,,,,,,,,,,,,,,,,
杉並区,green,成三公園,166-0015,"〒166-0015
杉並区成田東2丁目19番8号",,https://www.city.suginami.tokyo.jp/shisetsu/kouen/03/naritahigashi/1007286.html,,139.635394800035,35.6898214096372,公園 ,404.91,https://www.city.suginami.tokyo.jp/_res/projects/default_project/_page_/001/007/286/199_narisankouen.jpg,平成5年3月31日,トイレ有り,,,,,,,,,,,,,,,,,,,,,,,,
杉並区,green,東二児童遊園,166-0015,"〒166-0015
杉並区成田東3丁目7番17号",,https://www.city.suginami.tokyo.jp/shisetsu/kouen/03/naritahigashi/1007287.html,,139.637562600007,35.6925480897652,公園 ,203.92,https://www.city.suginami.tokyo.jp/_res/projects/default_project/_page_/001/007/287/355_tounijidouyuuen.jpg,昭和53年4月1日,トイレ有り,,,,,,,,,,,,,,,,,,,,,,,,
杉並区,green,白幡児童遊園,166-0015,"〒166-0015
杉並区成田東3丁目17番29号",,https://www.city.suginami.tokyo.jp/shisetsu/kouen/03/naritahigashi/1007288.html,,139.634373399996,35.6925151996238,公園 ,641.35,https://www.city.suginami.tokyo.jp/_res/projects/default_project/_page_/001/007/288/shirahata_zidouyuen.jpg,昭和33年2月10日,トイレ有り,この公園は国有地の無償貸付を受けています。,,,,,,,,,,,,,,,,,,,,,,,
杉並区,green,東二第三公園,166-0015,"〒166-0015
杉並区成田東3丁目27番24号",,https://www.city.suginami.tokyo.jp/shisetsu/kouen/03/naritahigashi/1007289.html,,139.637947300002,35.6939625697714,公園 ,755.58,https://www.city.suginami.tokyo.jp/_res/projects/default_project/_page_/001/007/289/154_tounidaisankouen.jpg,昭和62年9月29日,トイレ有り,"細い路地が巡る住宅地の一画にある公園で、ケヤキ、トチノキなど背の高い木が、こんもりと繁っています。
そのほか夏に花を開く中木のサルスベリ、そしてキリシマツツジ、ジンチョウゲなど花の咲く灌木も植られています。

しっとりとした土の広場には、アスレチック風の木製遊具、砂場、すべり台がそなえられています。
また一部舗装された場所には、ベンチやウサギの遊具が置かれ、幼児も楽しめるようになっています。
この公園は近くにあった遊び場の廃止にともなう代替措置として民有地を買収し、つくられたものです。
多くの高木は既存のものです。",,,,,,,,,,,,,,,,,,,,,,,
杉並区,green,成田東公園,166-0015,"〒166-0015
杉並区成田東4丁目11番11号",,https://www.city.suginami.tokyo.jp/shisetsu/kouen/03/naritahigashi/1007290.html,,139.634361499996,35.6976383796172,公園 ,208.28,https://www.city.suginami.tokyo.jp/_res/projects/default_project/_page_/001/007/290/121_naritahigasikouen.jpg,昭和57年3月30日,トイレなし,,,,,,,,,,,,,,,,,,,,,,,,
杉並区,green,東一坂下緑地,166-0015,"〒166-0015
杉並区成田東4丁目14番9号",,https://www.city.suginami.tokyo.jp/shisetsu/kouen/03/naritahigashi/1007291.html,,139.635358099988,35.6966102396318,公園 ,105.30,https://www.city.suginami.tokyo.jp/_res/projects/default_project/_page_/001/007/291/prk_toichisakashita_ryokuti.jpg,平成17年5月16日,トイレなし,,,,,,,,,,,,,,,,,,,,,,,,
杉並区,green,東田児童遊園,166-0015,"〒166-0015
杉並区成田東4丁目15番18号",,https://www.city.suginami.tokyo.jp/shisetsu/kouen/03/naritahigashi/1007292.html,,139.635692899982,35.6957995996388,公園 ,631.44,https://www.city.suginami.tokyo.jp/_res/projects/default_project/_page_/001/007/292/336_higasidajidouyuuen.jpg,昭和42年3月31日,トイレ有り,"開けていて、明るい雰囲気の児童遊園です。
そこに数本のケヤキが、枝を広げて木陰をつくっています。
遊具は、4連ブランコ、鉄ばしご付きのコンクリート製すべり台、そして日除けのある砂場が中心です。
この他に波形のはしご渡り、鉄棒があります。
また、幼児向けのコンクリート製子供の家もあります。
その中にはピンクとブルーのテーブルも用意されています。",,,,,,,,,,,,,,,,,,,,,,,
杉並区,green,なりむね児童遊園,166-0015,"〒166-0015
杉並区成田東5丁目5番5号",,https://www.city.suginami.tokyo.jp/shisetsu/kouen/03/naritahigashi/1007293.html,,139.629246999972,35.6983441897622,公園 ,605.39,https://www.city.suginami.tokyo.jp/_res/projects/default_project/_page_/001/007/293/319_narimunejidouyuuen.jpg,昭和33年12月19日,トイレ有り,,,,,,,,,,,,,,,,,,,,,,,,
杉並区,green,成宗公園,166-0015,"〒166-0015
杉並区成田東5丁目15番12号",,https://www.city.suginami.tokyo.jp/shisetsu/kouen/03/naritahigashi/1007294.html,,139.628392899984,35.7020330097916,公園 ,1206.50,https://www.city.suginami.tokyo.jp/_res/projects/default_project/_page_/001/007/294/narimune.jpg,昭和54年4月1日,バリアフリートイレ有り、球戯場有り,,,,,,,,,,,,,,,,,,,,,,,,
杉並区,green,おぎ緑地,167-0042,"〒167-0042
杉並区西荻北1丁目12番11号",,https://www.city.suginami.tokyo.jp/shisetsu/kouen/03/nishiogikita/1007295.html,,139.608664399958,35.7056368598394,公園 ,129.81,https://www.city.suginami.tokyo.jp/_res/projects/default_project/_page_/001/007/295/227_ogiryokuti.jpg,平成11年3月31日,トイレなし,,,,,,,,,,,,,,,,,,,,,,,,
杉並区,green,西荻わかば公園,167-0042,"〒167-0042
杉並区西荻北2丁目9番17号",,https://www.city.suginami.tokyo.jp/shisetsu/kouen/03/nishiogikita/1007296.html,,139.603998399977,35.7050634497922,公園 ,726.32,https://www.city.suginami.tokyo.jp/_res/projects/default_project/_page_/001/007/296/197_nisiogiwakabakouen.jpg,平成5年3月31日,トイレ有り,,,,,,,,,,,,,,,,,,,,,,,,
杉並区,green,西荻北中央公園,167-0042,"〒167-0042
杉並区西荻北3丁目25番3号",,https://www.city.suginami.tokyo.jp/shisetsu/kouen/03/nishiogikita/1007297.html,,139.597102400026,35.7056103796251,公園 ,678.56,https://www.city.suginami.tokyo.jp/_res/projects/default_project/_page_/001/007/297/180_nisiogikitatyuuoukouen.jpg,平成3年3月26日,トイレ有り,,,,,,,,,,,,,,,,,,,,,,,,
杉並区,green,西荻北公園,167-0042,"〒167-0042
杉並区西荻北4丁目5番14号",,https://www.city.suginami.tokyo.jp/shisetsu/kouen/03/nishiogikita/1007298.html,,139.594599100039,35.7071574096288,公園 ,448.72,https://www.city.suginami.tokyo.jp/_res/projects/default_project/_page_/001/007/298/190_nisiogikitakouen.jpg,平成4年3月31日,トイレ有り,,,,,,,,,,,,,,,,,,,,,,,,
杉並区,green,坂の上のけやき公園,167-0042,"〒167-0042
杉並区西荻北4丁目38番6号",,https://www.city.suginami.tokyo.jp/shisetsu/kouen/03/nishiogikita/1007299.html,,139.597958900035,35.7079164896192,公園 ,855.28,https://www.city.suginami.tokyo.jp/_res/projects/default_project/_page_/001/007/299/sakanoue_keyaki_kouen.jpg,平成22年3月31日,トイレなし,株立ちのけやきとしては区内最大級の幹周りで、貴重木にもなっていたけやきの大木が目印の公園です。昔から地域のシンボルとして親しまれているけやきを活かした公園にするため、たくさんの地域の方々が公園づくりから関った公園です。,,,,,,,"第1回現地公開日（平成21年4月18日）
予定地を地域の方々に公開するとともに、アンケートにより公園整備の要望を収集しました。
第2回現地公開日及び公園づくり検討会（平成21年6月20日）
アンケートの要望を整理しまとめた整備案について、地域の方々と検討しました。
設計打合せ会（平成21年9月5日）
公園づくり検討会で出された意見を整理しまとめた整備案について、地域の方々と検討しました。
これからの公園を語る会を開催（平成22年1月30日）
開園後の公園について、どのように維持管理していくかを地域の方々と話し合いました。さらに今後の公園づくりについて基本的な考えをまとめた、“みんなの想い”と公園名について案を検討しました。",,,,,,,,,,,,,,,,
杉並区,green,井荻公園,167-0042,"〒167-0042
杉並区西荻北4丁目38番17号",,https://www.city.suginami.tokyo.jp/shisetsu/kouen/03/nishiogikita/1007300.html,,139.597283300043,35.708981389603,公園 ,3939.49,https://www.city.suginami.tokyo.jp/_res/projects/default_project/_page_/001/007/300/022_iogikouen.jpg,昭和45年4月1日,トイレ有り、流れ有り,台地とその斜面に細長くのびる公園です。台地の上にはジャングルジムや砂場などの遊具があり、また斜面を利用した長いすべり台もあります。,,,,,,,,,,,,,,,,,,,,,,,
杉並区,green,大宮前児童遊園,167-0053,"〒167-0053
杉並区西荻南1丁目6番19号",,https://www.city.suginami.tokyo.jp/shisetsu/kouen/03/nishiogiminami/1007301.html,,139.600908699975,35.6973753499566,公園 ,673.15,https://www.city.suginami.tokyo.jp/_res/projects/default_project/_page_/001/007/301/327_oomiyamaejidouyuuen.jpg,昭和39年8月25日,トイレ有り,,,,,,,,,,,,,,,,,,,,,,,,
杉並区,green,西荻南児童公園,167-0053,"〒167-0053
杉並区西荻南3丁目4番5号",,https://www.city.suginami.tokyo.jp/shisetsu/kouen/03/nishiogiminami/1007302.html,,139.602026799969,35.7013741897995,公園 ,341.61,https://www.city.suginami.tokyo.jp/_res/projects/default_project/_page_/001/007/302/171_nisiogiminamijidoukouen.jpg,平成元年8月4日,トイレ有り,,,,,,,,,,,,,,,,,,,,,,,,
杉並区,green,西荻窪平和児童遊園,167-0053,"〒167-0053
杉並区西荻南3丁目18番9号",,https://www.city.suginami.tokyo.jp/shisetsu/kouen/03/nishiogiminami/1007303.html,,139.602166299968,35.7033912197766,公園 ,575.13,https://www.city.suginami.tokyo.jp/_res/projects/default_project/_page_/001/007/303/350_nisiogikuboheiwajidouyuuen.jpg,昭和47年4月1日,トイレ有り,,,,,,,,,,,,,,,,,,,,,,,,
杉並区,green,浜田山南公園,168-0065,"〒168-0065
杉並区浜田山1丁目17番10号",,https://www.city.suginami.tokyo.jp/shisetsu/kouen/04/hamadayama/1007304.html,,139.632458500045,35.6771598096033,公園 ,818.50,https://www.city.suginami.tokyo.jp/_res/projects/default_project/_page_/001/007/304/055_hamadayamaminamikouen.jpg,昭和49年3月31日,トイレ有り,,,,,,,,,,,,,,,,,,,,,,,,
杉並区,green,浜田山一丁目公園,168-0065,"〒168-0065
杉並区浜田山1丁目25番24号",,https://www.city.suginami.tokyo.jp/shisetsu/kouen/04/hamadayama/1007305.html,,139.630330400048,35.6795358696405,公園 ,1246.21,https://www.city.suginami.tokyo.jp/_res/projects/default_project/_page_/001/007/305/172_hamadayamaittyoumekouen.jpg,平成2年2月1日,トイレ有り、流れ有り,,,,,,,,,,,,,,,,,,,,,,,,
杉並区,green,堂の下児童遊園,168-0065,"〒168-0065
杉並区浜田山2丁目2番1号",,https://www.city.suginami.tokyo.jp/shisetsu/kouen/04/hamadayama/1007306.html,,139.623783200039,35.6774432998358,公園 ,294.98,https://www.city.suginami.tokyo.jp/_res/projects/default_project/_page_/001/007/306/358_dounositajidouyuuen.jpg,昭和53年6月20日,トイレなし,,,,,,,,,,,,,,,,,,,,,,,,
杉並区,green,柏の宮公園,168-0065,"〒168-0065
杉並区浜田山2丁目5番1号",03-3329-5686,https://www.city.suginami.tokyo.jp/shisetsu/kouen/04/hamadayama/1007307.html,車いすトイレ　ベビーベッド・ベビーチェアトイレ　点字案内　点字ブロック　音声案内　AED　,139.626035216744,35.678238420998,公園 ,49331.59,https://www.city.suginami.tokyo.jp/_res/projects/default_project/_page_/001/007/307/prk_kashinomiya.jpg,平成16年10月30日,トイレ有り、バリアフリートイレ有り,,「柏の宮」の名は室町時代、太田道灌がこの地に、鎌倉鶴岡八幡宮の別殿（現在の下高井戸八幡神社）を柏木左右衛門に建立させたことまでさかのぼります。江戸時代には、神社のあるこの地域は「柏の宮」と呼ばれており、その名称を公園名として残すことにしました。（参考文献「杉並風土記 下巻」杉並郷土史会発行）,,,,"京王井の頭線「浜田山駅」徒歩7分
南北バスすぎ丸（浜田山・下高井戸間、さくら路線）「柏の宮公園入口」下車徒歩5分",,,"柏の宮公園の公園づくりにあたっては、公園計画を考える「集う会」や専門委員会を開催し延べ380人を超える区民が話し合いを重ね、公園憲章や基本計画の策定などを行いました。
また、区民自らが公園の管理に関わる「柏の宮公園管理運営の会」が誕生し、区民と区との協働によりこの公園を育てて行きます。","みんなの夢を自然の営みの中で育む公園づくり

杉並の文化を受け継ぎ、次世代へ継承する。
子供からお年寄りまで、みんながレクリエーションを楽しめる場をつくる。
魅力ある自然を守り、つくる。
地域の安全と災害に備えた避難場所を確保する。
みんなで使いながら考え、区民の手で公園を育てる。","この茶室は寛永年間、若狭小浜藩主酒井忠勝が新宿区矢来町にあった酒井家の江戸下屋敷内の池畔に、小堀遠州に命じ造営したものと伝えられています。のちに酒井家の江戸屋敷の一部が旧日本興業銀行矢来寮になり昭和34年、当時の頭取が武蔵野の面影を残すこの地に茶室を移築復元し「林丘亭」と名づけたと言われています。
茶室は、茶会などに利用できます。
詳細は関連情報「柏の宮公園茶室」をご覧ください。","この公園は、防災機能の充実に重点をおいて、周辺に防災樹林帯を配し、非常用水源の確保や災害用便所の設置等をしています。
防災設備

防火水槽（100トン水槽）2基
震災対策用貯水槽（5トン水槽）1基
災害備蓄倉庫
災害用便所21基
非常用照明
井戸",,,,,,,,,,,,
杉並区,green,浜田山公園,168-0065,"〒168-0065
杉並区浜田山2丁目17番1号",,https://www.city.suginami.tokyo.jp/shisetsu/kouen/04/hamadayama/1007308.html,,139.626584900151,35.681330339806,公園 ,4594.78,https://www.city.suginami.tokyo.jp/_res/projects/default_project/_page_/001/007/308/20191.jpg,昭和48年2月1日,トイレ有り、球戯場有り,"三角定規のような形の敷地に植込み・遊具広場・球戯場がもうけられています。
北東の入口は、小広場になっていて、周りと中ほどは植え込みで、その左奥が公園の中心部です。
モッコク・ミズキ・ツバキ・ケヤキなどが、こんもりと繁る植込みの中に、ゆるくうねる園路がひらかれています。
木々の枝が重なりあって、日差しもまばらな緑のトンネルをつくっています。
この園路は、六角形のあずまやが建つ円形の小広場をぬけて、もう一方の出入り口に通じています。
植込みの南側は、よく日の当たる遊具の広場で、頂上から両方向に降りられるコンクリート製の大すべり台があります。そのほかに、登り遊具や砂場や4連ブランコもあります。",,,,,,,,,,,,,,,,,,,,,,,
杉並区,green,浜田山東公園,168-0065,"〒168-0065
杉並区浜田山3丁目11番17号",,https://www.city.suginami.tokyo.jp/shisetsu/kouen/04/hamadayama/1007309.html,,139.631881800157,35.6809779896254,公園 ,661.41,https://www.city.suginami.tokyo.jp/_res/projects/default_project/_page_/001/007/309/029_hamadayamahigasikouen.jpg,昭和46年4月20日,トイレ有り,,,,,,,,,,,,,,,,,,,,,,,,
杉並区,green,浜田山かなめ公園,168-0065,"〒168-0065
杉並区浜田山3丁目35番7号",,https://www.city.suginami.tokyo.jp/shisetsu/kouen/04/hamadayama/1007310.html,,139.626247500155,35.6837280198236,公園 ,770.60,https://www.city.suginami.tokyo.jp/_res/projects/default_project/_page_/001/007/310/088_hamadayamakanamekouen.jpg,昭和53年2月20日,トイレ有り、すくすくひろば有り,"この公園は、民間の開発行為により、区に提供されたものです。
井の頭通りから南に入った住宅地の中にあります。
道路より少し高い敷地は、周りをケヤキ、イチョウ、ヤナギなどの樹木で囲まれ、さわやかな緑陰をなしています。
この公園で目をひくのは、広場の中央の植込み。
擬木で円く囲まれた植込み地に、ケヤキが数本まとめて植えられています。
それは大きな植木鉢あるいは盆栽といった風情です。
ベンチに腰を降ろして木立を眺めていると、くつろいだ気分になれます。
園内には、フジづるのからまるパーゴラと砂場、そしてブランコなどの遊具もあり、子供達の遊び場としても利用されています。",,,,,,,,,,,,,,,,,,,,,,,
杉並区,green,すずかけ公園,168-0065,"〒168-0065
杉並区浜田山4丁目3番16号",,https://www.city.suginami.tokyo.jp/shisetsu/kouen/04/hamadayama/1007311.html,,139.633479500174,35.6828561096125,公園 ,339.16,https://www.city.suginami.tokyo.jp/_res/projects/default_project/_page_/001/007/311/230_suzukakekouen.jpg,平成12年7月20日,トイレ有り,,,,,,,,,,,,,,,,,,,,,,,,
杉並区,green,浜田山四丁目緑地,168-0065,"〒168-0065
杉並区浜田山4丁目5番31号",,https://www.city.suginami.tokyo.jp/shisetsu/kouen/04/hamadayama/1007312.html,,139.634439400167,35.6818240995959,公園 ,103.40,https://www.city.suginami.tokyo.jp/_res/projects/default_project/_page_/001/007/312/505_hamadayamayontyoumeryokuti.jpg,昭和51年10月1日,トイレなし,,,,,,,,,,,,,,,,,,,,,,,,
杉並区,green,浜田山さくら緑地,168-0065,"〒168-0065
杉並区浜田山4丁目10番22号",,https://www.city.suginami.tokyo.jp/shisetsu/kouen/04/hamadayama/1007313.html,,139.631021100171,35.6836396297531,公園 ,204.77,https://www.city.suginami.tokyo.jp/_res/projects/default_project/_page_/001/007/313/219_hamadayamasakuraryokuti.jpg,平成9年10月1日,トイレなし,,,,,,,,,,,,,,,,,,,,,,,,
杉並区,green,浜田山西児童遊園,168-0065,"〒168-0065
杉並区浜田山4丁目18番8号",,https://www.city.suginami.tokyo.jp/shisetsu/kouen/04/hamadayama/1007314.html,,139.625067600045,35.6868146199556,公園 ,180.11,https://www.city.suginami.tokyo.jp/_res/projects/default_project/_page_/001/007/314/359_hamadayamanisijidouyuuen.jpg,昭和53年6月20日,トイレなし,,,,,,,,,,,,,,,,,,,,,,,,
杉並区,green,あづま児童遊園,168-0062,"〒168-0062
杉並区方南1丁目38番13号",,https://www.city.suginami.tokyo.jp/shisetsu/kouen/04/hounan/1007315.html,,139.662029000014,35.6783465098022,公園 ,136.13,https://www.city.suginami.tokyo.jp/_res/projects/default_project/_page_/001/007/315/315_azumajidouyuuen.jpg,昭和32年12月7日,トイレなし,,,,,,,,,,,,,,,,,,,,,,,,
杉並区,green,方南中央公園,168-0062,"〒168-0062
杉並区方南1丁目51番20号",,https://www.city.suginami.tokyo.jp/shisetsu/kouen/04/hounan/1007316.html,,139.659907300016,35.679302919802,公園 ,1428.33,https://www.city.suginami.tokyo.jp/_res/projects/default_project/_page_/001/007/316/047_hounantyuuoukouen.jpg,昭和48年4月1日,トイレ有り、球戯場有り,"方南小学校の東側の住宅地の中にあります。
公園の外周は、プラタナス・マテバシイ・エンジュ・サワラなどの樹木に囲まれています。
敷地は道路より少し高くなっていて、中はケヤキの広場・遊びの広場・球戯場に別れています。
東側の入口を入ったところがケヤキの広場で、4本の大木が緑陰をつくっています。
この西側が遊びの広場で、砂場・日除け・すべり台・鉄棒・2連ブランコが備えられています。
うしろはネットフェンスで囲まれた球戯場になっています。
球戯場ではキャッチボール等が楽しめます。
この公園は国有地の無償貸付を受けています。",,,,,,,,,,,,,,,,,,,,,,,
杉並区,green,上水橋緑地,168-0062,"〒168-0062
杉並区方南1丁目52番24号",,https://www.city.suginami.tokyo.jp/shisetsu/kouen/04/hounan/1007317.html,,139.657863099998,35.6801135598089,公園 ,756.40,https://www.city.suginami.tokyo.jp/_res/projects/default_project/_page_/001/007/317/166_jyousuibasiryokuti.jpg,昭和63年12月7日,トイレなし,,,,,,,,,,,,,,,,,,,,,,,,
杉並区,green,方南二丁目公園,168-0062,"〒168-0062
杉並区方南2丁目6番11号",,https://www.city.suginami.tokyo.jp/shisetsu/kouen/04/hounan/1007318.html,,139.658747399999,35.6809687598143,公園 ,1484.78,https://www.city.suginami.tokyo.jp/_res/projects/default_project/_page_/001/007/318/107_hounannityoumekouen.jpg,昭和55年4月1日,トイレ有り,"台地の斜面にある起伏と変化に富んだ公園で、都営住宅の建替えに伴いつくられたものです。
ここには釜寺東遺跡があります。
公園は、斜面の地形に合わせて上下2段になっています。
上段と下段の間にあるのが、木製遊具と幅の広いコンクリート製のすべり台。
木製遊具は、丸太を組んだ吊り橋で、その左右は、コンクリート製のすべり台とスロープ。
スロープには、丸太の足掛かりがあり、よじ登ることもできます。
公園には、ケヤキやサクラのほか、ツバキ、サザンカ、クチナシ、ユキヤナギ、アベリアなどが、緑の木陰とにぎわいをつくっています。
木製遊具や中央の植込みの周りをめぐる園路には、2カ所に階段がもうけられ、変化に富む景観を楽しみながら、散策することができます。",,,,,,,,,,,,,,,,,,,,,,,
杉並区,green,方南公園,168-0062,"〒168-0062
杉並区方南2丁目28番24号",,https://www.city.suginami.tokyo.jp/shisetsu/kouen/04/hounan/1007319.html,,139.658771199848,35.6861906299627,公園 ,2669.69,https://www.city.suginami.tokyo.jp/_res/projects/default_project/_page_/001/007/319/hounan.jpg,昭和37年3月30日,バリアフリートイレ有り,"善福寺川南側の高台下の敷地と北斜面に展開した、区画整理事業により、生み出された公園です。
公園は、上下2段の2つの広場からなっており、斜面も利用しているため、変化に富んでいます。
この地形を巧みに利用したのが、低いほうの広場から崖にかけてつくられた石と丸太の遊び場で、木でふちどったコーナーには、切り石を組んだ四角い砦や石垣・岩がつくられ、それらをふさぐように太い丸太がかけられています。
砦の側面には、円形の穴があり、くぐりぬけることができます。
また、傍らには2つの大きな自然石が立っており、ここには、石垣や岩を登り、斜面を駆け回り、丸太を渡るという冒険の世界が広がっています。
この広場全体は、イチョウやサクラに囲まれて明るく、環状七号線の近くであるのに静かなたたずまいを見せています。
広場のベンチに腰を下ろし、石の遊び場を眺めると、白い石組みが斜面の緑に映えて印象的です。
十数段の階段を登ると、上の広場に出られ、そこは広々としていて、周りにはサクラなどの大木が立っています。
敷地は平らで、土に細かい砂が敷かれているので、軽い運動やゲートボールなどに利用できます。",,,,,,,,,,,,,,,,,,,,,,,
杉並区,green,だいしょうじ公園,166-0013,"〒166-0013
杉並区堀ノ内1丁目9番26号",,https://www.city.suginami.tokyo.jp/shisetsu/kouen/04/horinouchi/1007320.html,,139.650789799821,35.6837182698479,公園 ,683.18,https://www.city.suginami.tokyo.jp/_res/projects/default_project/_page_/001/007/320/068_daisyoujikouen.jpg,昭和50年4月1日,トイレ有り,"民有地の一部買収、一部寄付によりつくられた公園で、堀ノ内南児童館の隣にあります。
ケヤキなど背の高い樹木が植えられていますが、三方を路地と暗渠の道に囲まれているので、日差しはよく通ります。
小砂利敷きの広場は平らで、軽い運動や子供達の遊び場として利用されています。
遊具は砂場と一体になった複合すべり台、それにブランコ。
砂場には、日除けとベンチがそなえられているので憩いのひと時を過ごすことができます。
また、トイレの外壁はかわいらしいゾウのデザインです。",,,,,,,,,,,,,,,,,,,,,,,
杉並区,green,済美公園,166-0013,"〒166-0013
杉並区堀ノ内1丁目27番40号",,https://www.city.suginami.tokyo.jp/shisetsu/kouen/04/horinouchi/1007321.html,車いすトイレ　オストメイトトイレ　ベビーベッド・ベビーチェアトイレ　,139.649048297671,35.6880397829156,公園 ,6520.63,https://www.city.suginami.tokyo.jp/_res/projects/default_project/_page_/001/007/321/014_seibikouen_2.jpg,昭和43年10月1日,トイレ有り、バリアフリートイレ有り、流れ有り,"善福寺川沿いの南側に位置し、イチョウ並木やスダジイなどの大木が生い茂った自然豊かな公園です。
善福寺川の護岸整備に伴い、公園も整備し、河川の親水護岸と一体的な公園として平成25年度にリニューアルオープンしました。
公園の中心となる水遊び場では、夏季には花崗岩で敷き詰められた円形広場の周りから水が噴き出し、子ども達が水遊びを楽しめます。
また、背伸ばしベンチなどの健康遊具や滑り台が付いた複合遊具などもあります。
善福寺川の親水護岸は、川の近くまで降りられる構造になっており水辺を身近に感じることができます。ルールを守り、安全に利用しましょう。",,,,,,,,,,,,,,,,,,,,,,,
杉並区,green,定塚橋公園,166-0013,"〒166-0013
杉並区堀ノ内2丁目1番28号",,https://www.city.suginami.tokyo.jp/shisetsu/kouen/04/horinouchi/1007322.html,車いすトイレ　ベビーベッド・ベビーチェアトイレ　,139.653835899832,35.6854739499567,公園 ,2254.34,https://www.city.suginami.tokyo.jp/_res/projects/default_project/_page_/001/007/322/jouzukabashi1.jpg,平成20年3月31日,バリアフリートイレ有り,"この公園は、土地を所有する東京都が善福寺川の水害対策として設置した環七地下調節池取水施設と一体的に整備を進め、杉並区が管理・運営を行う杉並区立の公園として開園しました。
開放感のある遊び場が広がるこの公園には、ベンチやスツール（一人用腰かけ）、日除け棚など、散歩の途中に休憩できる場所が設けられるとともに、子どもたちが遊ぶ滑り台も備えた複合遊具や砂場があります。
また、公園周りにはハナミズキやモミジ、ツツジなど、多くの草木が植えられて季節を彩るとともに、春先には桜が楽しめます。",,,,,,,,,,,,,,,,,,,,,,,
杉並区,green,堀ノ内二丁目公園,166-0013,"〒166-0013
杉並区堀ノ内2丁目6番1号",,https://www.city.suginami.tokyo.jp/shisetsu/kouen/04/horinouchi/1007323.html,,139.652804799823,35.6863929799625,公園 ,137.25,https://www.city.suginami.tokyo.jp/_res/projects/default_project/_page_/001/007/323/105_horinoutinityoumekouen.jpg,昭和55年2月1日,トイレなし,,,,,,,,,,,,,,,,,,,,,,,,
杉並区,green,済美児童遊園,166-0013,"〒166-0013
杉並区堀ノ内2丁目6番7号",,https://www.city.suginami.tokyo.jp/shisetsu/kouen/04/horinouchi/1007324.html,,139.651938599821,35.6859123399595,公園 ,287.81,https://www.city.suginami.tokyo.jp/_res/projects/default_project/_page_/001/007/324/324_seibijidouyuuen.jpg,昭和39年3月7日,トイレ有り,,,,,,,,,,,,,,,,,,,,,,,,
杉並区,green,堀ノ内南公園,166-0013,"〒166-0013
杉並区堀ノ内2丁目17番32号",,https://www.city.suginami.tokyo.jp/shisetsu/kouen/04/horinouchi/1007325.html,,139.653404199833,35.6880649598488,公園 ,660.00,https://www.city.suginami.tokyo.jp/_res/projects/default_project/_page_/001/007/325/081_horinoutiminamikouen.jpg,昭和52年4月1日,トイレ有り,"民有地を買収してつくられた公園です。
土の広場には、数本のケヤキが立ち、緑の木陰をつくっています。
フジづるのからまるパーゴラがおおっている砂場があり、その左側には4連ブランコもあります。
広場の周りにめぐらされた植込みには、カイドウ、ボケ、ジンチョウゲ、アジサイなどいろいろな樹木が植えられています。",,,,,,,,,,,,,,,,,,,,,,,
杉並区,green,熊野橋児童遊園,166-0013,"〒166-0013
杉並区堀ノ内2丁目19番6号",,https://www.city.suginami.tokyo.jp/shisetsu/kouen/04/horinouchi/1007326.html,,139.650549411118,35.6870357610604,公園 ,345.51,https://www.city.suginami.tokyo.jp/_res/projects/default_project/_page_/001/007/326/348_kumanobasijidouyuuen.jpg,昭和47年2月10日,トイレ有り,この公園は国有地の無償貸付を受けています。,,,,,,,,,,,,,,,,,,,,,,,
杉並区,green,谷中公園,166-0013,"〒166-0013
杉並区堀ノ内2丁目38番11号",,https://www.city.suginami.tokyo.jp/shisetsu/kouen/04/horinouchi/1007327.html,,139.648820299953,35.6890981799608,公園 ,639.91,https://www.city.suginami.tokyo.jp/_res/projects/default_project/_page_/001/007/327/054_yanakakouen.jpg,昭和49年3月31日,トイレ有り,"善福寺川の北、荒玉水道道路に面した住宅地にあり、民有地の買収などによりつくられた公園です。
一帯は、ゆるい起伏のある地形で、公園も2段のつくりになっています。
公園は、路地の奥にあり、入口は細い通路のようで、中に入って広くなっています。
広場は、ケヤキ、カイヅカイブキなどの高木で囲まれ、植込みにはクチナシ、ジンチョウゲなどの背の低い木が密に植えられています。
遊具は南側の広場にあり、4連ブランコ、すべり台とパーゴラをそなえた砂場があります。
その砂場のそばにアジサイの植込みがあり、数がまとまっているので、梅雨どきに咲く優雅な青い花は見ごたえがあります。",,,,,,,,,,,,,,,,,,,,,,,
杉並区,green,堀ノ内山谷児童遊園,166-0013,"〒166-0013
杉並区堀ノ内3丁目20番23号",,https://www.city.suginami.tokyo.jp/shisetsu/kouen/04/horinouchi/1007328.html,,139.648205700004,35.6914824299664,公園 ,396.66,https://www.city.suginami.tokyo.jp/_res/projects/default_project/_page_/001/007/328/308_horinoutisanyajidouyuuen.jpg,昭和28年3月31日,トイレ有り,,,,,,,,,,,,,,,,,,,,,,,,
杉並区,green,堀ノ内三丁目公園,166-0013,"〒166-0013
杉並区堀ノ内3丁目44番10号",,https://www.city.suginami.tokyo.jp/shisetsu/kouen/04/horinouchi/1007329.html,,139.65103010001,35.6937205598275,公園 ,508.82,https://www.city.suginami.tokyo.jp/_res/projects/default_project/_page_/001/007/329/161_horinoutisantyoumekouen.jpg,昭和63年3月31日,トイレ有り,"北海道庁の宿舎用地を買収してつくられた公園です。
長方形の敷地が入念に設計され、種々の草木が植えられています。
花の咲く木は、コデマリ、コクチナシ、コブシなどで、草花はヤブラン、シャガ、オオバジャノヒゲ。
赤い実が食べられるナワシログミもあります。
広場の中央部は、まさ土の舗装、その周りは透水性のコンクリート舗装で、土は植込みのところに顔をのぞかせています。
広場の真ん中にアスレチック遊具があり、その左側には砂場とテラス、2つの日除けが建っています。
木製遊具広場の右手は、くつろぎのコーナー。
植込みを背にして半円形のベンチがそなえられています。",,,,,,,,,,,,,,,,,,,,,,,
杉並区,green,堀ノ内東公園,166-0013,"〒166-0013
杉並区堀ノ内3丁目49番11号",,https://www.city.suginami.tokyo.jp/shisetsu/kouen/04/horinouchi/1007330.html,,139.653703999961,35.6921602498049,公園 ,1233.11,https://www.city.suginami.tokyo.jp/_res/projects/default_project/_page_/001/007/330/033_horinoutihigasikouen.jpg,昭和47年4月1日,トイレ有り、球戯場有り,"環状7号線の近くにありますが、高い建物が騒音をさえぎり、比較的静かな公園です。公園の隣には保育園と児童館があります。
ゆるいスロープの入口を登ると、たっぷりと砂を敷いた広場に入ります。児童向けの複合遊具があり、その隣には球戯場あります。",,,,,,,,,,,,,,,,,,,,,,,
杉並区,green,本天沼東公園,166-0014,"〒166-0014
杉並区本天沼1丁目9番8号",,https://www.city.suginami.tokyo.jp/shisetsu/kouen/04/honamanuma/1007331.html,,139.630334000161,35.7130360199794,公園 ,418.58,https://www.city.suginami.tokyo.jp/_res/projects/default_project/_page_/001/007/331/196_honnamanumahigasikouen.jpg,平成5年3月31日,トイレ有り,,,,,,,,,,,,,,,,,,,,,,,,
杉並区,green,本天沼南公園,167-0031,"〒167-0031
杉並区本天沼2丁目3番10号",,https://www.city.suginami.tokyo.jp/shisetsu/kouen/04/honamanuma/1007332.html,車いすトイレ　オストメイトトイレ　ベビーベッド・ベビーチェアトイレ　点字案内　点字ブロック　,139.62776080018,35.71226590999,公園 ,1190.04,https://www.city.suginami.tokyo.jp/_res/projects/default_project/_page_/001/007/332/049_honamanumaminamikouen.jpg,昭和48年11月20日,バリアフリートイレ有り,"住宅地の路地の角にあり、民有地を買収してつくられた公園です。
道路に面した部分に植込みをめぐらし、緑の壁をつくっています。
小砂利が敷かれた広場には、数本のエンジュが植えられ、緑の木陰をつくっています。
一番大きな遊具は、砂場。それに幼児用のすべり台と扇形の日除けがついています。
屋根には、フジづるがはい、5月に薄紫の花房がさがります。
もうひとつ、目につくのが丸太小屋。丸太の柱でやぐらが組まれ、屋根と階段がついています。
そのほか4連ブランコと鉄棒があります。
植込みには、クチナシ、アジサイ、オオムラサキツツジ、ヤマブキなど、花の咲く樹木が植えられています。",,,,,,,,,,,,,,,,,,,,,,,
杉並区,green,本天沼北公園,167-0031,"〒167-0031
杉並区本天沼2丁目38番9号",,https://www.city.suginami.tokyo.jp/shisetsu/kouen/04/honamanuma/1007333.html,,139.626458100041,35.7155158298281,公園 ,368.46,https://www.city.suginami.tokyo.jp/_res/projects/default_project/_page_/001/007/333/078_honamanumakitakouen.jpg,昭和52年4月1日,トイレなし,,,,,,,,,,,,,,,,,,,,,,,,
杉並区,green,天沼児童遊園,167-0031,"〒167-0031
杉並区本天沼2丁目38番32号",,https://www.city.suginami.tokyo.jp/shisetsu/kouen/04/honamanuma/1007334.html,,139.627077000151,35.7145695798455,公園 ,770.67,https://www.city.suginami.tokyo.jp/_res/projects/default_project/_page_/001/007/334/306_amanumajidouyuuen.jpg,昭和27年3月31日,トイレ有り,,,,,,,,,,,,,,,,,,,,,,,,
杉並区,green,わかたけ公園,167-0031,"〒167-0031
杉並区本天沼3丁目39番7号",,https://www.city.suginami.tokyo.jp/shisetsu/kouen/04/honamanuma/1007335.html,,139.62261160004,35.7170053398082,公園 ,929.40,https://www.city.suginami.tokyo.jp/_res/projects/default_project/_page_/001/007/335/wakatakekouen_2.jpg,平成6年3月31日,トイレ有り,,,,,,,,,,,,,,,,,,,,,,,,
杉並区,green,和田堀公園,166-0014,"〒166-0014
杉並区松ノ木1丁目3番24号",,https://www.city.suginami.tokyo.jp/shisetsu/kouen/04/matsunoki/1007336.html,,139.64232122357,35.6854849391068,公園 ,27573.54,https://www.city.suginami.tokyo.jp/_res/projects/default_project/_page_/001/007/336/004_wadaborikouen.jpg,昭和27年4月1日,トイレ有り、流れ有り,"この公園用地は、昭和27年に、東京都より、譲与されたものです。
地下には、旧石器時代、縄文時代、弥生時代の遺跡があり、「松ノ木遺跡」と呼ばれています。
公園は大別して、復旧住居や流れなどのある林間園地・遊びの広場・そして広大な松ノ木運動場により構成されています。
北側の入口を入ったところが一番低い敷地で、そこから園路は小広場を通り、コナラ・ケヤキ・ヤマモミジ・トサミズキなどが繁る中を二手に分かれて進みます。
一方は流れに沿い、もう一方は4から5メートル高い崖の上を通ります。
流れ沿いの道には、木漏れ日がさし、光が水面に反射します。
流れは、自然石でふちどられ渓流に似せてつくられています。
源をたどると、崖の中腹につくられた岩組の滝で、木立の間にさわやかな水音を響かせています。
一方の山道は、深い木立の間を進みます。
木々の枝が重なりあっているので、日差しもまばらで、ときどき小鳥の鳴き声も聞こえます。
2筋の道が交わった先は、崖の上の広場で、スズカケ・ポプラ・ソロの巨木に囲まれ、真ん中に復元された竪穴式住居が建っています。
台地の東突端には、ブランコ・砂場・すべり台のある遊びの広場があります。
台地の北側に広がるのが、広大な松ノ木運動場で、ここは教育委員会が管理しており、野球場・テニスコート・管理事務所があります。
この一帯は、区内でも有数の緑が濃く、景色の良いところで、近くには大宮八幡神社・都立和田堀公園・善福寺川緑地もあります。
一帯は和田掘風致地区に指定されています。",,,,,,,,,,,,,,,,,,,,,,,
杉並区,green,松ノ木坂下公園,166-0014,"〒166-0014
杉並区松ノ木2丁目3番15号",,https://www.city.suginami.tokyo.jp/shisetsu/kouen/04/matsunoki/1007337.html,,139.645605299988,35.6901255399608,公園 ,291.92,https://www.city.suginami.tokyo.jp/_res/projects/default_project/_page_/001/007/337/159_matunokisakasitakouen.jpg,昭和63年3月30日,トイレなし,,,,,,,,,,,,,,,,,,,,,,,,
杉並区,green,松ノ木公園,166-0014,"〒166-0014
杉並区松ノ木2丁目20番5号",,https://www.city.suginami.tokyo.jp/shisetsu/kouen/04/matsunoki/1007338.html,,139.641575200012,35.6911050098141,公園 ,663.45,https://www.city.suginami.tokyo.jp/_res/projects/default_project/_page_/001/007/338/026_matunokikouen.jpg,昭和45年6月1日,トイレ有り,"民有地で貸車庫などのあったところを買収してつくった公園で、住宅地の中の商店街にあり、2面が道路に面しています。
公園の外周には、ビョウヤナギ・ヒョウガミズキ・ジンチョウゲ・サツキなどの植込みがあり、街角のミニオアシスという感じです。
四角い広場には、アケボノスギが数本立ち、緑の木陰をなしており、その下の砂場に連なるように、すべり台とブランコがあります。",,,,,,,,,,,,,,,,,,,,,,,
杉並区,green,松ノ木中央公園,166-0014,"〒166-0014
杉並区松ノ木2丁目24番13号",,https://www.city.suginami.tokyo.jp/shisetsu/kouen/04/matsunoki/1007339.html,,139.643424700009,35.6910195398369,公園 ,538.99,https://www.city.suginami.tokyo.jp/_res/projects/default_project/_page_/001/007/339/091_matunokityuuoukouen.jpg,昭和53年4月1日,トイレなし,"都営住宅の建替えに伴い、つくられた公園です。
園名板がはめこまれた、赤いレンガの小さな門を入ると、小砂利を敷いた広場です。
中央部は開けていて、周りに木立や植込みがあります。
木陰をつくる高木は、マツとケヤキ。
敷地の境を区切るのは、カイヅカイブキ、クチナシ、ツツジ。
遊具は、すべり台、砂場、ブランコ、鉄棒があります。
木々の緑の中で、レンガや手すりの赤い色が、ひと際鮮やかです。",,,,,,,,,,,,,,,,,,,,,,,
杉並区,green,松ノ木北公園,166-0014,"〒166-0014
杉並区松ノ木3丁目17番16号",,https://www.city.suginami.tokyo.jp/shisetsu/kouen/04/matsunoki/1007340.html,,139.645091900166,35.6942209399687,公園 ,374.07,https://www.city.suginami.tokyo.jp/_res/projects/default_project/_page_/001/007/340/070_matunokikitakouen.jpg,昭和50年12月20日,トイレ有り,,,,,,,,,,,,,,,,,,,,,,,,
杉並区,green,松ノ木児童遊園,166-0014,"〒166-0014
杉並区松ノ木3丁目30番8号",,https://www.city.suginami.tokyo.jp/shisetsu/kouen/04/matsunoki/1007341.html,,139.646621800194,35.694907249994,公園 ,195.38,https://www.city.suginami.tokyo.jp/_res/projects/default_project/_page_/001/007/341/339_matunokijidouyuuen.jpg,昭和43年3月31日,トイレなし,,,,,,,,,,,,,,,,,,,,,,,,
杉並区,green,南荻窪公園,167-0052,"〒167-0052
杉並区南荻窪1丁目28番11号",,https://www.city.suginami.tokyo.jp/shisetsu/kouen/04/minamiogikubo/1007342.html,,139.613134199954,35.6964212198317,公園 ,709.93,https://www.city.suginami.tokyo.jp/_res/projects/default_project/_page_/001/007/342/062_minamiogikubokouen.jpg,昭和50年1月15日,トイレ有り,"園内には、ケヤキやアカマツなど背の高い木がみられますが、明るく開放的です。
遊具の中心は、コンクリート製の築山と砂場。
築山は、赤味をおびており、すべり台が付いています。
それは日除けのある砂場と一体になって、幼児の遊び場として親しまれています。
1本のケヤキを取り囲んで、つくられているのが平均台。
これはタイヤコーナーと一緒になっています。
そのほかに枝型ブランコと鉄棒があります。
植込みの植物は、マサキ、アオキ、ヤエクチナシ、チャノキなど、種類が豊富です。
また「荻窪」の地名のもとになった、オギも植えられています。
日本銀行の用地を買収してつくられた公園です。",,,,,,,,,,,,,,,,,,,,,,,
杉並区,green,荻窪第一児童遊園,167-0052,"〒167-0052
杉並区南荻窪2丁目25番16号",,https://www.city.suginami.tokyo.jp/shisetsu/kouen/04/minamiogikubo/1007343.html,,139.612480299834,35.6989059998375,公園 ,361.23,https://www.city.suginami.tokyo.jp/_res/projects/default_project/_page_/001/007/343/335_ogikubodaiitijidouyuuen.jpg,昭和41年12月27日,トイレ有り,,,,,,,,,,,,,,,,,,,,,,,,
杉並区,green,たんぽぽ公園,167-0052,"〒167-0052
杉並区南荻窪3丁目28番7号",,https://www.city.suginami.tokyo.jp/shisetsu/kouen/04/minamiogikubo/1007344.html,,139.610794499799,35.7033511298357,公園 ,395.88,https://www.city.suginami.tokyo.jp/_res/projects/default_project/_page_/001/007/344/212_tanpopokouen.jpg,平成8年1月19日,トイレ有り,,,,,,,,,,,,,,,,,,,,,,,,
杉並区,green,与謝野公園,167-0052,"〒167-0052
杉並区南荻窪4丁目3番22号",,https://www.city.suginami.tokyo.jp/shisetsu/kouen/04/minamiogikubo/1007345.html,車いすトイレ　オストメイトトイレ　ベビーベッド・ベビーチェアトイレ　点字ブロック　,139.615672799829,35.6988513098383,公園 ,1396.15,https://www.city.suginami.tokyo.jp/_res/projects/default_project/_page_/001/007/345/yosanokouen.jpg,昭和57年3月20日,バリアフリートイレ有り,"かつてこの地には与謝野寛（鉄幹）晶子夫妻が晩年を過ごした家がありました。
昭和57年に「南荻窪中央公園」として開園し、平成24年4月に再整備した際「与謝野公園」と名称変更しました。
園内には、二人が詠んだ歌碑などがあります。",,,,,,,,,,,,,,,,,,,,,,,
杉並区,green,はるたけ公園,168-0081,"〒168-0081
杉並区宮前2丁目2番17号",,https://www.city.suginami.tokyo.jp/shisetsu/kouen/04/miyamae/1007346.html,,139.615642699974,35.6915664198394,公園 ,303.99,https://www.city.suginami.tokyo.jp/_res/projects/default_project/_page_/001/007/346/156_harutakekouen.jpg,昭和63年1月20日,トイレなし,"開発行為により生み出され、事業者により、区に提供された公園です。
周辺は、畑の残る新興の住宅地で、集合住宅もあり、公園は、そこに住む人達の憩いの場になっています。
2面が道路に接する敷地は、日当たりがよく、カシ、ミズナラ、サクラ、マテバシイなどの樹間を柔らかな風が通ります。
植込みには、カンツバキ、ボケ、オオムラサキツツジなど、美しい花の咲く木も植えられています。",,,,,,,,,,,,,,,,,,,,,,,
杉並区,green,松宮公園,168-0081,"〒168-0081
杉並区宮前2丁目2番30号",,https://www.city.suginami.tokyo.jp/shisetsu/kouen/04/miyamae/1007347.html,,139.615947299976,35.6908988098444,公園 ,285.98,https://www.city.suginami.tokyo.jp/_res/projects/default_project/_page_/001/007/347/120_matumiyakouen.jpg,昭和56年12月25日,トイレなし,,,,,,,,,,,,,,,,,,,,,,,,
杉並区,green,宮前けやき緑地,168-0081,"〒168-0081
杉並区宮前2丁目9番11号",,https://www.city.suginami.tokyo.jp/shisetsu/kouen/04/miyamae/1007348.html,,139.612553899969,35.6927965398388,公園 ,461.69,https://www.city.suginami.tokyo.jp/_res/projects/default_project/_page_/001/007/348/183_miyamaekeyakiryokuti.jpg,平成3年3月28日,トイレなし,,,,,,,,,,,,,,,,,,,,,,,,
杉並区,green,宮前公園,168-0081,"〒168-0081
杉並区宮前2丁目12番18号",,https://www.city.suginami.tokyo.jp/shisetsu/kouen/04/miyamae/1007349.html,,139.611148699972,35.6940923998394,公園 ,3727.08,https://www.city.suginami.tokyo.jp/_res/projects/default_project/_page_/001/007/349/193_miyamaekouen.jpg,平成4年10月13日,トイレ有り,聴覚をテーマとしていろいろな工夫がされており、「みみのオアシス」となっています。竹林の七賢にちなんで7種類の装置が設置されています。,,,,,,,,,,,,,,,,,,,,,,,
杉並区,green,大善公園,168-0081,"〒168-0081
杉並区宮前2丁目15番3号",,https://www.city.suginami.tokyo.jp/shisetsu/kouen/04/miyamae/1007350.html,,139.610998899969,35.6927591198435,公園 ,854.50,https://www.city.suginami.tokyo.jp/_res/projects/default_project/_page_/001/007/350/092_daizenkouen.jpg,昭和53年4月1日,トイレ有り,"この公園は、開発行為により生み出され、事業者により、区に提供されたものです。
公園の周りは、サクラ、サザンカ、ツツジなどの植込みで囲まれています。
園内にも木立がありますが、明るく開放的です。
公園は、レンガ舗装の園路で豆砂利敷きの広場と、憩いのコーナーとに仕切られています。
広場には、根元を丸太の枠で囲まれたケヤキが数本立ち、そこに木製の「冒険砦」、丸太ステップ、丸太渡りなどがそなえられています。
その奥には、枝型ブランコがあります。
憩いのコーナーは、クローバーなどの青草におおわれています。
そして隣は、日除けのある砂場になっています。",,,,,,,,,,,,,,,,,,,,,,,
杉並区,green,宮下公園,168-0081,"〒168-0081
杉並区宮前2丁目27番30号",,https://www.city.suginami.tokyo.jp/shisetsu/kouen/04/miyamae/1007351.html,,139.615017199971,35.6922706198353,公園 ,1298.21,https://www.city.suginami.tokyo.jp/_res/projects/default_project/_page_/001/007/351/20191.jpg,昭和44年4月1日,トイレ有り、流れ有り,"この公園は、昭和44年に民有地を買収してつくられましたが、当初は今の半分の広さでした。
その後、昭和58年に隣接民有地の買収と寄付により、拡張・改修されて、現在の状態になりました。
公園は、正方形と長方形の敷地がくっついた形になっていて、正方形のほうは土の広場で、周りを植え込みで囲まれ、真ん中に大きなサクラの木が立っています。
広々としているので、軽い運動などに利用されています。
仕切りの役目をしている植込みの奥は、一段高い敷地で、ここが長方形の広場になっており、周りを囲む植込みの木は、コブシ・キンモクセイ・マテバシイなど、中木が多いので、雰囲気は明るく、緑も一段と冴えています。
入ってすぐのところにパーゴラ付きの砂場があり、ブランコ、すべり台、ネットザイル遊具があります。
右奥は噴水と植込みのコーナーで、中央部は舗装され、立方形の石造りの噴水があります。
噴水は、四面に大きな目玉をくりぬき、石の角を鼻にみたてた人の顔の形に作られています。
上から流れ落ちる水が、いつも顔を洗い流しているというわけです。",,,,,,,,,,,,,,,,,,,,,,,
杉並区,green,まてば緑地,168-0081,"〒168-0081
杉並区宮前2丁目29番18号",,https://www.city.suginami.tokyo.jp/shisetsu/kouen/04/miyamae/1007352.html,,139.616290699969,35.6927360598283,公園 ,399.49,https://www.city.suginami.tokyo.jp/_res/projects/default_project/_page_/001/007/352/prk_madeba_ryokuti.jpg,昭和55年2月1日,トイレなし,,,,,,,,,,,,,,,,,,,,,,,,
杉並区,green,大宮前公園,168-0081,"〒168-0081
杉並区宮前3丁目15番10号",,https://www.city.suginami.tokyo.jp/shisetsu/kouen/04/miyamae/1007353.html,,139.606058399965,35.6967355299521,公園 ,3826.65,https://www.city.suginami.tokyo.jp/_res/projects/default_project/_page_/001/007/353/018_oomiyamaekouen.jpg,昭和44年4月1日,バリアフリートイレ有り、球戯場有り、流れ有り,"民有地を買収して作られた公園で、流れのある雑木林と遊具のある広場でつくられています。
公園の外側は、ケヤキなどの高木でかこまれており、南側の入口から入ったところが雑木林で、たくさんのコナラ・ケヤキが自然の林のように立ち並び、流れが木立の間を大きくS字形に縫っています。
その風情は、昔の武蔵野のような感じです。
木々の緑が濃いので、ヒヨドリ・ムクドリ・メジロ・シジュウカラなどの野鳥の姿もみられます。
林の向こうには、木の間隠れに、日差しに映える遊具広場がみえます。
林に接したところにあるのが、鉄平石張りのテラスで、傍らには流れから続いた池があります。
テラスの先に広がるのが、土の地面の広場で、斬新なデザインのすべり台やコンビネーションジム・大きなパーゴラ付きの砂場などが備えられています。
さらにその先は、ケヤキが並木状に植えられた広場で、右手には球戯場があります。
園内を大きく回る小道は、左右を濃い植込みで彩られ、中にはコブシ・ツバキ・タイサンボクなどの花の咲く木も植えられています。",,,,,,,,,,,,,,,,,,,,,,,
杉並区,green,小鳩公園,168-0081,"〒168-0081
杉並区宮前3丁目29番2号",,https://www.city.suginami.tokyo.jp/shisetsu/kouen/04/miyamae/1007354.html,,139.608250299963,35.6963784398477,公園 ,595.01,https://www.city.suginami.tokyo.jp/_res/projects/default_project/_page_/001/007/354/052_kobatokouen.jpg,昭和49年3月31日,トイレ有り,"宮前北児童館の隣にあり、民有地を買収してつくられた公園です。
公園の周囲は、サザンカ、キンモクセイ、クチナシなどの植込み。
園内には、サクラが植えられ、木陰をつくっています。
公園は、憩いの場と遊びの場に分けられます。その両方にまたがるのが砂場。
そこには、よしず張りの日除けと幼児用のすべり台があります。
ここの遊具で特徴のあるのは、いくつもの鉄の輪をつないでつくったトンネル。
一方には、黒いコンクリート管が付いています。
ほかに、枝型ブランコもあり、近所の子供達に親しまれています。",,,,,,,,,,,,,,,,,,,,,,,
杉並区,green,こぶし公園,168-0081,"〒168-0081
杉並区宮前4丁目13番6号",,https://www.city.suginami.tokyo.jp/shisetsu/kouen/04/miyamae/1007355.html,,139.603112313988,35.6921315581427,公園 ,382.76,https://www.city.suginami.tokyo.jp/_res/projects/default_project/_page_/001/007/355/207_kobusikouen.jpg,平成6年10月19日,トイレ有り,,,,,,,,,,,,,,,,,,,,,,,,
杉並区,green,宮前あおぞら緑地,168-0081,"〒168-0081
杉並区宮前4丁目25番6号",,https://www.city.suginami.tokyo.jp/shisetsu/kouen/04/miyamae/1007356.html,,139.608421156067,35.6906182119456,公園 ,305.00,https://www.city.suginami.tokyo.jp/_res/projects/default_project/_page_/001/007/356/208_miyamaeaozoraryokuti.jpg,平成6年12月19日,トイレなし,,,,,,,,,,,,,,,,,,,,,,,,
杉並区,green,西宮公園,168-0081,"〒168-0081
杉並区宮前5丁目14番7号",,https://www.city.suginami.tokyo.jp/shisetsu/kouen/04/miyamae/1007357.html,,139.600710041684,35.6937339566716,公園 ,499.10,https://www.city.suginami.tokyo.jp/_res/projects/default_project/_page_/001/007/357/046_nisimiyakouen.jpg,昭和48年2月1日,トイレ有り,,,,,,,,,,,,,,,,,,,,,,,,
杉並区,green,宮前新田緑地,168-0081,"〒168-0081
杉並区宮前5丁目15番18号",,https://www.city.suginami.tokyo.jp/shisetsu/kouen/04/miyamae/1007358.html,,139.601592167582,35.6938717649715,公園 ,480.38,https://www.city.suginami.tokyo.jp/_res/projects/default_project/_page_/001/007/358/250miyamaeshindenryokuti.jpg,平成21年10月1日,トイレなし,,,,,,,,,,,,,,,,,,,,,,,,
杉並区,green,なかよし公園,168-0081,"〒168-0081
杉並区宮前5丁目19番2号",,https://www.city.suginami.tokyo.jp/shisetsu/kouen/04/miyamae/1007359.html,,139.601364199979,35.6943979199816,公園 ,550.18,https://www.city.suginami.tokyo.jp/_res/projects/default_project/_page_/001/007/359/103_nakayosikouen.jpg,昭和55年1月15日,トイレ有り,"公園の前は井の頭通りです。
道路の視界と騒音をさえぎるために、通りに面したところに、濃い植込みがもうけられています。
樹木の種類は、エゴノキ、キンモクセイ、ビョウヤナギ、コデマリと豊富です。
日差しのよく通る広場には、エンジュやケヤキが立ち、木陰をなしています。
中央は、擬木の丸太型スツールがならぶ憩いの場所。
遊具は、その周りに配置されています。
それは、フジづるのからまる日除けと砂場、枝型ブランコの2つです。",,,,,,,,,,,,,,,,,,,,,,,
杉並区,green,桃井公園,167-0034,"〒167-0034
杉並区桃井1丁目19番6号",,https://www.city.suginami.tokyo.jp/shisetsu/kouen/04/momoi/1007360.html,,139.612362800195,35.7114820199924,公園 ,1315.58,https://www.city.suginami.tokyo.jp/_res/projects/default_project/_page_/001/007/360/019_momoikouen.jpg,昭和44年4月1日,トイレ有り、バリアフリートイレ有り、流れ有り,"前の歩道に、公園の大ケヤキとサクラの枝が張り出し、街路樹と一緒になって、あたりの景観を彩っています。
園内にも、ケヤキやヒマラヤスギが、高々とそびえています。
入口を入ると広場になっていて、高い木が多いわりには、日差しがよく通ります。",,,,,,,,,,,,,,,,,,,,,,,
杉並区,green,中通公園,167-0034,"〒167-0034
杉並区桃井1丁目33番9号",,https://www.city.suginami.tokyo.jp/shisetsu/kouen/04/momoi/1007361.html,,139.611328600179,35.7141346398392,公園 ,660.13,https://www.city.suginami.tokyo.jp/_res/projects/default_project/_page_/001/007/361/082_nakadoorikouen.jpg,昭和52年4月1日,トイレ有り,"公園の前が、バス停になっています。
園内には、ケヤキが木陰をつくっているので、夏には「バスを待つあいだにひと息」、そんな利用もできる公園です。
周りの植込みには、長く花の楽しめるアベリア、薄い青色が清楚なガクアジサイなどが植えられています。
遊具は、砂場とすべり台、それに4連ブランコです。",,,,,,,,,,,,,,,,,,,,,,,
杉並区,green,桃井三丁目緑地,167-0034,"〒167-0034
杉並区桃井3丁目4番6号",,https://www.city.suginami.tokyo.jp/shisetsu/kouen/04/momoi/1007362.html,,139.605407200179,35.7118742498251,公園 ,1516.81,https://www.city.suginami.tokyo.jp/_res/projects/default_project/_page_/001/007/362/241momoi3tyomeryokuti.jpg,平成18年3月1日,トイレなし,,,,,,,,,,,,,,,,,,,,,,,,
杉並区,green,桃井原っぱ公園,167-0034,"〒167-0034
杉並区桃井3丁目8番1号",03-3390-3154,https://www.city.suginami.tokyo.jp/shisetsu/kouen/04/momoi/1007363.html,車いすトイレ　オストメイトトイレ　ベビーベッド・ベビーチェアトイレ　点字案内　点字ブロック　AED　,139.60736501748,35.7132189683367,公園 ,40000,https://www.city.suginami.tokyo.jp/_res/projects/default_project/_page_/001/007/363/momoiharappa.jpg,平成23年4月1日,トイレ有り、バリアフリートイレ有り、流れ有り,,,,,,,,,,,,,"この地は、かつて中島飛行機株式会社の原動機工場が建ち、国産第1号の飛行機用エンジンをはじめ、当時世界に名を轟かせた零戦のエンジンも設計・製造されました。戦後、幾多の変遷を経て日産自動車株式会社荻窪工場となりましたが、その間日本のロケット第1号も開発されています。その後工場は移転、跡地は売却されることとなりました。
公共性の高い跡地利用を望む日産自動車株式会社に対し、区は「防災公園街区整備事業」を活用して防災公園と市街地を一体的に整備するために、現UR都市機構に事業を要請。地域の方々と検討を重ね、跡地の利用方法や公園の内容を決定しました。
この公園は、平常時は地域の人々の憩いの場として、災害時は周辺の消防署、警察署、病院等と連携した避難拠点として大きな効果が期待されています。
 
大正14年 中島飛行機株式会社東京工場開設
昭和41年 日産自動車株式会社荻窪工場開設
平成10年 工場移転
平成12年 跡地の計画検討開始
平成13年 公園の都市計画を決定
平成14年 桃井原っぱ広場暫定公開
平成15年 市街地整備工事着手
平成17年 懇談会による公園検討開始
平成21年 公園整備工事着手
平成23年 公園開園",防災倉庫1棟、防火樹林帯、非常用防災トイレ70穴、耐震100トン地下貯水槽2基、水路1箇所、ヘリコプター緊急離発着場,,,,,,,,,,
杉並区,green,和田中央公園,166-0012,"〒166-0012
杉並区和田1丁目38番19号",,https://www.city.suginami.tokyo.jp/shisetsu/kouen/04/wada/1007364.html,,139.661532799803,35.6923094597589,公園 ,2127.68,https://www.city.suginami.tokyo.jp/_res/projects/default_project/_page_/001/007/364/149_wadatyuuoukouen.jpg,昭和62年2月14日,トイレ有り、流れ有り,"和田中央児童館と一体的につくられた細長い公園です。
東京都交通局の大和寮跡地を買収してつくられたものです。
児童館の前庭につづく、植込みの間の通路を入っていくと、サクラやケヤキなどの木立に囲まれた広場に出ます。
広場の中ほどに、木製遊具があります。
それは、やぐらからすべり台、丸太渡り、そしてロープ登りまでつながっていて、アスレチック風の楽しみ方ができるようになっています。
広場では、ゲートボールも行われています。
広場の東側は、あずまやのあるテラス。そのかたわらには、流れと池があります。
流れの水源は、公園南端の植込みの中にあります。
灌木や中木の植込みに発した流れは、大きな石の間を縫って、池にそそぎます。",,,,,,,,,,,,,,,,,,,,,,,
杉並区,green,和田東公園,166-0012,"〒166-0012
杉並区和田1丁目48番16号",,https://www.city.suginami.tokyo.jp/shisetsu/kouen/04/wada/1007365.html,,139.663461099802,35.693015859766,公園 ,640.40,https://www.city.suginami.tokyo.jp/_res/projects/default_project/_page_/001/007/365/218_wadahigasikouen.jpg,平成9年10月1日,トイレなし,,,,,,,,,,,,,,,,,,,,,,,,
杉並区,green,和田さくらの坂公園,166-0012,"〒166-0012
杉並区和田1丁目54番28号",,https://www.city.suginami.tokyo.jp/shisetsu/kouen/04/wada/1007366.html,車いすトイレ　オストメイトトイレ　ベビーベッド・ベビーチェアトイレ　点字ブロック　,139.664886799802,35.6941278897674,公園 ,2130.96,https://www.city.suginami.tokyo.jp/_res/projects/default_project/_page_/001/007/366/sakuranosakakouen.jpg,平成24年3月31日,バリアフリートイレ有り,"段差のある公園で、段差の箇所にはすべり台があり、岩登りなどもできます。
この公園は国有地の無償貸付を受けています。",,,,,,,,,,,,,,,,,,,,,,,
杉並区,green,和田十貫坂緑地,166-0012,"〒166-0012
杉並区和田1丁目58番6号",,https://www.city.suginami.tokyo.jp/shisetsu/kouen/04/wada/1007367.html,,139.666578299806,35.6936190897927,公園 ,216.35,https://www.city.suginami.tokyo.jp/_res/projects/default_project/_page_/001/007/367/prk_wadajukkanzaka_ryokuti.jpg,平成15年11月17日,トイレなし,,,,,,,,,,,,,,,,,,,,,,,,
杉並区,green,和田公園,166-0012,"〒166-0012
杉並区和田2丁目1番11号",,https://www.city.suginami.tokyo.jp/shisetsu/kouen/04/wada/1007368.html,,139.661362299827,35.6873532798491,公園 ,2737.09,https://www.city.suginami.tokyo.jp/_res/projects/default_project/_page_/001/007/368/006_wadakouen.jpg,昭和37年3月30日,トイレ有り,"この公園は、区画整理事業により作られたもので、敷地はカギ形で、しかも2段のつくりになっています。
高い方の敷地は、自然石で土留めされており、道路より一段高くなっていて、陽光がさんさんとふりそそぐ明るい広場で、ゲートボールもできます。
入口付近には、パーゴラが建ち、その前におかれた3個の石の彫刻が変化をつけています。
一段低い敷地の方は、広場の周りがケヤキの木々で囲まれた緑の木陰の空間と、平成21年度に拡張された明るい広場からなっています。
上と下の広場の境には、段差を利用して、大規模な木製遊具が備えられています。
それらは、やぐら・すべり台・ロープネット渡りなどが一体になった複合遊具で、その奥には砂場もあります。
道路に面した一角には、公衆便所が設けられています。",,,,,,,,,,,,,,,,,,,,,,,
杉並区,green,帝釈天北広場緑地,166-0012,"〒166-0012
杉並区和田3丁目9番7号",,https://www.city.suginami.tokyo.jp/shisetsu/kouen/04/wada/1007369.html,,139.656459999832,35.6934545397526,公園 ,115.46,https://www.city.suginami.tokyo.jp/_res/projects/default_project/_page_/001/007/369/177_taisyakutenkitahirobaryokuti.jpg,平成2年3月31日,トイレなし,,,,,,,,,,,,,,,,,,,,,,,,
杉並区,green,和田西公園,166-0012,"〒166-0012
杉並区和田3丁目15番18号",,https://www.city.suginami.tokyo.jp/shisetsu/kouen/04/wada/1007370.html,,139.655249299845,35.6923258397851,公園 ,371.90,https://www.city.suginami.tokyo.jp/_res/projects/default_project/_page_/001/007/370/102_wadanisikouen.jpg,昭和54年10月15日,トイレ有り,,,,,,,,,,,,,,,,,,,,,,,,
杉並区,green,和田北公園,166-0012,"〒166-0012
杉並区和田3丁目41番20号",,https://www.city.suginami.tokyo.jp/shisetsu/kouen/04/wada/1007371.html,,139.658735899803,35.6962011096201,公園 ,1017.99,https://www.city.suginami.tokyo.jp/_res/projects/default_project/_page_/001/007/371/032_wadakitakouen.jpg,昭和47年1月10日,トイレ有り、球戯場有り,"正方形の敷地を、遊びの広場と球戯場がほぼ半分づつに分けている公園で、広場にはケヤキ・サクラ・シイノキなどが数本立つだけなので、明るく開放的です。
遊具は、右側に4連ブランコとすべり台・鉄棒があり、左側に球戯場を背にして、砂場があり、上部は日除けとサクラの枝でおおわれています。
球戯場は、青い鉄の柱とネットで囲まれ、気兼ねなく運動が楽しめるようになっています。",,,,,,,,,,,,,,,,,,,,,,,
杉並区,green,蚕糸の森公園,166-0012,"〒166-0012
杉並区和田3丁目55番30号",03-3315-7247,https://www.city.suginami.tokyo.jp/shisetsu/kouen/04/wada/1007372.html,点字案内　AED　,139.655997199844,35.6971263797688,公園 ,27146.86,https://www.city.suginami.tokyo.jp/_res/projects/default_project/_page_/001/007/372/145_sansinomorikouen.jpg,昭和61年5月31日,トイレ有り、バリアフリートイレ有り、流れ有り,"学校防災公園
農林水産省の蚕糸試験場の跡地につくられた公園です。
試験場が、昭和55年に筑波研究学園都市に移転したあと、その跡地に、防災機能をそなえ、しかも福祉に役立つ施設をつくることになり、公園、小学校、備蓄倉庫などが建設されました。
ちなみに、学校と一体化して整備された公園施設が、全体的に高い防災機能をそなえていることから、この公園を「学校防災公園」と呼ぶ人もいます。
つどいの広場
正門入口を入ったところが、「つどいの広場」。
舗装された広場には、大きなスズカケが枝をいっぱいに広げて、来園者を迎えます。
正面には、この広場のシンボルともいえる大滝が、左右に弧を描いて立ちはだかり、回りにさわやかな水音をひびかせています。
滝は幅30メートル、高さ3.2から3.5メートル、最大1分間に11.5立方メートルの水が流れ落ちます。
いこいの広場
つどいの広場から公園の中央に進んだところが、右に芝生の丘を望み、左に流れと池をひかえる「いこいの広場」。
丘の頂上には、背の低い木立が立ち並び、芝生におおわれたなだらかなスロープは、ゆったりと池までくだります。
流れの源は、大滝の裏の木立の間につくられた岩場の滝。
流れは、大小の自然石を洗って流れ落ち、池にそそぎます。
遊びの広場
正門を入って左に曲がると、ヒマラヤスギなどの高木に囲まれた「遊びの広場」に入ります。
足元は、落ち葉が散り敷く、ふっくらした土の地面。
真っ赤な蒸気機関車の形をした遊具やカラフルなジャングルジムが、子供達の人気です。
ここでは、ゲートボールや夏休み期間にデーキャンプもできます。
広場の先は、営団地下鉄丸の内線の東高円寺駅につづくカラー舗装された「香りの散歩道」。
左右にクチナシ、ジンチョウゲ、ロウバイなどの樹木が植えられ、花の時季には、あたりは甘い香りにつつまれます。
ここには、身障者のために点字樹名板や手すりがもうけられています。
スポーツ広場
杉並第十小学校と共用の運動場です。
小学校の体育の授業で使うほか、地域の運動会、少年サッカー、少年野球などにも利用できます。
なお、この広場は、教育委員会が、校庭と一体的に管理しています。
歩行者優先道路
公園と学校の東と南側には、スラローム型の歩行者優先道路がめぐらされています。
カラー舗装された広い歩道には、種々の樹木が梢をつらね、さらに四季の花が咲く花壇やフジ棚の日よけなどがもうけられ、行き交う人々にやすらぎを与えるように配慮されています。
防災施設
公園は、災害が発生したときの一時避難地として、その安全を確保するための手立てが講じられています。
例えば、公園の周りは、火災の延焼を防ぐ防火樹林帯で囲まれ、さらに安全性を高めるため、敷地中央部に植込みと不燃建築物の学校で取り囲んだ広い空き地がもうけられています。
そのほか、放水銃、樹木スプリンクラー、広場（校庭）散水、ゲートシャワー、応急水槽、備蓄倉庫など、さまざまな防災施設がととのえられています。
歴史性の保存
蚕糸試験場は、明治44年に設置され、昭和55年に筑波に移転するまでの70年にわたってこの地にあり、地域の人々に親しまれてきました。
そうした歴史性を保存するための配慮がなされています。
青梅街道に面した旧正門や旧守衛所を、公園の主要入口や公園管理事務所として修復・保存するとともに、この一帯には記念碑の設置や桑の木の植栽をするなど、蚕糸試験場の面影を残しています。
この公園は国有地の無償貸付を受けています。",,,,,,,,,,,,,,,,,,,,,,,
杉並区,green,北公園緑地事務所,167-0022,"〒167-0022
杉並区下井草4丁目21番8号",03-3396-5261,https://www.city.suginami.tokyo.jp/shisetsu/kouen/ryokuchi/1007373.html,,139.618785799994,35.7218810797644,公園緑地事務所,,https://www2.wagmap.jp/suginami-api/?api=img&mid=1&dtp=1&mpx=139.6187858&mpy=35.72188107&mps=5000&gprj=2&msw=450&msh=300,,,,,,,,,,,,,,,,,03-5382-5241,,,,,,,,,
杉並区,green,南公園緑地事務所,168-0072,"〒168-0072
杉並区高井戸東1丁目18番5号",03-3304-0521,https://www.city.suginami.tokyo.jp/shisetsu/kouen/ryokuchi/1007374.html,,139.619787400026,35.682606549968,公園緑地事務所,,https://www2.wagmap.jp/suginami-api/?api=img&mid=1&dtp=1&mpx=139.6197874&mpy=35.68260655&mps=5000&gprj=2&msw=450&msh=300,,,,,,,,"京王井の頭線「高井戸駅」徒歩5分
関東バス（荻窪駅南口・芦花公園駅間、荻54）、（荻窪駅南口・北野間、荻58）で「高井戸駅」下車徒歩5分",,,,,,,,,03-3304-4016,,,,,,,,,
杉並区,green,井草森公園管理事務所,167-0021,"〒167-0021
杉並区井草4丁目12番1号",03-5310-4515,https://www.city.suginami.tokyo.jp/shisetsu/kouen/kanri/1007375.html,車いすトイレ　インターホン　音声案内　AED　,139.612387026514,35.7266627551363,公園管理事務所,,https://www2.wagmap.jp/suginami-api/?api=img&mid=1&dtp=1&mpx=139.61238702&mpy=35.72666275&mps=5000&gprj=2&msw=450&msh=300,,,,,,,,,,,,,,,,,03-5310-4516,,,,,,,,,
杉並区,green,大田黒公園管理事務所,167-0051,"〒167-0051
杉並区荻窪3丁目33番12号",03-3398-5814,https://www.city.suginami.tokyo.jp/shisetsu/kouen/kanri/1007376.html,ベビーベッド・ベビーチェアトイレ　AED　,139.624666280439,35.7008368862326,公園管理事務所,,https://www2.wagmap.jp/suginami-api/?api=img&mid=1&dtp=1&mpx=139.62466628&mpy=35.70083688&mps=5000&gprj=2&msw=450&msh=300,,,,,,,,,,,,,,,,,03-3398-5814,,,,,,,,,
杉並区,green,柏の宮公園管理事務所,168-0065,"〒168-0065
杉並区浜田山2丁目5番1号",03-3329-5686,https://www.city.suginami.tokyo.jp/shisetsu/kouen/kanri/1007377.html,車いすトイレ　ベビーベッド・ベビーチェアトイレ　音声案内　AED　,139.626343200141,35.6776485503958,公園管理事務所,,https://www2.wagmap.jp/suginami-api/?api=img&mid=1&dtp=1&mpx=139.6263432&mpy=35.67764855&mps=5000&gprj=2&msw=450&msh=300,,,,,,,,,,,,,,,,,03-3329-5686,,,,,,,,,
杉並区,green,蚕糸の森公園管理事務所,166-0012,"〒166-0012
杉並区和田3丁目55番30号",03-3315-7247,https://www.city.suginami.tokyo.jp/shisetsu/kouen/kanri/1007378.html,AED　,139.655740181949,35.6977963836801,公園管理事務所,,https://www2.wagmap.jp/suginami-api/?api=img&mid=1&dtp=1&mpx=139.65574018&mpy=35.69779638&mps=5000&gprj=2&msw=450&msh=300,,,,,,,,,,,,,,,,,03-3315-7248,,,,,,,,,
杉並区,green,杉並児童交通公園管理事務所,166-0016,"〒166-0016
杉並区成田西1丁目22番13号",03-3315-4564,https://www.city.suginami.tokyo.jp/shisetsu/kouen/kanri/1007379.html,ベビーベッド・ベビーチェアトイレ　AED　,139.631846715247,35.688697224454,公園管理事務所,,https://www2.wagmap.jp/suginami-api/?api=img&mid=1&dtp=1&mpx=139.63184671&mpy=35.68869722&mps=5000&gprj=2&msw=450&msh=300,,,,,,,,,,,,,,,,,03-3315-4564,,,,,,,,,
杉並区,green,塚山公園管理事務所,168-0073,"〒168-0073
杉並区下高井戸5丁目23番12号",03-3302-8989,https://www.city.suginami.tokyo.jp/shisetsu/kouen/kanri/1007380.html,車いすトイレ　AED　,139.624656285121,35.6750658563363,公園管理事務所,,https://www2.wagmap.jp/suginami-api/?api=img&mid=1&dtp=1&mpx=139.62465628&mpy=35.67506585&mps=5000&gprj=2&msw=450&msh=300,,,,,,,,,,,,,,,,,03-3302-8990,,,,,,,,,
杉並区,green,馬橋公園管理事務所,166-0002,"〒166-0002
杉並区高円寺北4丁目35番5号",03-3336-1105,https://www.city.suginami.tokyo.jp/shisetsu/kouen/kanri/1007381.html,AED　,139.64365321736,35.7094193425498,公園管理事務所,,https://www2.wagmap.jp/suginami-api/?api=img&mid=1&dtp=1&mpx=139.64365321&mpy=35.70941934&mps=5000&gprj=2&msw=450&msh=300,,,,,,,,,,,,,,,,,03-3336-1106,,,,,,,,,
杉並区,green,桃井原っぱ公園管理事務所,167-0034,"〒167-0034
杉並区桃井3丁目8番1号",03-3390-3154,https://www.city.suginami.tokyo.jp/shisetsu/kouen/kanri/1007382.html,車いすトイレ　オストメイトトイレ　ベビーベッド・ベビーチェアトイレ　点字ブロック　AED,139.607140555351,35.7144241143039,公園管理事務所,,https://www2.wagmap.jp/suginami-api/?api=img&mid=1&dtp=1&mpx=139.60714056&mpy=35.71442411&mps=5000&gprj=2&msw=450&msh=300,,,,,,,,,,,,,,,,,03-3390-3156,,,,,,,,,
杉並区,green,善福寺川緑地サービスセンター,166-0016,"〒166-0016
杉並区成田西1丁目30番27号",03-3313-4247,https://www.city.suginami.tokyo.jp/shisetsu/kouen/kyokai/1007383.html,,139.632391728419,35.6906785366421,東京都公園協会-サービスセンター,,https://www2.wagmap.jp/suginami-api/?api=img&mid=1&dtp=1&mpx=139.63239172&mpy=35.69067853&mps=5000&gprj=2&msw=450&msh=300,,,,,,,,,,,,,,,,,,,,,,,,,,
杉並区,green,善福寺公園サービスセンター,167-0041,"〒167-0041
杉並区善福寺3丁目9番10号",03-3396-0825,https://www.city.suginami.tokyo.jp/shisetsu/kouen/kyokai/1007384.html,,139.589966726816,35.7162333099814,東京都公園協会-サービスセンター,,https://www2.wagmap.jp/suginami-api/?api=img&mid=1&dtp=1&mpx=139.58996672&mpy=35.71623331&mps=5000&gprj=2&msw=450&msh=300,,,,,,,,,,,,,,,,,,,,,,,,,,
杉並区,green,塚山公園みどりの相談所,168-0073,"〒168-0073
杉並区下高井戸5丁目23番12号　塚山公園管理事務所内",03-3302-9387,http://www.city.suginami.tokyo.jp/shisetsu/kouen/soudan/1007385.html,,139.624842719993,35.6750605426526,みどりの相談所,,https://www2.wagmap.jp/suginami-api/?api=img&mid=1&dtp=1&mpx=139.62484271&mpy=35.67506054&mps=5000&gprj=2&msw=450&msh=300,,,,,,,,"京王井の頭線「浜田山駅」徒歩約13分
京王線「上北沢駅」徒歩約12分
南北バスすぎ丸 （浜田山・下高井戸間、さくら路線）「塚山公園」下車すぐ　
駐車場はありません",,,,,,,,,,"専門の相談員による園芸相談を行っています。「花をきれいに咲かせたい」、「花や木の名前を教えてほしい」、「病害虫に困っている」など、みどりに関するさまざまな質問や疑問に、専門の相談員がお答えします。来所やお電話でお気軽にお問い合わせください。

問い合わせ先
みどりの相談所　電話：03-3302-9387（くさばな）（注：窓口開設日時のみ受け付け）
窓口開設日時
毎週日曜日（第5日曜日、年末年始を除く）
午前9時30分から午後4時30分まで（正午～午後1時を除く）

上記の相談所開設日時以外でも、電話やファクスによる相談をお受けします（回答にはお時間をいただきます）。
塚山公園管理事務所　電話：03‐3302‐8989　ファクス：03‐3302‐8990",,,,,,,,
杉並区,green,善福寺川緑地,,杉並区成田東2丁目・3丁目・4丁目、成田西1丁目・3丁目・4丁目、荻窪1丁目,,https://www.city.suginami.tokyo.jp/shisetsu/kouen/toritsu/1007386.html,,139.632307504223,35.6903808331437,杉並区内の都立公園,,https://www2.wagmap.jp/suginami-api/?api=img&mid=1&dtp=1&mpx=139.6323075&mpy=35.69038083&mps=5000&gprj=2&msw=450&msh=300,,,,,,,,,,,,,,,,,,,善福寺川緑地（外部リンク）,,,,,,,
杉並区,green,都立善福寺公園,,杉並区善福寺2丁目・3丁目,,https://www.city.suginami.tokyo.jp/shisetsu/kouen/toritsu/1007387.html,,139.590501453326,35.7149147443587,杉並区内の都立公園,,https://www2.wagmap.jp/suginami-api/?api=img&mid=1&dtp=1&mpx=139.59050145&mpy=35.71491474&mps=5000&gprj=2&msw=450&msh=300,,,,,,,,,,,,,,,,,,,都立善福寺公園（外部リンク）,,,,,,,
杉並区,green,和田堀公園,,杉並区大宮1丁目・2丁目、成田東1丁目・2丁目、成田西1丁目、堀ノ内1丁目・2丁目、松ノ木1丁目,,https://www.city.suginami.tokyo.jp/shisetsu/kouen/toritsu/1007388.html,,139.639856357009,35.6853739575782,杉並区内の都立公園,,https://www2.wagmap.jp/suginami-api/?api=img&mid=1&dtp=1&mpx=139.63985635&mpy=35.68537395&mps=5000&gprj=2&msw=450&msh=300,,,,,,,,,,,,,,,,,,,都立和田堀公園（外部リンク）,,,,,,,
杉並区,green,清水いこいの森,167-0033,"〒167-0033
杉並区清水2丁目20番8号",,https://www.city.suginami.tokyo.jp/shisetsu/kouen/ikoi/1007389.html,,139.61645290017,35.7149679698298,いこいの森,718.56,https://www.city.suginami.tokyo.jp/_res/projects/default_project/_page_/001/007/389/shimizu_ikoinomori.jpg,平成10年3月20日,,,,,,,,,,,,,,,,,,,区内の300平方メートル以上の樹林等を対象に、所有者の方と区が市民緑地契約（無償借地契約）を結び、契約期間中は区民の皆さんに樹林を開放する制度です。,"以前から保護樹林だった屋敷林の一部で、ケヤキやムクノキの大木などがある約700平方メートルの森です。
自然の緑を感じることができる場所として、皆さんに親しんでいただくため、「清水いこいの森」と名付けました。
ぜひご利用ください。",,,,,
杉並区,green,下井草いこいの森,167-0022,"〒167-0022
杉並区下井草5丁目1番18号",,https://www.city.suginami.tokyo.jp/shisetsu/kouen/ikoi/1007390.html,,139.61674670003,35.7197135096456,いこいの森,1082.71,https://www.city.suginami.tokyo.jp/_res/projects/default_project/_page_/001/007/390/simoigusa_ikoinomori.jpg,平成21年3月12日,,,,,,,,,,,,,,,,,,,区内の300平方メートル以上の樹林等を対象に、所有者の方と区が市民緑地契約（無償借地契約）を結び、契約期間中は区民の皆さんに樹林を開放する制度です。,,平成21年4月に開設した「下井草いこいの森」は、立派なクスノキや竹林がある約1080平方メートルの森です。ぜひご利用ください。,,,,
杉並区,green,山葉名いこいの森,167-0023,"〒167-0023
杉並区上井草4丁目6番10号",,https://www.city.suginami.tokyo.jp/shisetsu/kouen/ikoi/1007391.html,,139.594440200166,35.7184992699506,いこいの森,2851.79,https://www.city.suginami.tokyo.jp/_res/projects/default_project/_page_/001/007/391/yanbanaikoinomori.jpg,平成25年10月13日,バリアフリートイレ有り,,,,,,,,,,,,,,,,,,区内の300平方メートル以上の樹林等を対象に、所有者の方と区が市民緑地契約（無償借地契約）を結び、契約期間中は区民の皆さんに樹林を開放する制度です。,,敷地にはトチノキやイチョウの大木があり、緑の恩恵をもたらす貴重な空間です。ぜひ、ご利用ください。,,,,
杉並区,green,大宮の杜緑地,168-0061,"〒168-0061
杉並区大宮2丁目2番14号",,https://www.city.suginami.tokyo.jp/shisetsu/kouen/01/oomiya/1021991.html,,139.642707938025,35.6822186589297,公園 ,2553．00,https://www.city.suginami.tokyo.jp/_res/projects/default_project/_page_/001/021/991/oomiyanomoriryokuti.jpg,平成28年4月2日,トイレなし,面積2.9ヘクタールの和田堀特別緑地保全地区（決定年月日：昭和51年12月24日）内に公園があることから、可能な限り既存樹木を残した、みどり豊かな緑地として整備されています。坂を上がった先には木陰を提供してくれる大きなクスノキが出迎え、その先にはモミジが水面に映る池がひっそりとたたずんでいます。大宮八幡宮から続く豊かなみどりの中で散策するのが気持ちの良い緑地です。,,,,,,,,,,,,,,,,,,,,,,,
杉並区,green,成田西ふれあい農業公園,166-0016,"〒166-0016
杉並区成田西3丁目18番9号",03-5347-2115,https://www.city.suginami.tokyo.jp//shisetsu/kouen/03/naritanishi/1022014.html,,139.623797761708,35.6912328934405,公園 ,4437.19,https://www.city.suginami.tokyo.jp//_res/projects/default_project/_page_/001/022/014/nougyoukouen.jpg,平成28年4月9日,トイレ有り、バリアフリートイレ有り,区民が農に親しむ場として、気軽に土とふれあい、農を「見る」「ふれる」「楽しむ」ことができる公園です。成田西ふれあい農業公園では杉並らしい農のある風景を演出するとともに、農や食への理解や知識の向上を図り、また都市における農の魅力や農地の多目的機能の大切さを伝えていきます。,,午前9時から午後5時,年末年始（12月29日～1月3日）,駐車場はありません。,,,,,,,,,,,,,,,,"JR中央線荻窪駅（南口）から
関東バス（荻窪南口・五日市街道営業所間、荻53）で「高井戸境」下車徒歩1分
JR中央線吉祥寺駅（北口）または、中野駅（北口）から、
関東バス（中野・吉祥寺駅北口間、中36）で 「高井戸境」下車徒歩1分
京王井の頭線高井戸駅から
関東バス（北野・荻窪駅南口間、荻54・58）で「柳窪」下車徒歩5分",,,
杉並区,green,成宗さくら公園,166-0015,"〒166-0015
杉並区成田東4丁目3番6号",,https://www.city.suginami.tokyo.jp/shisetsu/kouen/03/naritahigashi/1030603.html,,139.63277638464,35.6958347260361,公園 ,2950.02,https://www.city.suginami.tokyo.jp/_res/projects/default_project/_page_/001/030/603/narimunesakura.jpg,平成28年12月21日,トイレ無し,,,,,,,,,,,,,,,,,,,,,,,,
杉並区,green,下高井戸おおぞら公園,168-0073,"〒168-0073
杉並区下高井戸2丁目28番23号",03-3321-5022,https://www.city.suginami.tokyo.jp/shisetsu/kouen/03/shimotakaido/1032193.html,,139.637032008751,35.6706762161517,公園 ,30757.41,https://www2.wagmap.jp/suginami-api/?api=img&mid=1&dtp=1&mpx=139.63703201&mpy=35.67067622&mps=5000&gprj=2&msw=450&msh=300,平成29年4月8日,トイレ有り、バリアフリートイレ有り、流れ有り、複合遊具あり,「大空のもと　みんなのびのび　安全安心な広場」をコンセプトに整備を進め、平成29年4月に西側エリア約3ヘクタールを開園しました。防災交流テラス、子ども遊びエリア、健康遊具の設置など多目的に対応し、防災機能も備えた、多世代が憩える地域交流の拠点となる公園です。,,午前9時から午後5時まで（管理事務所）,,駐車場はありません。,,,,,,,,,,,,,,,,"京王線桜上水駅（北口）から徒歩8分
京王井の頭線永福町駅（南口）から徒歩10分
京王井の頭線西永福駅（南口）から徒歩10分",,,
杉並区,green,成田西ふれあい農業公園管理事務所,166-0016,杉並区成田西3丁目18番9号,03-5347-2115,https://www.city.suginami.tokyo.jp/shisetsu/kouen/kanri/1037393,,139.623659023245,35.6914579932942,公園管理事務所,,,,,,,,,,,,,,,,,,,,,,,,,,,,
杉並区,green,下高井戸おおぞら公園管理事務所,168-0073,杉並区下高井戸2丁目28番23号,03-3321-5022,https://www.city.suginami.tokyo.jp/shisetsu/kouen/kanri/1037395,,139.636864612135,35.6713744895352,公園管理事務所,,,,,,,,,,,,,,,,,,,,,,,,,,,,
杉並区,green,荻窪つどい公園,167-0051,"〒167-0051
杉並区荻窪4丁目15番27号",,https://www.city.suginami.tokyo.jp/shisetsu/kouen/02/ogikubo/1040054.html,,139.622122013939,35.7001526564443,公園 ,1092.63,https://www.city.suginami.tokyo.jp/_res/projects/default_project/_page_/001/040/054/ogikubotudoikoen.jpg,平成30年4月7日,バリアフリートイレ有り,,,,,,,,,,,,,,,,,,,,,,午前8時から午後6時,,
杉並区,green,馬橋ほんむら公園,166-0003,"〒166-0003
杉並区高円寺南3丁目16番12号",,https://www.city.suginami.tokyo.jp/shisetsu/kouen/02/kouenjiminami/1049607.html,,139.645504099999,35.6995423699981,公園 ,615.74,https://www.city.suginami.tokyo.jp/_res/projects/default_project/_page_/001/049/607/mabashihonmurakoen.jpg,平成31年3月28日,トイレなし,,,,,,,,,,,,,,,,,,,,,,,,
杉並区,green,下高井戸なごみ公園,168-0073,杉並区下高井戸4丁目19番26号,,,,139.63115228,35.6739230099982,公園 ,,,,,,,,,,,,,,,,,,,,,,,,,,,,
杉並区,green,高井戸東ひだまり緑地,168-0072,"〒168-0072
杉並区高井戸東4丁目27番4号",,https://www.city.suginami.tokyo.jp/shisetsu/kouen/03/takaidohigashi/1049675.html,,139.62364733,35.6869773299981,公園 ,164.89,https://www.city.suginami.tokyo.jp/_res/projects/default_project/_page_/001/049/675/takaidohigashihidamariryokuti.jpg,平成31年2月15日,トイレなし,,,,,,,,,,,,,,,,,,,,,,,,
杉並区,green,（仮称）荻外荘公園,167-0051,"〒167-0051
杉並区荻窪2丁目43番",,https://www.city.suginami.tokyo.jp/shisetsu/kouen/02/ogikubo/1054100.html,車いすトイレ,139.62231592,35.6984942399982,公園 ,7050.61,https://www.city.suginami.tokyo.jp/_res/projects/default_project/_page_/001/054/100/tekigaiso_image.jpg,,バリアフリートイレ有り,"荻窪駅南側の住宅街にある荻外荘は、内閣総理大臣を3度務めた政治家 近衞文麿が、昭和12年（1937年）の第一次内閣期から20年（1945年）12月の自決に至る期間を過ごし、昭和前期の政治の転換点となる会議を数多く行ったところです。このような歴史を持つことから、日本政治史上重要な場所であるとして、平成28年（2016年）3月に国の史跡に指定されました。
杉並区は、近衞らが重要な会談を行い政治の表舞台となった時代の姿を、創建の地 荻窪によみがえらせ、令和6年（2024年）12月に区立公園として公開する「荻外荘復原・整備プロジェクト」を進めています。
南側の芝生広場は、これまで暫定的に開放してきましたが、荻外荘公園の整備工事に着手にあたり、令和4年（2022年）7月1日（金曜日）から閉鎖します。芝生広場は、令和6年（2024年）12月から再びご利用いただける予定です。荻外荘の復原整備に、どうぞご期待ください。",,,,,,,,,,,,,,,,,,,,,,"国の史跡である荻外荘の復原・整備は、杉並区だけで進めるものではなく、区民の方をはじめとして、日本近現代史にご関心をお持ちの方、歴史的・文化的資源の保存にご理解の深い企業・団体など、全国の幅広いみなさまから、ご寄附を通じてご参画を得ながら進めていきたいと考えています。皆様のご支援をお待ちしています。

荻外荘応援ページ（寄附のページ）",
杉並区,green,都立高井戸公園,,杉並区久我山2丁目,,https://www.city.suginami.tokyo.jp/shisetsu/kouen/toritsu/1060148.html,,139.604266884474,35.6834321489286,杉並区内の都立公園,,https://www2.wagmap.jp/suginami-api/?api=img&mid=1&dtp=1&mpx=139.60426688&mpy=35.68343215&mps=5000&gprj=2&msw=450&msh=300,,,,,,,,,,,,,,,,,,,都立高井戸公園（外部リンク）,,,,,,,
杉並区,green,荻窪だんだん公園,167-0051,"〒167-0051
杉並区荻窪5丁目15番13号（荻窪税務署屋上）",,https://www.city.suginami.tokyo.jp/shisetsu/kouen/02/ogikubo/1061284.html,,139.616460149999,35.7038713599983,公園 ,753.76,https://www.city.suginami.tokyo.jp/_res/projects/default_project/_page_/001/061/284/ogikubodandankouen.jpg,令和2年12月25日,,,,午前9時から午後5時まで（荻窪税務署の開庁時間によって変更する場合があります。）,,,JR中央線、東京メトロ丸ノ内線「荻窪駅」西口より徒歩3分,土曜日・日曜日・祝日及び年末年始（12月29日～1月3日）,,,,,,,,,,,,,,,,,"喫煙、飲酒禁止
駐車場、駐輪場はありませんので、公共交通機関をご利用ください。
悪天候等、利用が困難な場合は休園します。"
杉並区,green,方南緑地,168-0062,"〒168-0062
杉並区方南1丁目52番33号",,https://www.city.suginami.tokyo.jp/shisetsu/kouen/04/hounan/1063989.html,,139.65893603,35.6792801999978,公園 ,142.15,https://www.city.suginami.tokyo.jp/_res/projects/default_project/_page_/001/063/989/hounanryokuchi.jpg,令和3年1月26日,トイレなし,,,,,,,,,,,,,,,,,,,,,,,,
杉並区,green,下井草どかん公園,167-0022,"〒167-0022
杉並区下井草3丁目13番21号",,https://www.city.suginami.tokyo.jp/shisetsu/kouen/02/shimoigusa/1064377.html,車いすトイレ、オストメイトトイレ、ベビーベッド・ベビーチェアトイレ,139.625028089999,35.7194968799984,公園 ,1059.77,https://www.city.suginami.tokyo.jp/_res/projects/default_project/_page_/001/064/377/shimoigusadokankouen.jpg,令和3年2月19日,バリアフリートイレ有り,,,,,,,,,,,,,,,,,,,,,,,,
杉並区,green,清水いづみ公園,167-0033,"〒167-0033
杉並区清水2丁目17番12号",,https://www.city.suginami.tokyo.jp/shisetsu/kouen/02/shimizu/1064382.html,,139.61587214,35.7140774599984,公園 ,625.98,https://www2.wagmap.jp/suginami-api/?api=img&mid=1&dtp=1&mpx=139.61587214&mpy=35.71407746&mps=5000&gprj=2&msw=450&msh=300,令和3年4月10日,トイレなし,,,,,,,,,,,,,,,,,,,,,,,,
杉並区,green,久我山丘のある公園,168-0082,"〒168-0082
杉並区久我山1丁目8番30号",,http://www.city.suginami.tokyo.jp/shisetsu/kouen/02/kugayama/1068144.html,,139.5952933,35.6841590999981,公園 ,2999.06,http://www.city.suginami.tokyo.jp/_res/projects/default_project/_page_/001/068/144/kugayamaokanoarukouen.jpg,令和3年8月2日,バリアフリートイレ有り,,,,,,,,,,,,,,,,,,,,,,,,
杉並区,green,阿佐谷けやき公園,166-0001,"〒166-0001
杉並区阿佐谷北1丁目1番1号",03-5356-9501（阿佐谷地域区民センター）,https://www.city.suginami.tokyo.jp/shisetsu/kouen/01/asagayakita/1007051.html,車いす対応出入口、一般エレベーター、車いすエレベーター、点字案内、点字ブロック,139.6409871,35.7053418499982,公園 ,2891.78,https://www.city.suginami.tokyo.jp/_res/projects/default_project/_page_/001/007/051/keyaki_chijou_okujou.png,令和4年3月1日（地上部）、令和4年4月18日（屋上部）,バリアフリートイレあり,"阿佐谷地域区民センター等複合施設の建設に伴い、立体都市公園制度を活用した屋上部と隣接する地上部を有する公園として、リニューアルオープンしました。

地上部は、既存のけやきを残してみどりの効用を享受したレクリエーション活動・地域交流の場、オープンスペースとして災害時にも利用できます（複合遊具、すべり台、かまどベンチ、ミストあり）。
屋上部はゆったりとした空間を演出しており、区内初の電車の往来や東京スカイツリーを眺めることができる公園です。",,屋上部：午前9時から午後9時まで地上部：常時開放,屋上部：第2火曜日・年末年始（12月28日～1月4日）地上部：常時開放,,,,,,,,,,,,,,,,,"JR中央線阿佐ケ谷駅から徒歩5分
地下鉄丸ノ内線南阿佐ケ谷駅から徒歩12分",,,公園内での喫煙・ペットの連れ込みは禁止です。
